{"type":"FeatureCollection","name":"geologie-terrasse-marine.geojson","features":[{"type":"Feature","properties":{"Id":0},"geometry":{"type":"MultiPolygon","coordinates":[[[[-16.375007667570618,16.01537253005739],[-16.375742190331355,16.016096835653453],[-16.376957434265304,16.018200700973715],[-16.37712671487312,16.01981648885027],[-16.376732525878094,16.022144426956537],[-16.37658916505861,16.02411600035682],[-16.37841183834875,16.027301668456992],[-16.3781886801233,16.031354685146805],[-16.377287803591308,16.032422396111986],[-16.373325527146,16.035470228135367],[-16.37271628849487,16.037042852166564],[-16.371890975092064,16.037967767912082],[-16.369646167924746,16.039883758997707],[-16.36634620795962,16.04343989424878],[-16.363789734605586,16.04928439869394],[-16.363058855069905,16.053103793787873],[-16.361449275570678,16.05576703435207],[-16.354742464908963,16.06063968619558],[-16.352655049421266,16.061624360786272],[-16.347425507905648,16.06516200622351],[-16.334266456006514,16.076120313506845],[-16.334181716991925,16.07288329870748],[-16.335860483584003,16.07045430538348],[-16.340947110278222,16.064370107960478],[-16.346260255160683,16.061378652511106],[-16.347940686727583,16.05955796235158],[-16.351040248671104,16.058267244805197],[-16.35337054868362,16.05673963825734],[-16.354816380282614,16.0546297130007],[-16.356860934478423,16.049334918582872],[-16.359030989164065,16.046026528832343],[-16.36209230317849,16.042611729915933],[-16.363929935432363,16.041215400473284],[-16.367912038325482,16.038682062367506],[-16.368863286462666,16.036299578048702],[-16.371569301269545,16.031542138659336],[-16.372645302409406,16.02904124209129],[-16.37298312642879,16.026174710844654],[-16.372234718105638,16.020667434919467],[-16.372814387808237,16.018341240105364],[-16.37382131725964,16.016557119200304],[-16.375007667570618,16.01537253005739]]],[[[-16.37661607517376,16.039752957072],[-16.377349265811457,16.040620719177923],[-16.37375989893284,16.043456829116085],[-16.37254856815921,16.045884723347605],[-16.370876291429653,16.049886624146023],[-16.36951652318202,16.05231311484487],[-16.366373393102688,16.055009825392688],[-16.362171349208765,16.05970532548425],[-16.357522528381423,16.064540030795584],[-16.35362989210758,16.067946941320862],[-16.35018227384434,16.071358002400384],[-16.347179697897353,16.074773233784036],[-16.345807847199488,16.07834738049885],[-16.343705640968444,16.080766705702057],[-16.33440893026092,16.09058323249023],[-16.334389665841112,16.08814208079049],[-16.341337212822108,16.080170276995915],[-16.34358055093493,16.07846974253677],[-16.344197404736924,16.07617981895345],[-16.345710382762945,16.073324448723877],[-16.34826781711782,16.06990502169439],[-16.35008181280908,16.066622021664436],[-16.352036874666286,16.064057772946814],[-16.35680669413393,16.06195054152165],[-16.359800245810774,16.05939602851399],[-16.362499863202135,16.056551743568203],[-16.364613137155903,16.05298449329604],[-16.366734987054322,16.0485563980575],[-16.369121800923836,16.047287442696486],[-16.369872261047302,16.046433574247985],[-16.37109225893837,16.04314486457447],[-16.374981252957195,16.040024631631635],[-16.37661607517376,16.039752957072]]]]}},{"type":"Feature","properties":{"Id":0},"geometry":{"type":"MultiPolygon","coordinates":[[[[-16.34749205103659,16.031008539434342],[-16.34839207204708,16.03004137255667],[-16.349643476063548,16.029536690984557],[-16.349862807090997,16.03131800068536],[-16.347232532812026,16.03440748128857],[-16.34749205103659,16.031008539434342]]],[[[-16.347219155906956,16.03450701802097],[-16.34709988811145,16.034563280562775],[-16.347232532812026,16.03440748128857],[-16.347219155906956,16.03450701802097]]],[[[-16.341614303730612,16.031239644349135],[-16.34227231874895,16.030729354463347],[-16.343386388063642,16.032060030399737],[-16.34434169325156,16.03149516683011],[-16.344388203314942,16.032758291143903],[-16.34617429679685,16.03220131474264],[-16.345799011070564,16.034091772286217],[-16.344529490319726,16.03637549565878],[-16.3420789002274,16.03807403412857],[-16.340113540773036,16.038744064023486],[-16.337735096796806,16.0391805602467],[-16.335638136877193,16.041111982549655],[-16.334981242920765,16.041507476996323],[-16.336074042925812,16.0391073234773],[-16.339018746698194,16.035519530041242],[-16.341614303730612,16.031239644349135]]],[[[-16.340890309613386,16.042118614326338],[-16.33361900567829,16.051387829840017],[-16.333480296109755,16.046089149788916],[-16.336358660795074,16.042721128044747],[-16.340890309613386,16.042118614326338]]]]}}]}