{"type":"FeatureCollection","name":"geologie-levees-sub-actuelles.geojson","features":[{"type":"Feature","properties":{"Id":0},"geometry":{"type":"MultiPolygon","coordinates":[[[[-16.363955849043535,16.10220033403782],[-16.365567032738753,16.103285676065614],[-16.36540464563228,16.104061360377106],[-16.36459477231389,16.10465161697613],[-16.363721488975855,16.104850665754686],[-16.36275472618594,16.10369809529529],[-16.362750095873963,16.10301970256467],[-16.363955849043535,16.10220033403782]]],[[[-16.372530382389744,16.10425801190225],[-16.374022223478214,16.10429968017639],[-16.37223978300518,16.105333428726063],[-16.37013846717565,16.105912257944258],[-16.366865204692377,16.106159388816128],[-16.365398016556234,16.105966317858677],[-16.3663172057973,16.105564542534566],[-16.36682463704131,16.104893353112583],[-16.372530382389744,16.10425801190225]]]]}}]}