{"type":"FeatureCollection","name":"geologie-cuvettes-argileuses.geojson","features":[{"type":"Feature","properties":{"Id":0},"geometry":{"type":"Polygon","coordinates":[[[-16.373325527146,16.035470228135367],[-16.374237078651127,16.036223468052153],[-16.37591366861248,16.036717443708906],[-16.37555553945617,16.037909797721916],[-16.37475280915897,16.03905016183985],[-16.37390837048075,16.0408510808778],[-16.37109225893837,16.043144864574437],[-16.369872261047302,16.04643357424797],[-16.369121800923836,16.04728744269647],[-16.366734987054322,16.048556398057467],[-16.364613137155903,16.052984493296027],[-16.362499863202135,16.056551743568185],[-16.359800245810774,16.059396028513977],[-16.35680669413393,16.061950541521636],[-16.352036874666286,16.064057772946793],[-16.35008181280908,16.066622021664422],[-16.34826781711782,16.06990502169437],[-16.345710382762945,16.073324448723856],[-16.344197404736924,16.076179818953435],[-16.34358055093493,16.078469742536754],[-16.341337212822108,16.080170276995897],[-16.334389665841112,16.088142080790472],[-16.33430702562788,16.0776700655944],[-16.334266456006517,16.076120313506944],[-16.346166961992385,16.06621015381465],[-16.352655049421266,16.061624360786272],[-16.354742464908963,16.060639686195564],[-16.361449275570678,16.05576703435205],[-16.363058855069905,16.053103793787855],[-16.363789734605586,16.04928439869392],[-16.36634620795962,16.04343989424876],[-16.369646167924746,16.039883758997707],[-16.371890975092064,16.037967767912082],[-16.372716288494836,16.037042852166543],[-16.373325527146,16.035470228135367]]]}},{"type":"Feature","properties":{"Id":0},"geometry":{"type":"Polygon","coordinates":[[[-16.333359450031548,16.023413001567803],[-16.328911569990254,16.023220051427018],[-16.329153603725622,16.02249315589086],[-16.330161853863128,16.02250512952249],[-16.33112329176943,16.01916629046036],[-16.33231909976448,16.01708520768609],[-16.33486736504239,16.01573448691661],[-16.337156765514887,16.015517208561455],[-16.33801051403112,16.016661297438173],[-16.337554057863542,16.018988608985634],[-16.333374984187852,16.02584205245953],[-16.333359450031548,16.023413001567803]]]}}]}