{"type":"FeatureCollection","name":"geologie-dunes-semi-fixees.geojson","features":[{"type":"Feature","properties":{"Id":0},"geometry":{"type":"Polygon","coordinates":[[[-16.495797958671005,15.95055320687996],[-16.495128635385665,15.950762507845171],[-16.495917390053354,15.950260780304975],[-16.495797958671005,15.95055320687996]]]}},{"type":"Feature","properties":{"Id":0},"geometry":{"type":"Polygon","coordinates":[[[-16.502082352316904,15.973568720843197],[-16.502332075580668,15.973635865023143],[-16.50213264965043,15.973947215052135],[-16.502298955905975,15.973969031099596],[-16.502747583214322,15.97365591147237],[-16.503334930227577,15.972848193273654],[-16.503433598284907,15.971756864215614],[-16.502607684670036,15.970809782456932],[-16.501224295304123,15.969901008101132],[-16.500566396798757,15.969205289300822],[-16.500098305672125,15.968496771301277],[-16.499963410625817,15.967912217101606],[-16.500028888105234,15.967142551321695],[-16.49981041722989,15.966489691546249],[-16.500204383163297,15.965212618591497],[-16.50136156855387,15.964435371186028],[-16.502206531296924,15.963166638543449],[-16.502359484460623,15.961397600474422],[-16.501949805112922,15.962158164667223],[-16.500666905663206,15.9635791985947],[-16.500729397918466,15.964003533993129],[-16.500470555421572,15.96430379318306],[-16.500020654064496,15.964444703835722],[-16.499686660929225,15.964457701837476],[-16.4979309325051,15.963635710277279],[-16.496441965693343,15.963539718646121],[-16.495869662318572,15.963176323205541],[-16.495748092510595,15.962786832592315],[-16.495828087872116,15.96237299358386],[-16.4961219402121,15.961992090676883],[-16.496806261395626,15.96145922375048],[-16.497552417488876,15.96053074330227],[-16.497662057317562,15.959751179225234],[-16.4972725699288,15.958813106926671],[-16.497271725344568,15.958157050773671],[-16.498055811594906,15.957538468776535],[-16.498274497121024,15.95666555105541],[-16.498379624999025,15.953977990526802],[-16.498173287558174,15.951462019791407],[-16.49827030016868,15.951049842830605],[-16.498129103588415,15.950566712032224],[-16.496679801348982,15.94912444588686],[-16.49674955603325,15.948409900836111],[-16.49620719509426,15.947808507833873],[-16.496214514809424,15.947337896169655],[-16.500846643504936,15.945887163433829],[-16.50112886579372,15.94587218602242],[-16.50056262109145,15.946813661303423],[-16.500430118143296,15.947765218158557],[-16.500804622204964,15.948017388404299],[-16.501061476192163,15.94845204916937],[-16.502078364828467,15.948938724107325],[-16.502493638918708,15.949383927523886],[-16.50228817446034,15.949712310564957],[-16.501475930077046,15.949912344198314],[-16.500748315461,15.950739979502805],[-16.500706037739253,15.95135842465537],[-16.500911024260045,15.951770089720867],[-16.500577635464786,15.952978656186856],[-16.501262079402483,15.956405136326701],[-16.50066387430565,15.957169683408699],[-16.50091463083238,15.95779792523893],[-16.50086492471341,15.958432844589268],[-16.50105004697389,15.958692448899884],[-16.50160184198296,15.958767635338297],[-16.502059754267353,15.95775566557118],[-16.502087884718478,15.95732091774469],[-16.501528819347495,15.956805961332938],[-16.501485115015726,15.955418336706154],[-16.50100500797857,15.953667928466187],[-16.501125798386937,15.951967140130368],[-16.501018993951693,15.951064095492862],[-16.501369544521513,15.950351549829435],[-16.502279002257836,15.950022435051801],[-16.502618675038175,15.949342225101127],[-16.500942732423262,15.947353255528267],[-16.501104225936185,15.946355221050746],[-16.50158991126232,15.94584771854435],[-16.50328332144506,15.945757850018728],[-16.50370179953603,15.948118455471434],[-16.50396004591648,15.948770392972813],[-16.504248776556462,15.948980821351283],[-16.503999668795217,15.949554566158401],[-16.50438210791006,15.953329828426034],[-16.50402764211031,15.955568576278612],[-16.502875886292824,15.957423372148508],[-16.5026763949891,15.960121339438487],[-16.50274144869323,15.962049360502995],[-16.502998386000396,15.964652818793487],[-16.50362496677433,15.967990679611999],[-16.504901041970125,15.971207024459224],[-16.50505502877389,15.97275579306509],[-16.50499903602475,15.973203917154203],[-16.504717319955606,15.97361919798755],[-16.50373811769102,15.974395222150456],[-16.502116450413116,15.974957606635664],[-16.50193288069321,15.974212656856839],[-16.502082352316904,15.973568720843197]]]}},{"type":"Feature","properties":{"Id":0},"geometry":{"type":"Polygon","coordinates":[[[-16.493922168658425,15.947942722988643],[-16.494148240185115,15.948683629838074],[-16.495372285896654,15.951038584910778],[-16.49532010875899,15.952005365574678],[-16.495514468968537,15.952874764983294],[-16.49573800610269,15.953676970679087],[-16.49608784181651,15.954172111702809],[-16.49565229107414,15.956787366577434],[-16.496490775841227,15.959154545573023],[-16.496554731538552,15.959776063742957],[-16.496471475527922,15.96055170567363],[-16.496070953805944,15.96122429362013],[-16.494569565251602,15.961493065033364],[-16.492989258437056,15.962141341890623],[-16.491606213985936,15.957836968147792],[-16.491156655484446,15.95519298843741],[-16.49115522378923,15.953429701570778],[-16.49051307294178,15.952333577612661],[-16.49173214787103,15.94888081138499],[-16.49114990865885,15.9480767019675],[-16.493923124913373,15.947870259754863],[-16.493922168658425,15.947942722988643]]]}}]}