{"type":"FeatureCollection","name":"geologie-cordons-littoraux.geojson","features":[{"type":"Feature","properties":{"Id":0},"geometry":{"type":"MultiPolygon","coordinates":[[[[-16.435452054781067,16.07495500519318],[-16.4341808619607,16.075015814431776],[-16.43273825973843,16.070849024642854],[-16.43152452967938,16.068494488978494],[-16.431746523486467,16.06600950753101],[-16.43427728391214,16.06049652169337],[-16.435550237627073,16.05674170460896],[-16.43561194445588,16.053169638467846],[-16.435021264758294,16.052877318758146],[-16.433450188298632,16.054226124935965],[-16.432398378234414,16.055579639123305],[-16.430610987121195,16.05628079879719],[-16.429562636506116,16.05727563070072],[-16.42917984695627,16.058491736063477],[-16.42908332595954,16.060786552383927],[-16.428769130689926,16.06257720501927],[-16.428746096585296,16.064944429833762],[-16.42891663307244,16.066560411673265],[-16.427516946278953,16.070612967887122],[-16.428615834274424,16.072057773045827],[-16.428349923238855,16.07396843151012],[-16.427601032956705,16.07467902313455],[-16.42141259279948,16.07522046894219],[-16.419063193101543,16.075199013604404],[-16.415962511525812,16.07612720137212],[-16.41373557831409,16.07622637727825],[-16.413278559784658,16.07585480447596],[-16.41280094592926,16.074116689098375],[-16.413152279768116,16.069815456791368],[-16.41332517102235,16.064795178239542],[-16.414150556541685,16.062590733554813],[-16.415720130251817,16.060153968665315],[-16.41582741250382,16.058038595314713],[-16.413642311960924,16.0538934613828],[-16.41398366061513,16.05060846355282],[-16.41529650625349,16.049125898227597],[-16.41711382960013,16.046631617872126],[-16.417426485541988,16.042588093765588],[-16.417109706838986,16.037061136988633],[-16.416830572753405,16.03526505368737],[-16.417677441360297,16.03211621069008],[-16.41829224790996,16.022365065024132],[-16.415642465773818,16.02026027009732],[-16.416108606483366,16.018112313683986],[-16.417159655294256,16.016830616531582],[-16.41955066035831,16.015059009042112],[-16.4203056986339,16.013702845932745],[-16.420323259280448,16.01190948049813],[-16.41961882422833,16.008100748610246],[-16.420782381625518,16.00418015758752],[-16.42171637085206,15.999692938054944],[-16.42013608075412,15.999767884877539],[-16.421451504141356,15.997986411065089],[-16.421716272880403,15.99619530870616],[-16.421603205641382,15.995118155999792],[-16.420989288887885,15.994694040467682],[-16.422282886574536,15.992332706421013],[-16.42431054290261,15.990083869651686],[-16.425580434083773,15.986628003380295],[-16.427595362533363,15.98282023777929],[-16.428241357415697,15.979956500554827],[-16.432013258523885,15.973414683456685],[-16.432613529615995,15.971429348283085],[-16.43253889089544,15.966406800759367],[-16.433423792214246,15.964382212509621],[-16.436551774687196,15.960464971545262],[-16.437810841397166,15.958085073823277],[-16.440108457910615,15.95057319261335],[-16.44264029937116,15.944378673835358],[-16.44329064239266,15.941036679443613],[-16.446224276637835,15.931617450546145],[-16.447740621789993,15.928163739631731],[-16.44962296594284,15.925191610562024],[-16.45088978530079,15.921974758734267],[-16.45191177097376,15.918516549697472],[-16.45479394345131,15.914357763549807],[-16.460453968423472,15.902183021574205],[-16.461278920957714,15.900190207583],[-16.46225582220984,15.901283089692924],[-16.463515371473708,15.903900696851831],[-16.46206418792211,15.90515368066887],[-16.459536991998338,15.908918781290655],[-16.454845917510895,15.921279146025755],[-16.45379625807484,15.927606736337575],[-16.450497799553663,15.935179396541695],[-16.449187453878565,15.940332852452586],[-16.45054342065793,15.945797412227698],[-16.45089268160044,15.949299117649595],[-16.450025067288358,15.9572305479051],[-16.450796579146864,15.969481220547875],[-16.452841919256883,15.991112312574606],[-16.45346106749168,15.990998328447414],[-16.4541535304328,15.989689334924982],[-16.45418980913523,15.985923305559746],[-16.45483715180036,15.982880184762244],[-16.4555821696922,15.982528197574508],[-16.45625445634435,15.983311437707195],[-16.45667610764232,15.984451119033427],[-16.45748752437167,15.983621455953056],[-16.45877067873398,15.9796643431455],[-16.459469574418307,15.974849699983274],[-16.458857307940953,15.970654571834283],[-16.456852334752547,15.965928171569509],[-16.45593970097035,15.962132061980771],[-16.45627499543458,15.958117631755991],[-16.456843127706065,15.95456443791777],[-16.456793761915247,15.953530933034775],[-16.455913417441188,15.952547325036676],[-16.455926139411293,15.951227418192934],[-16.457141755743052,15.948196594393602],[-16.457547493362185,15.942409376210064],[-16.45836167560951,15.937940122565516],[-16.459283399917798,15.934619681838553],[-16.459881480001822,15.93410854211811],[-16.4611236920333,15.934464086151706],[-16.46139304293014,15.925784982284052],[-16.461848502569502,15.92159945129661],[-16.462769013721466,15.918393776386717],[-16.46330607849925,15.918054258871972],[-16.463836521716395,15.918403387190105],[-16.46434325434148,15.921220165015272],[-16.465336385668788,15.928977036772876],[-16.465141740371507,15.93689539734014],[-16.463357922944702,15.942876836428596],[-16.464673579853415,15.947432199445567],[-16.464754705284886,15.951856896713076],[-16.46677985681877,15.959766466211363],[-16.464882597288778,15.96429297322457],[-16.46410669948197,15.967873005521],[-16.465298999418298,15.972427230284445],[-16.466019906702407,15.974585889643079],[-16.46653947452068,15.974538734619593],[-16.4672700223813,15.973110484963993],[-16.468421207094366,15.969055542471603],[-16.470024815847033,15.966798140075133],[-16.47101965451489,15.966161383704865],[-16.472533284185335,15.967280904463852],[-16.474469565288164,15.971602576042413],[-16.475236970924307,15.975375749975083],[-16.476561139606545,15.979094097668668],[-16.477159053265407,15.979664482200457],[-16.47684658585617,15.981326052370761],[-16.476803464698293,15.98142926966844],[-16.475918639619465,15.981581662401938],[-16.475151431966474,15.982304308040186],[-16.47437962017535,15.982399273285335],[-16.471802780149126,15.980743029058328],[-16.471200529572275,15.98092366384449],[-16.471266074011073,15.980598113005563],[-16.471251264403072,15.978266443154393],[-16.470636375140376,15.97664680398238],[-16.470012582460612,15.975959698115314],[-16.46930709521881,15.976060995689327],[-16.468099018105406,15.978309983365355],[-16.46776087486641,15.982647208923007],[-16.467220845106432,15.984830434948737],[-16.4662471910161,15.985826070791337],[-16.4657280902864,15.985821419903438],[-16.46424636884033,15.981790707744807],[-16.46350721820888,15.981532987189732],[-16.46260496223798,15.982816207208254],[-16.462283217016296,15.985431824384571],[-16.46011523876083,15.989800443893168],[-16.46046652032192,15.99183623021209],[-16.46210759008361,15.994720557693887],[-16.461558225849192,15.997954082385423],[-16.45969587030215,16.00034781993034],[-16.45816431224272,15.999186219274558],[-16.45663773852678,15.997508122989078],[-16.45586700765379,15.99744379483172],[-16.45561257266082,15.999220656520086],[-16.45614626523385,16.00542379240674],[-16.455775371917117,16.00697003822047],[-16.455787705481335,16.007893306576293],[-16.45443201309047,16.010033304427537],[-16.45445886205879,16.011634434130826],[-16.45492028223193,16.013015993719687],[-16.45587976506664,16.013927077494273],[-16.453303965291568,16.01496247913792],[-16.452566816827247,16.010928690694527],[-16.452333905415323,16.010467455750682],[-16.450290560845946,16.013146459121288],[-16.449401654730586,16.01302365511278],[-16.44913543893488,16.00986468696295],[-16.4481977414452,16.008650985471654],[-16.447314953515935,16.007896912267856],[-16.441502797847146,16.007798021573162],[-16.442509866063638,16.01103546276407],[-16.442979047540856,16.01620501429418],[-16.443133536821097,16.023236958937627],[-16.44251755653026,16.02940104499435],[-16.441368144523366,16.033192874042346],[-16.44115047328098,16.03667418706612],[-16.44067220781705,16.038326100910346],[-16.439522948601546,16.043570754457928],[-16.440735624855524,16.04714954472884],[-16.441190419627482,16.048122909649717],[-16.44066529185542,16.048214269883015],[-16.447002772711667,16.064569829171703],[-16.447416848643094,16.06280943081064],[-16.44749865230352,16.063029920993465],[-16.44846195875634,16.064917301034104],[-16.45138345870737,16.066734016338742],[-16.45254763221139,16.06715108583312],[-16.450805965783715,16.06885890373924],[-16.44871103321194,16.070229899578703],[-16.447791937148228,16.0724974530084],[-16.44652365414685,16.074993518447975],[-16.444781884857207,16.07670132500976],[-16.442215810384006,16.07762316774983],[-16.442215810383153,16.077623167749735],[-16.441171220035564,16.07748231311057],[-16.439873006870343,16.07707362119015],[-16.435998671537327,16.074951337346608],[-16.435509877665794,16.074976106501424],[-16.435452054781067,16.07495500519318]],[[-16.443478613645,16.07454316153004],[-16.443163459077805,16.074782039993085],[-16.441599873782277,16.07531847035907],[-16.440240082815173,16.075288962376803],[-16.439892996522858,16.07697643567149],[-16.44187979289576,16.0774556681453],[-16.442446316857687,16.075794277634724],[-16.443478613645,16.07454316153004]],[[-16.44802894535938,16.071548088809543],[-16.446067481870312,16.071787567704984],[-16.44489654873793,16.073359117552876],[-16.443608834984033,16.074444457060235],[-16.445614708187417,16.073469792934162],[-16.44713720612706,16.073199068331263],[-16.44802894535938,16.071548088809543]],[[-16.44030702462857,16.0630979188001],[-16.439462606880337,16.058355433069263],[-16.438733261477992,16.0570575084762],[-16.438062128118034,16.057410131866387],[-16.43749696862323,16.062139864330693],[-16.437960699864664,16.067883274395054],[-16.4389126525758,16.06918321137015],[-16.440695264813304,16.068984112395192],[-16.44293547407302,16.067497812020537],[-16.44030702462857,16.0630979188001]],[[-16.421625841205042,16.008097916978922],[-16.421619901303025,16.00809800632288],[-16.421620028685734,16.00809848977137],[-16.421625841205042,16.008097916978922]]],[[[-16.474234426656505,15.943246928978008],[-16.47467345516238,15.948570205145058],[-16.474404622814742,15.950839560093222],[-16.475999103632354,15.952109247129274],[-16.47634588318689,15.95462322983672],[-16.475407658566933,15.955810514077397],[-16.474679499520875,15.960885568751523],[-16.473621652920247,15.96165329856478],[-16.471510505206854,15.962710520565004],[-16.470289558957703,15.96114523478337],[-16.469804388288193,15.96018436100402],[-16.471080190290255,15.956010960655115],[-16.47190939189279,15.952494911529433],[-16.472495681122837,15.942875068363636],[-16.47196363157642,15.940359411751809],[-16.470576937097533,15.936759996992217],[-16.471547946806638,15.934078449568775],[-16.472189779493814,15.93157330147165],[-16.47198669618438,15.926968170595448],[-16.47251583407968,15.924933000763168],[-16.475115570342048,15.930690087208822],[-16.47386889208461,15.937601572824443],[-16.474234426656505,15.943246928977992],[-16.474234426656505,15.943246928977999],[-16.474234426656505,15.943246928978008]]],[[[-16.465965216992196,15.912707192175883],[-16.465083924117092,15.911838381398711],[-16.463860611371835,15.909531680550323],[-16.464934804725843,15.90685057642302],[-16.466744293791358,15.910611073664167],[-16.465965216992196,15.912707192175883]]]]}},{"type":"Feature","properties":{"Id":0},"geometry":{"type":"Polygon","coordinates":[[[-16.463939474063018,16.007475444823694],[-16.464087804657936,16.007476773677475],[-16.464382064077768,16.00384719466195],[-16.4647673067691,16.00234411251204],[-16.46503424917538,16.00207631038273],[-16.464628993060447,16.00357074894577],[-16.46630762719126,16.003224518399662],[-16.466803107537114,16.003364612422722],[-16.467108845009665,16.004605988571456],[-16.46610263178911,16.009012808803334],[-16.466061214245123,16.01011307883906],[-16.464751705130986,16.010585456935157],[-16.464737439019558,16.009347822884617],[-16.4640894786385,16.007481595059193],[-16.463939474063018,16.007475444823694]]]}},{"type":"Feature","properties":{"Id":0},"geometry":{"type":"Polygon","coordinates":[[[-16.40942781739336,16.053968254946493],[-16.4111879183427,16.055145641816083],[-16.411621050259228,16.056369216738382],[-16.411598511865247,16.05866472273469],[-16.412165947091555,16.06132434783645],[-16.411562594886004,16.062323184512596],[-16.410587595378274,16.063390348554382],[-16.40927407742043,16.06115430973408],[-16.40741094222906,16.06199807341089],[-16.406071338800597,16.062416194418997],[-16.405673194677775,16.059805176209586],[-16.40942781739336,16.053968254946493]]]}},{"type":"Feature","properties":{"Id":0},"geometry":{"type":"Polygon","coordinates":[[[-16.478400949401763,15.975123431081117],[-16.480597925704522,15.97284732876589],[-16.48214312228528,15.971521938045532],[-16.482155389692625,15.970230739522586],[-16.481006905898415,15.967530298583867],[-16.481025093913956,15.965617410364032],[-16.481911191882514,15.963413330217579],[-16.48168278329331,15.96143846517343],[-16.481020150496498,15.9596390827189],[-16.481362069210928,15.956174720615458],[-16.481131406030556,15.954438963826517],[-16.47998475173721,15.951559171262286],[-16.479815895489516,15.949823961472415],[-16.479971821405904,15.948855445908071],[-16.48076157455418,15.948850024522015],[-16.483773708750128,15.948625796913673],[-16.484246266771887,15.94918187467596],[-16.48425710632022,15.951943937071421],[-16.484958071340497,15.952308864418207],[-16.48490431348207,15.954066000449815],[-16.485117555917434,15.955036376117539],[-16.48589540154081,15.955115025037426],[-16.485923626206596,15.956047886444825],[-16.48488150015333,15.95646906509751],[-16.484900868995247,15.95833445924479],[-16.4855617219811,15.959021852603428],[-16.486452164064403,15.9589580194581],[-16.48622530109095,15.95942231066564],[-16.484902105044778,15.96093860662034],[-16.483532704762155,15.964585143036013],[-16.485521108654908,15.97385716432481],[-16.484397934209692,15.97499502151133],[-16.48356931729217,15.976350708110656],[-16.481486890816555,15.97697785531842],[-16.480225598086555,15.97703837615848],[-16.478731604733774,15.978172908462648],[-16.478619911304598,15.978090609311515],[-16.478400949401763,15.975123431081117]]]}},{"type":"Feature","properties":{"Id":0},"geometry":{"type":"Polygon","coordinates":[[[-16.48850121209001,15.976613560198615],[-16.486250216734103,15.976249258857646],[-16.486017822606726,15.975730675604861],[-16.489243496713414,15.973406225577857],[-16.489142778709507,15.971511422118018],[-16.488326413724508,15.970012015439687],[-16.488815649398507,15.968466786404813],[-16.488729072053996,15.965079932777986],[-16.489094224596226,15.96410751690259],[-16.488629457244393,15.963070353900816],[-16.487221042148605,15.961450905927753],[-16.48671076622438,15.96062695674581],[-16.48751345692248,15.959390599442157],[-16.4871937352469,15.956613845877156],[-16.487662184222415,15.954131042588463],[-16.487239988752528,15.951735987127453],[-16.486424190266078,15.949146129128442],[-16.48670015642976,15.948407947933031],[-16.48843540276156,15.948278773696574],[-16.489093342960352,15.94916981869854],[-16.49086960792981,15.9495203480267],[-16.491161654483548,15.950001196577004],[-16.489709192939113,15.951997021521407],[-16.49052136566182,15.95497581478078],[-16.490379956243448,15.959470213890082],[-16.490964334071474,15.970857986425035],[-16.490724085371802,15.975351504628524],[-16.490045770106672,15.976397673140253],[-16.48850121209001,15.976613560198615]]]}}]}