{"type":"FeatureCollection","name":"geologie-dunes-rouges.geojson","features":[{"type":"Feature","properties":{"Id":0},"geometry":{"type":"Polygon","coordinates":[[[-16.343705640968444,16.080766705702057],[-16.345807847199488,16.07834738049885],[-16.347179697897353,16.074773233784036],[-16.35018227384434,16.071358002400384],[-16.35362989210758,16.067946941320862],[-16.358424818022446,16.063601687707457],[-16.366373393102688,16.055009825392688],[-16.36951652318202,16.05231311484487],[-16.370509119421506,16.050541844486997],[-16.37375989893284,16.043456829116085],[-16.376750088826665,16.04118905522293],[-16.37745072828487,16.041275494303857],[-16.37769369380064,16.041708218467754],[-16.377734544777805,16.04256950670522],[-16.376315409027224,16.045999867032666],[-16.376548816435747,16.04738906543531],[-16.377089474686418,16.04772891608635],[-16.378085262873956,16.047068626968247],[-16.38070701538325,16.042071155838713],[-16.382102682551487,16.040984130037987],[-16.383694716515663,16.04004241039724],[-16.38468425236906,16.040003801173725],[-16.384778871856554,16.040435134414174],[-16.384565341638485,16.042011469545383],[-16.383809246027653,16.043439266400863],[-16.38290811417413,16.04453091352132],[-16.382152475059367,16.045910882294795],[-16.382543343733897,16.046392806259867],[-16.383137275115207,16.04635051356134],[-16.38423623005591,16.045260707623424],[-16.385245310976767,16.043261328857643],[-16.386645716739523,16.04169603965851],[-16.387341392919037,16.04136771558736],[-16.3876276501066,16.04242259233054],[-16.387713718145303,16.043714746598138],[-16.38715735971464,16.04495309889763],[-16.38603376582054,16.046628023347022],[-16.384613147682405,16.049226207076586],[-16.383338653127762,16.053040575697416],[-16.38245172343754,16.05518457179166],[-16.378359102479678,16.057630468518607],[-16.37180961029851,16.063380347184108],[-16.371390795217476,16.06445255887952],[-16.37194433802353,16.06474471121939],[-16.373357157857335,16.06443509441736],[-16.37789878641464,16.062863342222695],[-16.378345569067275,16.06344503620225],[-16.37773343916347,16.065304615543262],[-16.376679027348494,16.066873095311347],[-16.377570735061834,16.06673793754242],[-16.38069813688815,16.065619239260627],[-16.38278971861684,16.06420388755462],[-16.383221991779614,16.06549926634252],[-16.383055041448053,16.067363000736368],[-16.381846566072706,16.069504003864317],[-16.383617139955525,16.07052487378004],[-16.384026593719394,16.074115773713025],[-16.38191920558682,16.077109317828548],[-16.383148555404507,16.077884414380353],[-16.385831976475323,16.075939624933575],[-16.38999771903239,16.073914328970172],[-16.389714235421152,16.07755856437546],[-16.388936709523918,16.081138432245464],[-16.388031396336405,16.081727161402547],[-16.386282137089655,16.084523194152666],[-16.38442153405865,16.08657206772058],[-16.382745249334768,16.087991315337494],[-16.381103152494077,16.091936180276086],[-16.379815200934683,16.09359816349213],[-16.3744336852542,16.097962497420824],[-16.373130611940596,16.097663359414543],[-16.37136356462343,16.096269396034625],[-16.37035500997941,16.09620256838705],[-16.36937995298839,16.09871876476721],[-16.36870578027115,16.099528094158607],[-16.368311390769286,16.09900413998119],[-16.368311390769243,16.099004139981115],[-16.36561229973132,16.096818170200326],[-16.365149171992886,16.095743963181807],[-16.36548691617623,16.093293751589925],[-16.36548691617623,16.09329375158992],[-16.36548691617623,16.093293751589908],[-16.36532764136822,16.092217632027833],[-16.364615326918695,16.091732546014015],[-16.36304379032439,16.091497784062227],[-16.3615279182973,16.09199704982181],[-16.359057509207677,16.093628508300494],[-16.356394788767382,16.09677894433617],[-16.35433871577877,16.099778646367962],[-16.35351286744662,16.101383291352168],[-16.351554182094524,16.10370294051862],[-16.349738474221677,16.107129437411757],[-16.348216428746976,16.11102717793249],[-16.347446050368355,16.113817857730897],[-16.344492342053037,16.119672810733977],[-16.3417152756648,16.122731440881466],[-16.3396249761584,16.123931244714502],[-16.33745752138401,16.12541726882448],[-16.33565598962554,16.12740895263208],[-16.33472273087204,16.1303474663866],[-16.33440893026092,16.09058323249023],[-16.343705640968444,16.080766705702057]]]}},{"type":"Feature","properties":{"Id":0},"geometry":{"type":"Polygon","coordinates":[[[-16.385716440644437,16.054660162860902],[-16.386396664984783,16.05191160240378],[-16.388154801797334,16.048197372345285],[-16.389879716462033,16.045819434744672],[-16.391688095612146,16.045016152475746],[-16.39124363509828,16.047939091239126],[-16.38961223205119,16.05085101052957],[-16.387482045373897,16.056168810101937],[-16.386642609648238,16.057021908827092],[-16.38569417442709,16.056898301824923],[-16.385716440644437,16.054660162860902]]]}},{"type":"Feature","properties":{"Id":0},"geometry":{"type":"Polygon","coordinates":[[[-16.387991211030716,16.038175247088912],[-16.389791454216223,16.03618320855779],[-16.391318487616644,16.031652148370448],[-16.39227501672814,16.029578223102394],[-16.393621781141903,16.029569228064556],[-16.3936033084994,16.0314316830476],[-16.393064117024004,16.03194322166146],[-16.39221397846093,16.03388670929205],[-16.391349012075953,16.037322286710015],[-16.39038585092832,16.03869078572743],[-16.38861888085571,16.039711576613026],[-16.387827635654595,16.03970421994042],[-16.387991211030716,16.038175247088912]]]}},{"type":"Feature","properties":{"Id":0},"geometry":{"type":"Polygon","coordinates":[[[-16.420989288887885,15.99469404046765],[-16.421603205641382,15.995118155999757],[-16.42171627288051,15.996195308706113],[-16.421451504141356,15.997986411065053],[-16.418132587488603,16.002380021026788],[-16.41613784526881,16.00409545738411],[-16.414514485981837,16.005754506955206],[-16.41365233874379,16.00838142369391],[-16.412463481596337,16.008437330020353],[-16.41090763729271,16.010766564611032],[-16.40845749212156,16.013518000076797],[-16.406860603932724,16.014985936164944],[-16.404325147149034,16.016349543323088],[-16.40292788340731,16.01762798649276],[-16.40106997396766,16.020480478604274],[-16.398917215003294,16.023138918849327],[-16.398169806176064,16.023705933751533],[-16.397084776275204,16.023408918633063],[-16.39704480064858,16.022451991972524],[-16.39856801295582,16.01844856281411],[-16.400296843573294,16.015170942676452],[-16.402500303979384,16.013326812644554],[-16.403461827706085,16.012753522353126],[-16.40538147265776,16.012077423333995],[-16.406736311887492,16.010081162026328],[-16.407196877337334,16.008507097072535],[-16.40988827619867,16.007454903403815],[-16.410156762973727,16.00573654746507],[-16.411121680453544,16.005065670490975],[-16.41492817974453,16.00139404683411],[-16.41567099735833,16.001281303325822],[-16.419420812226562,15.997071032966007],[-16.420989288887885,15.99469404046765]]]}},{"type":"Feature","properties":{"Id":0},"geometry":{"type":"Polygon","coordinates":[[[-16.412250557118263,16.044800015238565],[-16.41126265829992,16.04467137235305],[-16.412431103807624,16.042809445294886],[-16.415889786175665,16.0381062728077],[-16.41722711926236,16.039109738238945],[-16.417339127441977,16.041063977922036],[-16.416029177989135,16.04298390516712],[-16.415047973910994,16.044898367129232],[-16.41309956642339,16.046889240858523],[-16.411576912437475,16.04801773904214],[-16.412250557118263,16.044800015238565]]]}},{"type":"Feature","properties":{"Id":0},"geometry":{"type":"Polygon","coordinates":[[[-16.340890309613386,16.042118614326338],[-16.336358660795074,16.042721128044747],[-16.333480296109755,16.046089149788916],[-16.333475431495238,16.04590332240753],[-16.334388230495012,16.0446378899287],[-16.334699698712353,16.043293235127148],[-16.33542742723956,16.04230748750056],[-16.33532010959874,16.04223069169883],[-16.334338467763704,16.04317928758143],[-16.334184279720898,16.044083998318726],[-16.333759560391,16.04446105277701],[-16.33345275919781,16.045037244808498],[-16.333443086368938,16.0446677445214],[-16.3333768577304,16.027836870140188],[-16.333374984187852,16.025842052459563],[-16.337554057863542,16.018988608985634],[-16.33801051403112,16.016661297438173],[-16.337156765514887,16.015517208561455],[-16.33486736504239,16.01573448691661],[-16.33231909976448,16.01708520768609],[-16.33112329176943,16.01916629046036],[-16.330161853863128,16.02250512952249],[-16.329153603725604,16.022493155890896],[-16.33621728896855,16.001278917867097],[-16.336217289003212,16.001278917763056],[-16.346218431887173,15.974359232555816],[-16.34891596242625,15.966642840759517],[-16.352089610657494,15.956289903283112],[-16.35228775074056,15.955525337892354],[-16.352328376101962,15.955391387439441],[-16.352395467414695,15.955109690337489],[-16.353678761813747,15.950157827652925],[-16.353982466628125,15.948446337646768],[-16.35398246662816,15.948446337646622],[-16.3541997168128,15.945528150816905],[-16.354285065099624,15.944381720276679],[-16.354285065099624,15.944381720276667],[-16.354285065099624,15.94438172027666],[-16.354232258346798,15.943235600168036],[-16.35409304054389,15.9402140107907],[-16.353166320509104,15.93105725911176],[-16.353151708941414,15.930212423432682],[-16.35308686061688,15.92646291622965],[-16.35319289206353,15.925166382899226],[-16.354074459222957,15.920725294248985],[-16.355407394718963,15.916919699677058],[-16.355823871300785,15.911513331562386],[-16.355823871300785,15.91151333156238],[-16.355823871300785,15.91151333156237],[-16.35570804072898,15.910661577719662],[-16.35534767895004,15.90801167687563],[-16.354271592397915,15.905097932256803],[-16.35278676377352,15.903211449935561],[-16.35157984301709,15.900582042992895],[-16.349616829901418,15.894859508663489],[-16.34889636002371,15.891110811700258],[-16.34874701319418,15.888664992360669],[-16.34872699245765,15.888337117274471],[-16.349013199412237,15.885998921678565],[-16.3500413920885,15.881756858872189],[-16.351672775331583,15.877512221784881],[-16.35496125930221,15.87281769744589],[-16.356907865074938,15.870614847261843],[-16.359795297946526,15.868155259952443],[-16.36349504954431,15.865562811017591],[-16.36349504954539,15.865562811016538],[-16.36750540403431,15.861836326520187],[-16.36821258889821,15.860953817250698],[-16.368212599983696,15.860953806420275],[-16.368212603746418,15.860953798721336],[-16.368663752441975,15.860390801793557],[-16.36939446222534,15.858535588173593],[-16.36939446222545,15.858535588173364],[-16.369586767519618,15.855552870304571],[-16.36945975386308,15.852470467397486],[-16.3692374050017,15.85140080434513],[-16.368691639614685,15.848775267762026],[-16.367083602980536,15.846523541345073],[-16.365532253321064,15.845536838640992],[-16.36553225331121,15.845536838637715],[-16.35629269185598,15.842417413409583],[-16.35361376512832,15.841342114288457],[-16.353613765127736,15.841342114288212],[-16.353613765127466,15.841342114288253],[-16.35181274130699,15.841529745028732],[-16.349651015141166,15.841418782690463],[-16.343241292296067,15.842229139811314],[-16.342291269260315,15.839649771665636],[-16.355944434313034,15.832130745195146],[-16.41774671528074,15.831961337942818],[-16.428148948799485,15.831840587461992],[-16.428288201412485,15.83184002786786],[-16.427429719793853,15.83543644647936],[-16.42714729541696,15.835713575795936],[-16.42490843001317,15.846621569212575],[-16.424634936904944,15.85384023832463],[-16.429350268818236,15.860027058545976],[-16.437387843173827,15.8694448276731],[-16.43874245655735,15.877594016959634],[-16.44428274689406,15.883603248880615],[-16.44428272327604,15.883603302459122],[-16.441744434905853,15.887548402875595],[-16.439463171625295,15.890397243192957],[-16.4375348422914,15.89353625371706],[-16.43426167437957,15.901181935392097],[-16.431452178758942,15.905460708779222],[-16.429030440847416,15.910508251485824],[-16.428003633970107,15.91442070541576],[-16.42768551717704,15.917253569296596],[-16.42706645660012,15.919902326790709],[-16.425936169472248,15.921757237471583],[-16.424895469763836,15.92203465289928],[-16.421942751796276,15.920716179383398],[-16.42112022608113,15.92142603219305],[-16.41945047671012,15.925356461189997],[-16.41824736405214,15.927067186206452],[-16.41622589374116,15.92905733216291],[-16.41269261348714,15.933974926045451],[-16.4112902614383,15.938734769882155],[-16.41043835681903,15.940907853366452],[-16.408209165190488,15.944388253826187],[-16.405357226332384,15.950847337646064],[-16.404439085199485,15.953708514991348],[-16.403073996658108,15.957022118631352],[-16.402173560777612,15.958089904241877],[-16.39926326268422,15.959928204021114],[-16.39635647138322,15.961407790689593],[-16.394410742181346,15.963183253175766],[-16.39410344229864,15.96425652756209],[-16.3946631482069,15.967633616784887],[-16.394357983595402,15.96849168489302],[-16.391967964948645,15.970191257331928],[-16.389573617910738,15.972321220034958],[-16.388675947364778,15.974710240307022],[-16.38865152761651,15.977161208150921],[-16.38826585514414,15.978652243526378],[-16.38458699754933,15.981906102989477],[-16.38277334718873,15.984041429293011],[-16.38126566953558,15.986478532379882],[-16.38042939448522,15.989758905964397],[-16.379536676063147,15.992500680851546],[-16.376672700937462,15.996431656246733],[-16.379120304371146,15.996576296017794],[-16.38040102432973,15.997066561253511],[-16.382017816999312,15.998219188563974],[-16.38164282638269,15.99899887490769],[-16.381129410385043,15.99842013669488],[-16.379467173417545,15.99775890830402],[-16.376798707036937,15.997590438261327],[-16.374713486292425,15.99843180218749],[-16.373404817089384,15.999495664104522],[-16.37328061764357,16.00078586584531],[-16.374031908704435,16.0031604204118],[-16.371669107892433,16.006524497777324],[-16.371080976631433,16.00692372295298],[-16.371032009818265,16.008107016753275],[-16.370725143191127,16.008925319317502],[-16.373579033681153,16.00776871690776],[-16.37889301152251,16.00301175360221],[-16.3807607786673,16.001666117351668],[-16.38159092925897,16.000239029662765],[-16.383281683898094,16.001761413023278],[-16.382517828340827,16.003978291222044],[-16.382728153456686,16.005199874661376],[-16.384419676295927,16.006650508862958],[-16.382338699740473,16.00706153733143],[-16.380771152029382,16.008051284488307],[-16.377946678131238,16.008809141313606],[-16.37547398252143,16.011296972160174],[-16.374319642235395,16.013237549826183],[-16.37449284745179,16.014458795841794],[-16.375007667570618,16.01537253005739],[-16.37382131725964,16.016557119200304],[-16.372814387808237,16.018341240105364],[-16.372234718105567,16.020667434919467],[-16.37298312642879,16.026174710844654],[-16.372645302409406,16.02904124209129],[-16.371569301269545,16.031542138659336],[-16.368863286462666,16.036299578048702],[-16.367912038325482,16.038682062367506],[-16.363929935432363,16.041215400473284],[-16.36209230317849,16.042611729915933],[-16.359030989164065,16.046026528832343],[-16.356860934478423,16.049334918582872],[-16.354816380282614,16.0546297130007],[-16.35337054868362,16.05673963825734],[-16.351040248671104,16.058267244805197],[-16.347940686727583,16.05955796235158],[-16.346260255160683,16.061378652511106],[-16.340947110278222,16.064370107960478],[-16.335860483584003,16.07045430538348],[-16.334181716991925,16.07288329870748],[-16.33361900567829,16.051387829840017],[-16.340890309613386,16.042118614326338]],[[-16.335458920483102,16.041219883243276],[-16.337735096796806,16.0391805602467],[-16.340113540772936,16.038744064023486],[-16.3420789002274,16.03807403412857],[-16.344529490319726,16.03637549565878],[-16.34579901107046,16.034091772286217],[-16.34617429679685,16.03220131474264],[-16.344388203314942,16.032758291143903],[-16.34434169325156,16.031495166830148],[-16.343386388063642,16.032060030399737],[-16.342272318748954,16.030729354463386],[-16.341614303730612,16.031239644349164],[-16.339018746698194,16.035519530041242],[-16.336074042925816,16.039107323477328],[-16.334864450774738,16.04159521389736],[-16.33517554056707,16.041899275355217],[-16.33557923065554,16.04174908201771],[-16.335458920483102,16.041219883243276]],[[-16.347411743097446,16.033073981760168],[-16.347232532812026,16.03440748128857],[-16.349862807090997,16.03131800068536],[-16.349643476063548,16.029536690984557],[-16.34839207204708,16.03004137255667],[-16.34749205103659,16.031008539434342],[-16.347411743097446,16.033073981760168]],[[-16.347372210552695,16.028781442279122],[-16.346917623447528,16.02903493023462],[-16.34668298224167,16.029403043540842],[-16.347372210552695,16.028781442279122]]]}},{"type":"Feature","properties":{"Id":0},"geometry":{"type":"Polygon","coordinates":[[[-16.408812865557795,15.98559635477952],[-16.410482520382207,15.981737707499226],[-16.411635138449988,15.980170017084797],[-16.41287484713817,15.97979881593103],[-16.413365459174557,15.980185954884343],[-16.413397958667627,15.981908049800214],[-16.411984971562397,15.984812525636245],[-16.41113085242824,15.986191659372437],[-16.408692297224253,15.987795318156056],[-16.408812865557795,15.98559635477952]]]}},{"type":"Feature","properties":{"Id":0},"geometry":{"type":"Polygon","coordinates":[[[-16.406130693770216,15.976819103635773],[-16.406548385038555,15.974575055611252],[-16.407955258932912,15.972292317221418],[-16.408954826193785,15.971201507167699],[-16.41084987391419,15.969545021111543],[-16.411245355091804,15.969548668395788],[-16.411013213402736,15.97303795355005],[-16.407656633837206,15.977502790150362],[-16.406512495869013,15.978209638721507],[-16.406130693770216,15.976819103635773]]]}}]}