{"type":"FeatureCollection","name":"geologie-levees-deltaiques.geojson","features":[{"type":"Feature","properties":{"Id":0},"geometry":{"type":"Polygon","coordinates":[[[-16.371032009818265,16.008107016753257],[-16.371080976631433,16.006923722952944],[-16.371669107892536,16.00652449777731],[-16.374031908704435,16.00316042041178],[-16.373280617643605,16.00078586584529],[-16.373404817089384,15.999495664104522],[-16.374713486292425,15.998431802187474],[-16.376798707036937,15.997590438261303],[-16.379467173417545,15.997758908304005],[-16.381129410385146,15.998420136694845],[-16.381642826382755,15.998998874907674],[-16.38159092925897,16.000239029662765],[-16.379204126813935,15.999319485751547],[-16.377119475326285,16.00010348488996],[-16.376097611562653,16.001413973585986],[-16.376376456514134,16.003195800843123],[-16.37702091001684,16.004787789940355],[-16.373579033681153,16.00776871690776],[-16.370725143191127,16.008925319317484],[-16.371032009818265,16.008107016753257]]]}},{"type":"Feature","properties":{"Id":0},"geometry":{"type":"Polygon","coordinates":[[[-16.382855240433646,15.998883059531732],[-16.38040102432973,15.997066561253511],[-16.379120304371146,15.996576296017778],[-16.376672700937462,15.996431656246717],[-16.378607292522716,15.99376427091195],[-16.382521236078926,15.993955473930315],[-16.38420194645759,15.992019780906455],[-16.385817573333252,15.99065740839079],[-16.386951114400702,15.99003664984548],[-16.390035064413176,15.990180174189836],[-16.391045935391315,15.989960009160216],[-16.39140932624408,15.989217272555772],[-16.391663759613813,15.987497828798928],[-16.392625554678375,15.986244114618838],[-16.396379126742005,15.98467197169372],[-16.396887898994283,15.984722131067384],[-16.397530340621902,15.983508479395502],[-16.398406981309126,15.981113256444191],[-16.399302555367164,15.980547626441464],[-16.400678723053964,15.980129930629335],[-16.402049915468652,15.980214373437951],[-16.402152278500285,15.98111209435346],[-16.400468257538527,15.986405395300773],[-16.400439849593575,15.989274806322864],[-16.40103384168791,15.989208565794721],[-16.402486350950593,15.988576335387783],[-16.404192029659622,15.98859211251789],[-16.405447789420073,15.989105911163959],[-16.40603150987867,15.9900798162655],[-16.406369745099482,15.993383055572632],[-16.408799402141824,15.995199014757308],[-16.40899069195034,15.997112391393008],[-16.40842150662342,15.998422404393907],[-16.40710418961928,16.000383145440832],[-16.406504655600735,16.000936240724428],[-16.40451538898617,15.998653834421983],[-16.397643758353272,15.996007524126751],[-16.395946551995777,15.995130875908655],[-16.39484194572905,15.994331459070969],[-16.39394558712483,15.994968811061982],[-16.39229761414344,15.996603561352542],[-16.391103156671193,15.997381615413872],[-16.390063440078563,15.997515424833836],[-16.388978121123657,15.99477911822098],[-16.387723787755366,15.99412175195152],[-16.38542618359799,15.993956841428643],[-16.38423242697077,15.994663122692451],[-16.383771699959492,15.99623715212039],[-16.383975578182582,15.998104355852442],[-16.38536967205943,15.999623953549458],[-16.385806792808303,16.000417195389478],[-16.384176598904435,16.000258501202662],[-16.382855240433646,15.998883059531732]]]}},{"type":"Feature","properties":{"Id":0},"geometry":{"type":"Polygon","coordinates":[[[-16.385581193575007,16.00570767445803],[-16.383919240370748,16.005010619063665],[-16.383515261412498,16.00461226586696],[-16.384684513878206,16.002650265840153],[-16.385732485914982,16.001691521251484],[-16.38699400937789,16.001631540235703],[-16.38726109032067,16.000880736380633],[-16.385398853311685,15.997957812568263],[-16.385188825652207,15.996210124401696],[-16.38544462057537,15.99535160373141],[-16.38673678313427,15.994694061554451],[-16.38757443438517,15.994988839318795],[-16.38824757067999,15.996908237062568],[-16.38887841896209,15.998109815918745],[-16.389710377355875,15.998978467687149],[-16.390796691126255,15.999132061170343],[-16.39193720183511,15.998807872624985],[-16.394089623078976,15.997082951133955],[-16.395095810869357,15.996590101558793],[-16.39772611208442,15.996865603278572],[-16.403702136683357,16.000077564966276],[-16.404512972538,16.001035445952745],[-16.40334655035763,16.00090981944843],[-16.40242274430958,16.000572461413714],[-16.40104724206784,15.999035223095051],[-16.39929324907916,15.998271670720806],[-16.39769022090124,15.997868211988374],[-16.39656976576159,15.998664916728726],[-16.39553429736806,16.000239609396694],[-16.39508002224819,16.002417543312138],[-16.393990434095755,16.003214523932353],[-16.393882594760136,16.004738038944804],[-16.393662122504125,16.005154486120986],[-16.39232944902115,16.005530707277423],[-16.39193098073693,16.005198186207096],[-16.390997067018628,16.002768208937013],[-16.390042663436887,16.00240061953986],[-16.389607950400034,16.002605821645812],[-16.38863093957387,16.004509849185393],[-16.387440865272346,16.006083070655038],[-16.386476843590994,16.006398010923565],[-16.385581193575007,16.00570767445803]]]}}]}