{"type":"FeatureCollection","name":"geologie-vasieres.geojson","features":[{"type":"Feature","properties":{"Id":0},"geometry":{"type":"Polygon","coordinates":[[[-16.409251225567324,16.00730651706502],[-16.408518040119493,16.00643886267695],[-16.40882672003348,16.00522210284577],[-16.410156762973692,16.00573654746507],[-16.40988827619867,16.007454903403836],[-16.409251225567324,16.00730651706502]]]}},{"type":"Feature","properties":{"Id":0},"geometry":{"type":"MultiPolygon","coordinates":[[[[-16.380760778667305,16.001666117351718],[-16.378893011522514,16.00301175360226],[-16.377020910016732,16.00478778994039],[-16.376376456513963,16.003195800843137],[-16.376097611562585,16.001413973586004],[-16.377119475326285,16.00010348488996],[-16.379204126813764,15.999319485751567],[-16.38159092925897,16.000239029662765],[-16.380760778667305,16.001666117351718]]],[[[-16.408217255137522,16.003596409980286],[-16.410000488456486,16.00375809755814],[-16.411121680453544,16.005065670490975],[-16.410156762973656,16.00573654746507],[-16.40988827619867,16.00745490340385],[-16.407196877337334,16.00850709707257],[-16.406736311887492,16.010081162026328],[-16.40538147265776,16.012077423333995],[-16.403461827706085,16.012753522353126],[-16.402500303979384,16.013326812644554],[-16.400296843573294,16.015170942676452],[-16.400022194978952,16.01568777765014],[-16.399892085632253,16.014704982805],[-16.400167298578683,16.013514992496113],[-16.399896584734446,16.013090222235437],[-16.400802754562886,16.00977867660538],[-16.40147103728414,16.008494724479228],[-16.40228552750591,16.00784960470306],[-16.402770345201173,16.00735896760261],[-16.40294048776011,16.00691608338066],[-16.404241065287977,16.005767814382565],[-16.4055554444501,16.0047358803796],[-16.408217255137522,16.003596409980286]]],[[[-16.38164282638269,15.99899887490769],[-16.382017816999312,15.998219188563993],[-16.384176598904435,16.000258501202676],[-16.385806792808303,16.000417195389517],[-16.38536967205943,15.999623953549477],[-16.383975578182582,15.998104355852478],[-16.38377169995939,15.99623715212039],[-16.38423242697077,15.994663122692451],[-16.38542618359799,15.993956841428664],[-16.387723787755366,15.994121751951532],[-16.388978121123554,15.994779118221002],[-16.390063440078563,15.99751542483387],[-16.391103156671193,15.997381615413895],[-16.39229761414344,15.996603561352561],[-16.39394558712483,15.994968811061998],[-16.39484194572905,15.994331459070969],[-16.395946551995777,15.995130875908687],[-16.397643758353272,15.996007524126764],[-16.40451538898617,15.998653834422003],[-16.407886604435078,16.002774224612295],[-16.408060601324216,16.00313894492042],[-16.405646755463724,16.003825728813236],[-16.402529696182818,16.006591096921472],[-16.401903192662378,16.007227535143265],[-16.401655236731965,16.007808021004333],[-16.40090174031057,16.008163299550265],[-16.400403498414185,16.008989159725978],[-16.399618760416526,16.01164487154119],[-16.399248255376985,16.01377954096931],[-16.399565464383947,16.016557548494042],[-16.398412096699907,16.018858361435832],[-16.39704480064851,16.022451991972524],[-16.397084776275204,16.023408918633063],[-16.398169806176064,16.023705933751533],[-16.406936651570728,16.031906541273273],[-16.412431103807624,16.04280944529492],[-16.41126265829992,16.044671372353065],[-16.412250557118266,16.0448000152386],[-16.41157691243744,16.04801773904216],[-16.41309956642339,16.04688924085854],[-16.415047973910994,16.04489836712925],[-16.41618247560132,16.04268479738168],[-16.41733912744194,16.041063977922054],[-16.417426485541952,16.042588093765588],[-16.417113829600094,16.046631617872126],[-16.41529650625349,16.049125898227597],[-16.41398366061513,16.05060846355282],[-16.413642311960924,16.0538934613828],[-16.415827412503543,16.05803859531475],[-16.415720130251817,16.060153968665315],[-16.414150556541685,16.062590733554813],[-16.41332517102235,16.064795178239578],[-16.413152279768116,16.069815456791368],[-16.41280094592926,16.074116689098375],[-16.41373557831409,16.07622637727825],[-16.415962511525812,16.07612720137212],[-16.419063193101543,16.075199013604404],[-16.421412592799445,16.07522046894219],[-16.427601032956705,16.07467902313455],[-16.428349923238855,16.07396843151012],[-16.42861583427439,16.072057773045827],[-16.427516946278953,16.070612967887122],[-16.42891663307244,16.066560411673265],[-16.42874609658526,16.064944429833762],[-16.42876913068989,16.06257720501927],[-16.429083325959503,16.060786552383966],[-16.42917984695627,16.058491736063477],[-16.42956263650608,16.05727563070072],[-16.430610987121195,16.05628079879719],[-16.432398378234414,16.055579639123305],[-16.433450188298632,16.054226124935965],[-16.435021264758294,16.052877318758174],[-16.43561194445588,16.053169638467846],[-16.435550237627073,16.05674170460896],[-16.43427728391214,16.06049652169337],[-16.431746523486467,16.06600950753101],[-16.43152452967938,16.06849448897853],[-16.43273825973843,16.070849024642854],[-16.4341808619607,16.075015814431808],[-16.43401913198984,16.07505164859102],[-16.433426897511932,16.07508165949812],[-16.431793034562173,16.0755448801746],[-16.428726331239268,16.077914581370315],[-16.42872633123921,16.07791458137034],[-16.424909443460685,16.078560522046722],[-16.42297995999672,16.07953141553749],[-16.421854940729595,16.079824006972675],[-16.42111096810345,16.080635312586708],[-16.422554428257047,16.080753420322576],[-16.422139509480466,16.080993323545243],[-16.422139505440313,16.08099332588121],[-16.42148914300017,16.080962729041214],[-16.42083878056002,16.080932132201195],[-16.419079071969247,16.080152326289053],[-16.417557266115047,16.079936289779468],[-16.41662333586728,16.080168603962793],[-16.41371744715443,16.08267534617976],[-16.41034370518334,16.0851851397514],[-16.41023394688751,16.08620348118754],[-16.409658795651442,16.087564097143435],[-16.408617442269545,16.089153911594774],[-16.408023122673143,16.089611775102703],[-16.403140871734898,16.092016684563074],[-16.40314087173021,16.09201668456671],[-16.39759272444632,16.096279443118807],[-16.39376419426887,16.098982060765973],[-16.392312641272568,16.099459488977423],[-16.391145736935787,16.09950545381132],[-16.39055933499279,16.099109187664848],[-16.389974602303084,16.099112992082144],[-16.387396157694102,16.098338253267432],[-16.384938596753198,16.098128065594324],[-16.383302839575133,16.098364790066732],[-16.37736246557017,16.10190836522012],[-16.374022272170144,16.104299651936895],[-16.374022223478146,16.104299680176425],[-16.37253038238971,16.10425801190228],[-16.36682463704131,16.104893353112598],[-16.3663172057973,16.105564542534584],[-16.365398016556234,16.105966317858677],[-16.36500277266687,16.105914306726454],[-16.364169781778994,16.105385118515432],[-16.36372148897587,16.1048506657547],[-16.364594772313858,16.10465161697615],[-16.36540464563228,16.104061360377113],[-16.365567032738753,16.103285676065635],[-16.363955849043535,16.10220033403782],[-16.36507992818261,16.101647984774946],[-16.366830372223728,16.101071422977878],[-16.3688896596399,16.100709043500707],[-16.368889659639912,16.100709043500682],[-16.368889659639937,16.10070904350068],[-16.36906870247043,16.10033178091005],[-16.369068702470237,16.100331780909713],[-16.36870578027115,16.099528094158607],[-16.369379952988353,16.09871876476721],[-16.37035500997941,16.09620256838705],[-16.37136356462336,16.096269396034646],[-16.373130611940596,16.097663359414543],[-16.3744336852542,16.097962497420824],[-16.379815200934548,16.09359816349213],[-16.381103152494042,16.091936180276125],[-16.382745249334732,16.087991315337494],[-16.384421534058614,16.08657206772062],[-16.38628213708962,16.084523194152666],[-16.388031396336373,16.081727161402547],[-16.388936709523918,16.081138432245464],[-16.389714235421152,16.077558564375476],[-16.38999771903239,16.073914328970194],[-16.385831976475288,16.075939624933575],[-16.383148555404507,16.077884414380375],[-16.38191920558682,16.077109317828548],[-16.384026593719362,16.074115773713046],[-16.383617139955525,16.07052487378004],[-16.38184656607267,16.069504003864317],[-16.383055041448053,16.067363000736368],[-16.383221991779614,16.06549926634252],[-16.38278971861684,16.06420388755462],[-16.38069813688815,16.065619239260627],[-16.3775707350618,16.066737937542435],[-16.37667902734846,16.066873095311365],[-16.37773343916347,16.065304615543262],[-16.37834556906724,16.06344503620225],[-16.377898786414605,16.062863342222695],[-16.3733571578573,16.064435094417377],[-16.37194433802353,16.06474471121939],[-16.37139079521744,16.06445255887952],[-16.371809610298403,16.063380347184122],[-16.378359102479678,16.05763046851864],[-16.38245172343754,16.05518457179166],[-16.383338653127762,16.05304057569743],[-16.38461314768237,16.049226207076604],[-16.38603376582054,16.046628023347022],[-16.387157359714607,16.044953098897686],[-16.387713718145303,16.043714746598152],[-16.3876276501066,16.04242259233056],[-16.387341392918966,16.04136771558736],[-16.386645716739487,16.04169603965853],[-16.385245310976767,16.04326132885766],[-16.38423623005591,16.04526070762344],[-16.38313727511517,16.046350513561354],[-16.38254334373386,16.046392806259867],[-16.382152475059367,16.04591088229481],[-16.382908114174096,16.04453091352132],[-16.383809246027653,16.04343926640088],[-16.384565341638485,16.042011469545383],[-16.384778871856554,16.040435134414174],[-16.384684252369023,16.040003801173743],[-16.383694716515663,16.04004241039724],[-16.382102682551487,16.04098413003801],[-16.38070701538325,16.042071155838745],[-16.378085262873956,16.047068626968247],[-16.377089474686418,16.04772891608638],[-16.376548816435747,16.04738906543531],[-16.376315409027224,16.045999867032666],[-16.377734544777805,16.04256950670524],[-16.377693693800605,16.041708218467754],[-16.37745072828487,16.04127549430388],[-16.37675008882663,16.04118905522293],[-16.377349265811457,16.040620719177937],[-16.376616075173725,16.039752957072],[-16.37498125295716,16.040024631631635],[-16.373908370480713,16.040851080877818],[-16.374752809158934,16.039050161839878],[-16.37555553945617,16.037909797721934],[-16.375913668612444,16.036717443708923],[-16.37423707865113,16.036223468052192],[-16.37332552714597,16.035470228135367],[-16.377287803591308,16.032422396111986],[-16.3781886801233,16.031354685146823],[-16.378398095634665,16.028676600334556],[-16.37841183834875,16.027301668456992],[-16.37658916505854,16.02411600035682],[-16.376732525878094,16.022144426956537],[-16.37712671487298,16.019816488850275],[-16.376957434265304,16.018200700973733],[-16.375742190331355,16.016096835653453],[-16.375007667570582,16.01537253005741],[-16.37449284745179,16.014458795841794],[-16.374319642235395,16.013237549826233],[-16.375473982521395,16.011296972160185],[-16.377946678131202,16.008809141313645],[-16.380771152029382,16.00805128448836],[-16.382338699740473,16.00706153733143],[-16.384419676295895,16.006650508862958],[-16.382728153456686,16.005199874661376],[-16.382517828340827,16.003978291222044],[-16.383281683898094,16.001761413023278],[-16.38159092925897,16.000239029662765],[-16.38164282638269,15.99899887490769]],[[-16.386476843590856,16.006398010923586],[-16.387440865272346,16.006083070655052],[-16.388630939573833,16.004509849185393],[-16.3896079504,16.002605821645833],[-16.39004266343685,16.00240061953986],[-16.390997067018596,16.002768208937027],[-16.391930980736756,16.005198186207128],[-16.39232944902115,16.005530707277437],[-16.393662122504125,16.005154486121018],[-16.393990434095755,16.003214523932375],[-16.39508002224816,16.002417543312152],[-16.39553429736806,16.000239609396715],[-16.39656976576159,15.998664916728726],[-16.39769022090124,15.997868211988408],[-16.39929324907909,15.998271670720806],[-16.40104724206784,15.99903522309507],[-16.40242274430937,16.00057246141375],[-16.40334655035763,16.000909819448463],[-16.404512972538,16.001035445952784],[-16.403702136683357,16.00007756496629],[-16.397726112084282,15.99686560327861],[-16.395095810869357,15.996590101558828],[-16.394089623078905,15.997082951133972],[-16.39193720183511,15.998807872625022],[-16.390796691126255,15.999132061170355],[-16.389710377355875,15.998978467687184],[-16.38887841896209,15.998109815918745],[-16.38824757067999,15.99690823706258],[-16.38757443438517,15.994988839318795],[-16.38673678313427,15.994694061554467],[-16.38544462057537,15.99535160373141],[-16.38518882565221,15.996210124401733],[-16.385398853311685,15.997957812568277],[-16.38726109032067,16.000880736380672],[-16.38699400937789,16.001631540235735],[-16.385732485914982,16.001691521251512],[-16.384684513878206,16.002650265840153],[-16.383515261412498,16.004612265866996],[-16.383919240370748,16.005010619063682],[-16.38558119357494,16.005707674458062],[-16.386476843590856,16.006398010923586]],[[-16.387827635654595,16.039704219940457],[-16.388618880855674,16.039711576613076],[-16.390385850928283,16.038690785727457],[-16.391349012075953,16.03732228671003],[-16.39221397846093,16.03388670929205],[-16.393064117024004,16.03194322166149],[-16.393603308499365,16.031431683047636],[-16.393621781141903,16.029569228064588],[-16.392275016728103,16.029578223102444],[-16.391318487616644,16.031652148370483],[-16.389791454216223,16.036183208557805],[-16.38799121103068,16.03817524708893],[-16.387827635654595,16.039704219940457]],[[-16.386642609648238,16.057021908827128],[-16.387482045373897,16.056168810101948],[-16.38961223205119,16.050851010529588],[-16.39124363509828,16.047939091239144],[-16.391688095612146,16.045016152475764],[-16.389879716462033,16.04581943474469],[-16.3881548017973,16.048197372345307],[-16.386396664984783,16.0519116024038],[-16.385716440644437,16.05466016286092],[-16.385694174427055,16.056898301824955],[-16.386642609648238,16.057021908827128]],[[-16.405673194677775,16.059805176209604],[-16.40607133880032,16.062416194419033],[-16.40741094222906,16.061998073410923],[-16.40927407742043,16.061154309734103],[-16.41058759537824,16.063390348554417],[-16.411562594886004,16.062323184512632],[-16.412165947091555,16.061324347836468],[-16.411598511865144,16.058664722734722],[-16.411621050259228,16.056369216738418],[-16.4111879183427,16.0551456418161],[-16.409427817393325,16.053968254946533],[-16.405673194677775,16.059805176209604]],[[-16.402306088726807,16.060435759055547],[-16.402402995626094,16.060013574489272],[-16.401488865272487,16.060735998902047],[-16.402557902593063,16.05766098340608],[-16.402026740430422,16.058010445936485],[-16.401063653203497,16.059891458757146],[-16.400484420724826,16.06063444234439],[-16.39837607053143,16.06216315794278],[-16.395222273984334,16.06700673416794],[-16.39468829006115,16.067436456362902],[-16.3945345255716,16.067928970987943],[-16.394865354601375,16.068578234708873],[-16.39631846834828,16.069186408656105],[-16.396809345327235,16.068332355776285],[-16.398617993311,16.066691295383094],[-16.39897458028325,16.06495877791561],[-16.400203488150673,16.06274089578223],[-16.402306088726807,16.060435759055547]]]]}},{"type":"Feature","properties":{"Id":0},"geometry":{"type":"Polygon","coordinates":[[[-16.33565598962554,16.12740895263208],[-16.33745752138401,16.12541726882448],[-16.3396249761584,16.123931244714502],[-16.3417152756648,16.122731440881466],[-16.344492342053037,16.119672810733977],[-16.347446050368355,16.113817857730897],[-16.348216428746976,16.11102717793249],[-16.35013400577073,16.106383024038195],[-16.351554182094524,16.10370294051862],[-16.353512867446675,16.101383291352057],[-16.352139281065934,16.104052205740356],[-16.350494514083607,16.107979524726623],[-16.350060908906094,16.111262682365346],[-16.350009318174077,16.115250636959402],[-16.349790401734168,16.11666321584723],[-16.34951675618428,16.118428939456997],[-16.349281813077724,16.12117892566056],[-16.349015781469554,16.121954885994494],[-16.34824553021813,16.127358769462074],[-16.34782249244482,16.12904112364822],[-16.346432128265448,16.131533790984022],[-16.34400762145601,16.1339243280452],[-16.340920768592788,16.136343328262424],[-16.338267057377845,16.13869285465322],[-16.334807960908613,16.141147659213438],[-16.33472273087204,16.1303474663866],[-16.33565598962554,16.12740895263208]]]}},{"type":"Feature","properties":{"Id":0},"geometry":{"type":"MultiPolygon","coordinates":[[[[-16.47429057786389,15.944053694489853],[-16.474234426656505,15.943246928978008],[-16.474234426656505,15.943246928977999],[-16.474404492759756,15.943963408117066],[-16.47429057786389,15.944053694489853]]],[[[-16.479826962811213,15.94993769344357],[-16.479256126215702,15.94977853703856],[-16.478423154910804,15.94909833125182],[-16.478212360222486,15.948867524009119],[-16.479988803359014,15.948855329332755],[-16.479826962811213,15.94993769344357]]],[[[-16.483532704762155,15.964585143036029],[-16.484902105044778,15.960938606620356],[-16.486225301090954,15.959422310665657],[-16.486452164064403,15.958958019458116],[-16.4855617219811,15.959021852603446],[-16.48490086899521,15.95833445924481],[-16.48488150015333,15.956469065097526],[-16.485923626206528,15.956047886444843],[-16.48589540154081,15.955115025037438],[-16.485117555917434,15.955036376117555],[-16.484922920185458,15.953911404946957],[-16.484958071340497,15.952308864418223],[-16.48425710632022,15.95194393707144],[-16.484246266771887,15.94918187467596],[-16.483773708750114,15.948625796913673],[-16.486700156429702,15.948407947933035],[-16.486424190265975,15.94914612912846],[-16.48723998875239,15.951735987127472],[-16.48766218422242,15.954131042588484],[-16.4871937352469,15.956613845877172],[-16.48751345692248,15.959390599442157],[-16.48671076622438,15.960626956745829],[-16.487221042148605,15.96145090592777],[-16.488629457244393,15.963070353900832],[-16.48909422459623,15.964107516902606],[-16.488708701764878,15.96519215670115],[-16.487800040470983,15.965553621606535],[-16.485771825393847,15.966767307469802],[-16.485397672629503,15.96669206926939],[-16.48486780774341,15.966310388345365],[-16.484933075323116,15.965353879341997],[-16.48445269475428,15.96577942530174],[-16.484468524732357,15.966439272061063],[-16.484702831675683,15.967039626078263],[-16.48451237638161,15.967200170903038],[-16.48428157829933,15.967083178288602],[-16.484190327242132,15.96798894166898],[-16.483532704762155,15.964585143036029]]],[[[-16.49173214787103,15.94888081138499],[-16.49051307294178,15.952333577612661],[-16.49115522378923,15.953429701570778],[-16.491156655484446,15.95519298843741],[-16.491606213985936,15.957836968147792],[-16.492993481743103,15.961694457343798],[-16.492989258437056,15.962141341890623],[-16.491970589828576,15.962988570460597],[-16.491601867539057,15.963502072942143],[-16.49126336509713,15.964515323473657],[-16.49059329260314,15.964623708916644],[-16.49043450102033,15.960952255480086],[-16.490521365661785,15.954975814780799],[-16.489709192939113,15.951997021521441],[-16.491161654483548,15.950001196577027],[-16.49086960792981,15.949520348026716],[-16.489093342960352,15.949169818698556],[-16.48843540276155,15.948278773696575],[-16.49114990865885,15.9480767019675],[-16.49173214787103,15.94888081138499]]],[[[-16.484210786594566,15.968094835213963],[-16.484574977690812,15.968703635043466],[-16.484422895133516,15.969073217781657],[-16.484210786594566,15.968094835213963]]],[[[-16.475674320057845,15.975456838700103],[-16.47536036304594,15.975050535107952],[-16.475178406239163,15.975087804085735],[-16.47446956550137,15.971602576327351],[-16.472533284340365,15.967280904913688],[-16.471019654644866,15.966161383803252],[-16.47002481556166,15.96679814029171],[-16.468421207075714,15.969055542218882],[-16.467270022674253,15.973110485327874],[-16.4665394747776,15.974538734857797],[-16.466019907105782,15.974585889795037],[-16.46529899962765,15.972427229945579],[-16.464106699493247,15.967873005587803],[-16.46488259725156,15.964292972997612],[-16.46677985714166,15.959766466210493],[-16.464754704896027,15.951856896564331],[-16.464673579771105,15.947432199295928],[-16.46335792297531,15.942876836291905],[-16.465141740335802,15.936895397632222],[-16.465336385956494,15.928977036840761],[-16.46495417406579,15.925991862277698],[-16.465381091780454,15.925907206694632],[-16.466101921524082,15.925423385344368],[-16.466803974610755,15.92401683785607],[-16.46691588130066,15.92197182454646],[-16.466669824565447,15.919672281538984],[-16.466279564695814,15.91837033162542],[-16.46774418934248,15.912856755319401],[-16.47017166495959,15.919741864853362],[-16.4724596997127,15.924808691844625],[-16.472425490997086,15.924985850995725],[-16.47117063331115,15.92828521535802],[-16.471770652860478,15.929532855673155],[-16.472051875584864,15.92871101746025],[-16.472104558010788,15.928854106917173],[-16.472189779390185,15.931573301786253],[-16.47154794726523,15.934078449682515],[-16.470576937504433,15.936759996955056],[-16.471963631206386,15.940359411619848],[-16.47249568113622,15.942875068127927],[-16.471909391487493,15.95249491149525],[-16.471080190691865,15.956010960617506],[-16.469804387972445,15.960184360895726],[-16.47028955882729,15.961145234710404],[-16.471510505095484,15.96271052045006],[-16.47362165297698,15.961653298784986],[-16.474679499532755,15.960885568843834],[-16.475407658129217,15.955810513864565],[-16.476345883502383,15.954623230162882],[-16.47599910402532,15.952109247238242],[-16.474404623120073,15.950839560121013],[-16.474673455039774,15.948570205401028],[-16.4744244202372,15.94555068576296],[-16.47468134866306,15.946303345595757],[-16.475653033226457,15.947980278475233],[-16.476928528644457,15.949667075762473],[-16.47910242638837,15.950857041041242],[-16.479928497858197,15.950981092518631],[-16.479984751546063,15.95155917170511],[-16.48113140623877,15.954438963399953],[-16.481362069475846,15.956174720181073],[-16.48102015011405,15.959639082446436],[-16.481682783537504,15.961438465200875],[-16.48191119231224,15.96341333053272],[-16.481025093740573,15.96561741046435],[-16.48100690580153,15.96753029834323],[-16.482155389676553,15.970230739774086],[-16.482143122019977,15.971521938453051],[-16.478400949263683,15.975123430780751],[-16.478619911177024,15.978090609309888],[-16.477720756204196,15.978684030982048],[-16.477346383970467,15.977988952557045],[-16.477219475291058,15.97690021910196],[-16.476626878402353,15.976355223357249],[-16.476612559719708,15.975836774870261],[-16.476253421357587,15.97559519617619],[-16.476209899657896,15.975392157188706],[-16.475674320057845,15.975456838700103]],[[-16.47830078404985,15.955232562262315],[-16.47855655818114,15.956887459429634],[-16.4784607377221,15.957110370347891],[-16.47878187344589,15.957328279448076],[-16.479037834895877,15.95803416472536],[-16.4796453455471,15.958232175169337],[-16.47973337762978,15.957887858271953],[-16.479203353525325,15.956739113542357],[-16.47913247530006,15.955742100945915],[-16.47929545044891,15.955168128657887],[-16.47830078404985,15.955232562262315]],[[-16.47922366919431,15.953886082000839],[-16.47903583204606,15.953900828287535],[-16.477799235884454,15.95423256690843],[-16.477858484222537,15.954901674854336],[-16.479416976153765,15.95464161687426],[-16.47922366919431,15.953886082000839]],[[-16.47812013825584,15.953022391880388],[-16.47773594919556,15.953195906893058],[-16.477833785197415,15.953432642804001],[-16.47853242684524,15.953710906070585],[-16.478524458844433,15.953459876738073],[-16.47818131951809,15.953406037701619],[-16.478313378805357,15.953287823412763],[-16.47812013825584,15.953022391880388]]]]}},{"type":"Feature","properties":{"Id":0},"geometry":{"type":"Polygon","coordinates":[[[-16.438733261477974,16.057057508476184],[-16.43946260688032,16.058355433069263],[-16.44030702462857,16.063097918800086],[-16.44293547407302,16.06749781202052],[-16.440695264813304,16.06898411239517],[-16.438912652575787,16.069183211370113],[-16.437960699864664,16.067883274395037],[-16.437496968623215,16.062139864330682],[-16.438062128118034,16.05741013186635],[-16.438733261477974,16.057057508476184]]]}},{"type":"Feature","properties":{"Id":0},"geometry":{"type":"Polygon","coordinates":[[[-16.471932344411925,15.928218824065059],[-16.471751896057672,15.928058307699814],[-16.47206114986861,15.928159529276012],[-16.472104558046325,15.928854107019033],[-16.471932344411925,15.928218824065059]]]}},{"type":"Feature","properties":{"Id":0},"geometry":{"type":"Polygon","coordinates":[[[-16.464219939298903,15.906499296201535],[-16.463912893320572,15.90620632150424],[-16.463557166058333,15.90620873222956],[-16.463151459187618,15.90632622823171],[-16.460655674819723,15.907900486027533],[-16.460521934227774,15.908147261079264],[-16.460489355338648,15.908327790374555],[-16.460797466314254,15.908768349356624],[-16.460749490206954,15.909162101747025],[-16.46044584027097,15.90940094782051],[-16.460707097923933,15.910126230504424],[-16.460683794059214,15.910490665341776],[-16.46024734422902,15.912555002794868],[-16.45967458496186,15.913470180451167],[-16.459555735369996,15.914235628641416],[-16.459664362775044,15.915225154817321],[-16.458051601988096,15.918713323293051],[-16.457584364105983,15.920113344453297],[-16.457514690391708,15.920704286386819],[-16.45805060046641,15.921595646290434],[-16.45796966092656,15.922699198857696],[-16.457740139597078,15.923599495323018],[-16.45718578613108,15.924707020616678],[-16.45612466214467,15.926331984906088],[-16.456070362390818,15.927173413856485],[-16.456452009068677,15.928198776725328],[-16.456346726418424,15.928666737840715],[-16.456694203927377,15.928302285130002],[-16.457106602254512,15.926897749277211],[-16.457503459346817,15.92668478112977],[-16.458408589935548,15.926643635928395],[-16.459251930457555,15.926404322970408],[-16.460224344004864,15.925650120644503],[-16.461459123144838,15.92517773232162],[-16.4611236920333,15.934464086151706],[-16.459881480001822,15.93410854211811],[-16.459283399917783,15.934619681838583],[-16.45836167560949,15.937940122565484],[-16.45754749336217,15.94240937621008],[-16.457141755743052,15.948196594393583],[-16.45592613941127,15.951227418192921],[-16.45591341744117,15.95254732503666],[-16.456793761915247,15.95353093303476],[-16.456843127706065,15.95456443791777],[-16.45627499543458,15.958117631755975],[-16.455939700970333,15.962132061980771],[-16.456852334752547,15.965928171569509],[-16.458857307940953,15.970654571834247],[-16.459469574418307,15.974849699983274],[-16.45877067873398,15.97966434314547],[-16.457487524371647,15.983621455953042],[-16.456676107642302,15.984451119033388],[-16.45625445634435,15.983311437707178],[-16.455582169692182,15.982528197574487],[-16.454837151800337,15.98288018476226],[-16.45418980913523,15.985923305559727],[-16.4541535304328,15.98968933492495],[-16.453461067491666,15.990998328447414],[-16.452841919256866,15.991112312574574],[-16.450796579146846,15.969481220547895],[-16.450025067288344,15.957230547905082],[-16.45089268160042,15.949299117649595],[-16.45054342065793,15.945797412227698],[-16.449187453878565,15.940332852452586],[-16.450497799553645,15.935179396541695],[-16.453796258074824,15.92760673633759],[-16.454845917510895,15.921279146025755],[-16.459536991998338,15.908918781290675],[-16.462064187922092,15.90515368066887],[-16.463515371473704,15.90390069685183],[-16.4649272135459,15.906834800361267],[-16.46466969450535,15.90745053471124],[-16.464219939298903,15.906499296201535]]]}},{"type":"Feature","properties":{"Id":0},"geometry":{"type":"MultiPolygon","coordinates":[[[[-16.447002773087508,16.064569828823757],[-16.440665292253108,16.048214269718706],[-16.44089013756561,16.04748023729854],[-16.443208268486405,16.05244156812163],[-16.446288017394053,16.05976682602754],[-16.44741684887336,16.06280943143128],[-16.447002773087508,16.064569828823757]]],[[[-16.44136814482509,16.03319287368668],[-16.442517556202105,16.029401045344397],[-16.44313353648186,16.0232369590028],[-16.442979047964318,16.016205013975732],[-16.44250986581816,16.01103546254202],[-16.441502797692408,16.00779802193116],[-16.447314953182868,16.007896912679133],[-16.448197741113265,16.008650985571165],[-16.449135438957473,16.00986468667336],[-16.449401655113338,16.013023655151425],[-16.45029056127228,16.013146459294664],[-16.45233390500376,16.010467455491295],[-16.452566816827247,16.010928690694527],[-16.453303965126167,16.014962479204407],[-16.446444633202447,16.017719744585396],[-16.445832137758497,16.018501041453593],[-16.444209733362133,16.02496845773532],[-16.443629896049583,16.026684526074852],[-16.442337045240926,16.032575804900485],[-16.441150473693543,16.036674185641136],[-16.44136814482509,16.03319287368668]]],[[[-16.454920282620105,16.013015993627754],[-16.454458861767048,16.01163443441543],[-16.454432012704327,16.010033304356796],[-16.45578770505125,16.00789330679204],[-16.455775372279362,16.006970038121096],[-16.456146265444435,16.005423792850582],[-16.4556125724031,15.999220656881926],[-16.45586700801588,15.997443794818949],[-16.45663773867989,15.997508123064236],[-16.458164312048307,15.999186219168102],[-16.45969587004844,16.000347819759323],[-16.461558225888247,15.99795408221786],[-16.462107590023923,15.994720557518711],[-16.460466520179487,15.991836230245365],[-16.46011523895345,15.989800444300194],[-16.46228321691209,15.985431824763648],[-16.462604962000917,15.982816207404452],[-16.463507218012662,15.981532986790311],[-16.46424636853167,15.981790707786834],[-16.46572808992694,15.985821420149447],[-16.46624719139494,15.98582607122697],[-16.467220845116284,15.984830434839212],[-16.4677608751587,15.982647209322106],[-16.468099018283468,15.978309983074388],[-16.469307094784927,15.976060995674143],[-16.470012582467774,15.97595969788571],[-16.470636375173218,15.97664680437522],[-16.47125173100014,15.978339861300618],[-16.47082932567427,15.979490254037577],[-16.469193873882137,15.981148948594612],[-16.468608707774507,15.982709960278553],[-16.468882864483447,15.983036767991608],[-16.46943025556808,15.98488089316503],[-16.469500830682108,15.98560924313356],[-16.46983828846514,15.98632426810004],[-16.469243436758823,15.986919418470315],[-16.469015429609055,15.987380092826047],[-16.468945935870295,15.988425002799739],[-16.46641229248797,15.989551420913951],[-16.465142673888025,15.990363506568059],[-16.46429018771029,15.991430974355545],[-16.463882226931357,15.992438039827148],[-16.46418679379028,15.993526318141285],[-16.464757079652635,15.994440636489744],[-16.464970775546124,15.995271287997372],[-16.463554885625847,16.00044580581587],[-16.463565958555268,16.00196650595663],[-16.4643820644378,16.003847194585358],[-16.464089478739233,16.00748159475737],[-16.464737438652474,16.009347823265838],[-16.464751705053043,16.010585456963273],[-16.459304606391093,16.012550384177153],[-16.45587976499428,16.01392707752336],[-16.454920282620105,16.013015993627754]]],[[[-16.485605630476105,15.98143837326715],[-16.484166261186843,15.981628803088677],[-16.48344119337173,15.98194072257526],[-16.482782145213143,15.982522911056433],[-16.48261201811452,15.9820406703654],[-16.48219459777031,15.982058510452154],[-16.48239341016588,15.982718751922418],[-16.47993282659597,15.982814060452421],[-16.47871241295538,15.980035170710611],[-16.477661395713028,15.978610609021283],[-16.478619911304456,15.978090609311534],[-16.478731604733774,15.978172908462664],[-16.480225598086555,15.97703837615848],[-16.481486890816555,15.976977855318456],[-16.48356931729217,15.976350708110656],[-16.484006420327212,15.97563557344427],[-16.484878800444143,15.977892868235644],[-16.486105667793083,15.979960879206033],[-16.486131326325104,15.9802135157489],[-16.485703239055447,15.98106509686486],[-16.487399358314025,15.984749308641877],[-16.487662077607474,15.984927108082058],[-16.487233956058606,15.985277269888586],[-16.485605630476105,15.98143837326715]]],[[[-16.49438419419177,15.975531392083466],[-16.494759417817214,15.975818184460419],[-16.494175285197972,15.976216641224363],[-16.49438419419177,15.975531392083466]]],[[[-16.495803334336582,15.97483387890567],[-16.495783291830843,15.974582670579863],[-16.49597177451023,15.974515246024195],[-16.496186777079856,15.974844534070007],[-16.49603789015497,15.974946094914804],[-16.495803334336582,15.97483387890567]]]]}},{"type":"Feature","properties":{"Id":0},"geometry":{"type":"Polygon","coordinates":[[[-16.476492153010348,15.978553850298796],[-16.476854603450075,15.97923278510461],[-16.477584042154515,15.979776983819644],[-16.47709148913263,15.980023761632271],[-16.47715905326537,15.979664482200457],[-16.476561139606545,15.979094097668668],[-16.476492153010348,15.978553850298796]]]}},{"type":"Feature","properties":{"Id":0},"geometry":{"type":"MultiPolygon","coordinates":[[[[-16.460946097688964,15.899904588604848],[-16.460521236953166,15.899812738066728],[-16.4600760868549,15.899168420184262],[-16.459923294826265,15.898673637158323],[-16.46094976825273,15.899821976810516],[-16.460946097688964,15.899904588604848]]],[[[-16.457188166433898,15.895742557066884],[-16.45578658020845,15.895478021164388],[-16.455038589224902,15.894773827656069],[-16.454472439971006,15.894507305349277],[-16.453748909230406,15.894586100469898],[-16.45320835445569,15.894443432934592],[-16.452916570458918,15.894190765881111],[-16.45303841417461,15.892899785096928],[-16.453767175458946,15.891786643505233],[-16.45739556427388,15.895845806307054],[-16.457188166433898,15.895742557066884]]]]}},{"type":"Feature","properties":{"Id":0},"geometry":{"type":"Polygon","coordinates":[[[-16.414709156336386,16.036939992041987],[-16.41343108397685,16.03444182655327],[-16.411749705565995,16.032650236822708],[-16.41119177690201,16.03157230924376],[-16.410206020903942,16.030239644026526],[-16.40982238214115,16.02869701855668],[-16.410058233272768,16.026892772084693],[-16.40994689672995,16.02620676503924],[-16.409709338665937,16.02524185333208],[-16.408661237292694,16.023147769209874],[-16.406565337211703,16.02075468793217],[-16.405757180608543,16.020059231315976],[-16.402344891143407,16.018523077986853],[-16.40292788340731,16.017627986492748],[-16.404325147149052,16.01634954332307],[-16.40686060393271,16.014985936164926],[-16.408457492121595,16.01351800007678],[-16.410907637292745,16.01076656461101],[-16.412463481596337,16.008437330020342],[-16.413652338743738,16.008381423693898],[-16.414514485981822,16.00575450695524],[-16.416137845268704,16.004095457384125],[-16.418132587488582,16.00238002102681],[-16.419948914393004,15.999945521995942],[-16.42013608075412,15.999767884877539],[-16.42171637085206,15.999692938054956],[-16.421082522952023,16.002896475553886],[-16.41961882422831,16.008100748610214],[-16.420323259280448,16.01190948049811],[-16.4203056986339,16.013702845932723],[-16.41955066035831,16.015059009042112],[-16.41715965529424,16.016830616531582],[-16.416108606483352,16.018112313683986],[-16.415642465773818,16.02026027009731],[-16.41829224790996,16.02236506502412],[-16.417677441360297,16.032116210690045],[-16.416830572753405,16.03526505368737],[-16.417227119262346,16.03910973823897],[-16.41601615233985,16.038201092255143],[-16.414709156336386,16.036939992041987]]]}},{"type":"Feature","properties":{"Id":0},"geometry":{"type":"Polygon","coordinates":[[[-16.39963510288758,16.016425523233373],[-16.39856801295582,16.01844856281411],[-16.397044800648615,16.02245199197251],[-16.39708477627519,16.02340891863303],[-16.398169806176064,16.023705933751533],[-16.398917215003294,16.023138918849327],[-16.401069973967644,16.020480478604256],[-16.402067343237196,16.018960388453557],[-16.402760114419713,16.019423801162585],[-16.4043550064556,16.02000748990062],[-16.405082816913765,16.020474944248036],[-16.406304950716528,16.021807492452233],[-16.407839018929398,16.022696185362328],[-16.408378691907792,16.0232867323364],[-16.40968936028643,16.026004911049984],[-16.409562271349984,16.028092672002156],[-16.409280147895977,16.028292554802185],[-16.40885485149838,16.02812744376541],[-16.409657518077363,16.030251529301072],[-16.41061853751159,16.03184022593801],[-16.41262575055016,16.034308711251157],[-16.41326119335081,16.03592623601511],[-16.41355129336448,16.037174030375372],[-16.413933526739502,16.037480784126114],[-16.414528728173778,16.037502750291967],[-16.41478185690528,16.037246013155276],[-16.415713963229773,16.038342981363],[-16.41505052130417,16.03927084492935],[-16.41470339193651,16.0384824587982],[-16.41449291924762,16.03835500038617],[-16.414327522693572,16.03871250816062],[-16.41467066151751,16.039797936898786],[-16.412431103807602,16.042809445294903],[-16.41126265829992,16.044671372353065],[-16.410796322104527,16.04179744117279],[-16.40917616475908,16.043097799143137],[-16.408955950435185,16.040345693331997],[-16.406858923247494,16.039848113930027],[-16.40588754439083,16.038045631365364],[-16.405447237678633,16.032541400982172],[-16.40283380435779,16.029702316452855],[-16.398995144294798,16.02780155419685],[-16.39679264206048,16.02548542932613],[-16.395487376691765,16.022460179246487],[-16.39662197495388,16.019807504061582],[-16.398211563146287,16.01703304875268],[-16.399465475527563,16.015913340934038],[-16.39963510288758,16.016425523233373]]]}},{"type":"Feature","properties":{"Id":0},"geometry":{"type":"Polygon","coordinates":[[[-16.411126475237037,16.00188118441151],[-16.40996631192889,16.002635236793584],[-16.40803306318783,16.00313840522364],[-16.406504655600717,16.000936240724428],[-16.40710418961926,16.000383145440843],[-16.4084215066234,15.998422404393922],[-16.40899069195034,15.997112391393047],[-16.408799402141703,15.995199014757327],[-16.406369745099482,15.993383055572632],[-16.40603150987867,15.9900798162655],[-16.405447789419952,15.989105911163959],[-16.404192029659622,15.988592112517907],[-16.40248635095058,15.988576335387783],[-16.401033841687838,15.989208565794721],[-16.400439849593553,15.989274806322864],[-16.400468257538506,15.986405395300789],[-16.40066768219055,15.985723850553908],[-16.401366272212158,15.98665283841757],[-16.40205587300949,15.987148456991653],[-16.404080056371257,15.987558866117494],[-16.404688452507944,15.987517768413305],[-16.405427503765285,15.987883637054042],[-16.406479625977738,15.988139835496133],[-16.407246128494407,15.988623502380301],[-16.40839202907768,15.989872237032206],[-16.40935351548307,15.991365981639143],[-16.409739306772444,15.991588866056063],[-16.41040754639524,15.993253460242933],[-16.41052021030915,15.994079808217334],[-16.41035830460693,15.994280533084533],[-16.411031516921735,15.994046919521383],[-16.410647925911174,15.993783585904692],[-16.410777926660856,15.992726698634062],[-16.40923741522552,15.990918381636478],[-16.40904596071862,15.990192796012582],[-16.40760930110274,15.988024122239297],[-16.406709134747864,15.987519243629217],[-16.40546508804082,15.987556079740726],[-16.404867122967055,15.987256048037159],[-16.402422569237537,15.986807936081687],[-16.401799168357517,15.986378324688866],[-16.400789657736688,15.985306990367986],[-16.402152278500182,15.981112094353476],[-16.402049915468634,15.980214373437969],[-16.400678723053964,15.980129930629355],[-16.399302555367164,15.98054762644148],[-16.398406981309126,15.981113256444191],[-16.397530340621902,15.983508479395518],[-16.396887898994283,15.984722131067384],[-16.396379126742005,15.984671971693736],[-16.392625554678254,15.986244114618838],[-16.391821171871864,15.987292640860229],[-16.39162560719332,15.986432334949614],[-16.39218018967893,15.984136106760944],[-16.391668904693496,15.983242001294066],[-16.39058998828917,15.98240254310968],[-16.389944143412038,15.982349535507867],[-16.38918314309414,15.98239820403006],[-16.3871080838894,15.983139611848339],[-16.386424887364505,15.983680572185014],[-16.386140034531763,15.984197853892399],[-16.385819149381398,15.985353966396682],[-16.38591412595461,15.986239558767629],[-16.38608980053652,15.987127799251622],[-16.386708172082947,15.98795497996326],[-16.388250727406927,15.989027813200915],[-16.388478846665137,15.989404398174857],[-16.388515417730133,15.989909898786193],[-16.388050414777563,15.990087815446206],[-16.387293667383183,15.989962267980227],[-16.38653185748072,15.989554087786559],[-16.38256182375798,15.986547212928777],[-16.381437712418133,15.986200434931206],[-16.382773347188714,15.984041429292995],[-16.384586997549313,15.981906102989477],[-16.38826585514414,15.978652243526378],[-16.388651527616492,15.977161208150921],[-16.388675947364778,15.974710240307006],[-16.389573617910738,15.972321220034958],[-16.391967964948645,15.970191257331928],[-16.394357983595402,15.96849168489302],[-16.3946631482069,15.967633616784887],[-16.394103442298622,15.964256527562075],[-16.394410742181346,15.963183253175766],[-16.396356471383207,15.961407790689593],[-16.39926326268422,15.95992820402108],[-16.402173560777594,15.958089904241865],[-16.403526600774068,15.955995806633377],[-16.40681372550729,15.947531991044483],[-16.408209165190488,15.944388253826222],[-16.410438356819007,15.940907853366436],[-16.4112902614383,15.938734769882155],[-16.41269261348714,15.933974926045432],[-16.416225893741142,15.92905733216291],[-16.41824736405212,15.927067186206472],[-16.41945047671012,15.925356461190011],[-16.42112022608113,15.92142603219305],[-16.421942751796276,15.920716179383378],[-16.424895469763822,15.92203465289926],[-16.425936169472248,15.921757237471551],[-16.42706645660012,15.919902326790709],[-16.42768551717702,15.917253569296596],[-16.428003633970075,15.914420705415779],[-16.42874082221009,15.91161180192645],[-16.42991043997703,15.90867412973968],[-16.431452178758924,15.905460708779199],[-16.43426167437957,15.901181935392078],[-16.437534842291345,15.89353625371706],[-16.439463171625277,15.890397243192941],[-16.441744434905836,15.88754840287556],[-16.44428272327602,15.883603302459122],[-16.444282746894046,15.883603248880602],[-16.445930487022896,15.885390457127459],[-16.45277686232381,15.890678757210422],[-16.45353739286581,15.891529580383795],[-16.452783073561324,15.892589934204912],[-16.452373553731857,15.893441984035121],[-16.452514898183928,15.894687585505801],[-16.45471156600977,15.895233790034732],[-16.456228937250014,15.89633736197295],[-16.457637707288004,15.896580283638258],[-16.458277036786335,15.896889634248828],[-16.459313132996606,15.898088333001821],[-16.459223768826106,15.898844734800205],[-16.4597366939868,15.899214265379738],[-16.460936285778246,15.900645818841884],[-16.460453968423458,15.902183021574205],[-16.45479394345129,15.914357763549791],[-16.45191177097376,15.918516549697472],[-16.45088978530079,15.921974758734251],[-16.449622965942826,15.925191610562004],[-16.447740621789993,15.928163739631716],[-16.44685814235869,15.930173737295352],[-16.444441035197976,15.937101386067432],[-16.44329064239266,15.941036679443581],[-16.44264029937116,15.944378673835342],[-16.440108457910615,15.950573192613318],[-16.437810841397166,15.958085073823277],[-16.436551774687196,15.960464971545262],[-16.433423792214246,15.964382212509605],[-16.432538890895422,15.966406800759367],[-16.432613529615995,15.971429348283069],[-16.432013258523885,15.973414683456669],[-16.428241357415697,15.979956500554808],[-16.427595362533342,15.982820237779254],[-16.425580434083752,15.986628003380279],[-16.42431054290259,15.990083869651667],[-16.422282886574536,15.992332706420997],[-16.420989288887867,15.994694040467682],[-16.419420812226562,15.997071032966035],[-16.41704534131397,15.999799315459153],[-16.41567099735833,16.001281303325843],[-16.414928179744514,16.001394046834147],[-16.411121680453544,16.00506567049099],[-16.410156762973642,16.00573654746509],[-16.410462607368974,16.004806725758513],[-16.408610583627173,16.004574437330458],[-16.408217255137522,16.003596409980286],[-16.410016548002115,16.003061426850255],[-16.411299691448082,16.001932381423966],[-16.411126475237037,16.00188118441151]],[[-16.412874847138152,15.97979881593103],[-16.411635138449924,15.98017001708482],[-16.410482520382207,15.981737707499242],[-16.408812865557778,15.98559635477952],[-16.408692297224253,15.987795318156056],[-16.411130852428222,15.986191659372457],[-16.413397958667524,15.98190804980023],[-16.413365459174557,15.980185954884343],[-16.412874847138152,15.97979881593103]],[[-16.421135675243338,15.924988732267662],[-16.421068789150677,15.925558509554437],[-16.42117957402217,15.930222346653833],[-16.420764897938692,15.931741071210014],[-16.42054233908628,15.933687605221452],[-16.420291204198435,15.934072241545255],[-16.418943330799408,15.934987706658083],[-16.417073573428734,15.937600637761593],[-16.41601020627134,15.939547833551721],[-16.415630054967874,15.942765651492005],[-16.41304376709874,15.950129304020694],[-16.412451623862676,15.951383618190846],[-16.409792623584963,15.95488088622166],[-16.404921177013456,15.960070403532871],[-16.400212747539115,15.967243104651137],[-16.3984210469541,15.969686675220796],[-16.391311353699972,15.977069261713668],[-16.38839784231404,15.979209286296065],[-16.38656679163644,15.983183148431575],[-16.386741255311584,15.98318259277935],[-16.388457654836447,15.979348624735536],[-16.391173655298804,15.977410224518248],[-16.39857828426398,15.96973186271009],[-16.400453014528345,15.967161208294653],[-16.404898006066023,15.960319596470237],[-16.409941922105073,15.95485581201128],[-16.4126598917266,15.951311392045504],[-16.413548246150622,15.949291240575473],[-16.41578640038612,15.942725085717068],[-16.416081279114763,15.939688635533804],[-16.41804916371882,15.936395037563576],[-16.419027926152367,15.93505433254763],[-16.420381682483228,15.934211761256405],[-16.420641345952582,15.93380625518415],[-16.420906443259405,15.93170583962611],[-16.421314801377154,15.930296913741298],[-16.42123550147659,15.925070363509956],[-16.42170064837364,15.924683148640229],[-16.4214976246522,15.924668518279406],[-16.421135675243338,15.924988732267662]],[[-16.406512495869013,15.978209638721525],[-16.407656633837206,15.977502790150362],[-16.411013213402615,15.973037953550067],[-16.411245355091804,15.969548668395788],[-16.41084987391419,15.969545021111559],[-16.408954826193785,15.971201507167699],[-16.407955258932912,15.972292317221418],[-16.406548385038555,15.974575055611272],[-16.406130693770113,15.976819103635773],[-16.406512495869013,15.978209638721525]]]}},{"type":"Feature","properties":{"Id":0},"geometry":{"type":"Polygon","coordinates":[[[-16.38368155778458,15.987867325706679],[-16.384977467418,15.989319873288387],[-16.386490992226054,15.990288626660375],[-16.385817573333235,15.990657408390806],[-16.384201946457573,15.992019780906471],[-16.382521236078905,15.993955473930338],[-16.378607292522716,15.993764270911965],[-16.379536676063093,15.99250068085153],[-16.381198421989158,15.98674232111219],[-16.38368155778458,15.987867325706679]]]}},{"type":"Feature","properties":{"Id":0},"geometry":{"type":"Polygon","coordinates":[[[-16.38932047998337,15.989801456856869],[-16.38904889164505,15.989210394886557],[-16.388148452967005,15.98844226956457],[-16.38725951237061,15.987267963618914],[-16.386620513793687,15.985841238547911],[-16.386530430665182,15.984989249866064],[-16.386880990882258,15.984202390578298],[-16.387306736839506,15.98367850576186],[-16.387770470740616,15.983431032044932],[-16.388882984775357,15.983237554360423],[-16.390289076171694,15.98328034173477],[-16.391108674561202,15.983656632592742],[-16.391548781740145,15.98412236857295],[-16.391664302080002,15.984485912462453],[-16.391054956892678,15.986327691791848],[-16.391406004199947,15.987730425477189],[-16.391620707422344,15.98778877414232],[-16.39140932624408,15.989217272555772],[-16.39104593539121,15.989960009160235],[-16.390035064413176,15.990180174189836],[-16.389274814591012,15.990144796971682],[-16.38932047998337,15.989801456856869]]]}}]}