{"type":"FeatureCollection","name":"habitat-zp.geojson","features":[{"type":"Feature","properties":{"categorie":"Steppe"},"geometry":{"type":"MultiPolygon","coordinates":[[[[-16.427746,15.857922],[-16.427137,15.858756],[-16.429037,15.860327],[-16.429123,15.86054],[-16.427701,15.862792],[-16.42674,15.865295],[-16.427157,15.865522],[-16.426645,15.866587],[-16.426811,15.866696],[-16.42607,15.867736],[-16.425392,15.868254],[-16.424761,15.86949],[-16.425399,15.869972],[-16.425792,15.870659],[-16.42588,15.873257],[-16.425613,15.873809],[-16.424949,15.874315],[-16.424776,15.874245],[-16.42465,15.873982],[-16.424703,15.87257],[-16.423377,15.872111],[-16.423289,15.87368],[-16.421975,15.875643],[-16.421594,15.877275],[-16.420432,15.878567],[-16.420059,15.880002],[-16.419379,15.881137],[-16.419452,15.882854],[-16.418979,15.883808],[-16.418623,15.884002],[-16.418219,15.883476],[-16.418309,15.882096],[-16.417064,15.880662],[-16.418914,15.87809],[-16.419731,15.876574],[-16.421007,15.875141],[-16.421878,15.871769],[-16.422991,15.869774],[-16.423458,15.869409],[-16.424033,15.869321],[-16.424413,15.868316],[-16.424631,15.866908],[-16.425406,15.865677],[-16.425772,15.864533],[-16.425349,15.864093],[-16.424265,15.863896],[-16.423667,15.864142],[-16.422671,15.864986],[-16.420249,15.869086],[-16.420072,15.870891],[-16.419629,15.87185],[-16.419164,15.872339],[-16.418682,15.871735],[-16.418531,15.870865],[-16.419443,15.868969],[-16.420405,15.865885],[-16.420995,15.865011],[-16.420156,15.864918],[-16.419522,15.865301],[-16.419083,15.865903],[-16.418824,15.8667],[-16.417855,15.86855],[-16.417403,15.868305],[-16.417288,15.868021],[-16.417632,15.866964],[-16.417865,15.865399],[-16.418824,15.864115],[-16.420158,15.863095],[-16.420726,15.862448],[-16.422137,15.859974],[-16.425603,15.855111],[-16.427746,15.857922]]],[[[-16.438742,15.877594],[-16.438921,15.877787],[-16.437107,15.879414],[-16.436682,15.880077],[-16.436768,15.880302],[-16.4373,15.880326],[-16.437713,15.880567],[-16.437895,15.881289],[-16.438374,15.881684],[-16.438451,15.882008],[-16.438334,15.882624],[-16.437233,15.884005],[-16.437163,15.886066],[-16.436599,15.886892],[-16.435603,15.887288],[-16.434895,15.888053],[-16.434744,15.887311],[-16.434833,15.885359],[-16.43454,15.88489],[-16.434175,15.884821],[-16.43406,15.885707],[-16.43359,15.886506],[-16.433336,15.887592],[-16.432678,15.888392],[-16.433638,15.890636],[-16.433606,15.89144],[-16.43305,15.892113],[-16.431654,15.8928],[-16.430616,15.893927],[-16.4303,15.89543],[-16.429812,15.896346],[-16.428945,15.899226],[-16.428153,15.899078],[-16.427435,15.899216],[-16.42565,15.898188],[-16.424763,15.898529],[-16.422851,15.900896],[-16.421636,15.901563],[-16.421372,15.901135],[-16.421118,15.899704],[-16.420383,15.897877],[-16.419941,15.897271],[-16.419273,15.896764],[-16.419223,15.896471],[-16.420402,15.891761],[-16.421864,15.889393],[-16.422235,15.888513],[-16.422306,15.887373],[-16.421809,15.8866],[-16.421788,15.886306],[-16.423731,15.883824],[-16.425318,15.88097],[-16.425844,15.879009],[-16.425586,15.877059],[-16.427009,15.875227],[-16.427773,15.873445],[-16.42788,15.872332],[-16.427189,15.870824],[-16.427269,15.870486],[-16.428026,15.869853],[-16.427188,15.869049],[-16.427509,15.868022],[-16.427756,15.867947],[-16.42831,15.868557],[-16.428551,15.870092],[-16.43033,15.8735],[-16.430751,15.873808],[-16.430748,15.874253],[-16.429507,15.874427],[-16.426987,15.878653],[-16.427819,15.879561],[-16.427412,15.881205],[-16.426306,15.882736],[-16.425403,15.884392],[-16.424216,15.885489],[-16.423878,15.88608],[-16.423514,15.88884],[-16.423682,15.889133],[-16.424268,15.889307],[-16.424354,15.89048],[-16.423713,15.892382],[-16.42424,15.894186],[-16.424571,15.894772],[-16.425224,15.894767],[-16.426478,15.89381],[-16.426707,15.893176],[-16.427078,15.892812],[-16.42703,15.892632],[-16.426751,15.892814],[-16.426657,15.892724],[-16.42656,15.892183],[-16.427534,15.891273],[-16.427904,15.890683],[-16.426999,15.888203],[-16.42667,15.887889],[-16.426202,15.887756],[-16.425374,15.888028],[-16.425899,15.885842],[-16.426371,15.884589],[-16.428011,15.882309],[-16.428664,15.881039],[-16.428807,15.880187],[-16.428194,15.879874],[-16.428583,15.879034],[-16.429845,15.877751],[-16.431648,15.878163],[-16.434163,15.873351],[-16.434928,15.871548],[-16.435932,15.870683],[-16.43693,15.870842],[-16.437482,15.870012],[-16.438742,15.877594]]],[[[-16.440523,15.879525],[-16.442345,15.881501],[-16.441921,15.882799],[-16.44041,15.885565],[-16.440108,15.886946],[-16.439491,15.887768],[-16.437764,15.886422],[-16.43939,15.884063],[-16.439159,15.883097],[-16.439451,15.88211],[-16.439286,15.881217],[-16.440062,15.879955],[-16.440523,15.879525]]],[[[-16.453676,15.891685],[-16.457439,15.895895],[-16.45406,15.89449],[-16.45319,15.894458],[-16.452831,15.894039],[-16.452747,15.893236],[-16.453676,15.891685]]]]}},{"type":"Feature","properties":{"categorie":"Sol nu"},"geometry":{"type":"Polygon","coordinates":[[[-16.515418,15.942961],[-16.516226,15.942907],[-16.516104,15.947309],[-16.515213,15.951771],[-16.514622,15.957641],[-16.514085,15.960512],[-16.513628,15.959578],[-16.51349,15.958786],[-16.513267,15.958712],[-16.512916,15.958964],[-16.512736,15.95865],[-16.513063,15.958095],[-16.513506,15.958238],[-16.513992,15.958082],[-16.514038,15.957862],[-16.513777,15.957777],[-16.513733,15.957587],[-16.51384,15.957457],[-16.514072,15.95758],[-16.514299,15.957476],[-16.514446,15.957003],[-16.514089,15.95604],[-16.512984,15.955343],[-16.513024,15.955152],[-16.513412,15.955373],[-16.513903,15.954113],[-16.513998,15.953404],[-16.513773,15.952546],[-16.51409,15.952159],[-16.514111,15.950953],[-16.514316,15.950708],[-16.514732,15.95072],[-16.514831,15.950574],[-16.514666,15.949862],[-16.514085,15.949624],[-16.514162,15.949361],[-16.514394,15.949272],[-16.514318,15.948369],[-16.514787,15.948332],[-16.514923,15.948186],[-16.514323,15.947046],[-16.51455,15.94639],[-16.514489,15.945719],[-16.514677,15.945437],[-16.514378,15.945141],[-16.514399,15.94395],[-16.514072,15.943406],[-16.515418,15.942961]],[[-16.514806,15.947345],[-16.514899,15.947345],[-16.514852,15.947255],[-16.514806,15.947345]]]}},{"type":"Feature","properties":{"categorie":"Sol nu"},"geometry":{"type":"Polygon","coordinates":[[[-16.512853,15.948112],[-16.512491,15.946517],[-16.511876,15.945603],[-16.511566,15.944558],[-16.512656,15.944885],[-16.513078,15.945318],[-16.513206,15.945718],[-16.513767,15.94605],[-16.513612,15.94628],[-16.513003,15.946117],[-16.512914,15.946342],[-16.51309,15.946676],[-16.512908,15.947349],[-16.513648,15.947455],[-16.513631,15.94764],[-16.513,15.947824],[-16.512853,15.948112]]]}},{"type":"Feature","properties":{"categorie":"Sol nu"},"geometry":{"type":"MultiPolygon","coordinates":[[[[-16.424385,15.91055],[-16.423946,15.91139],[-16.423283,15.911873],[-16.422842,15.912474],[-16.422684,15.914603],[-16.421336,15.916238],[-16.419757,15.919898],[-16.419529,15.919143],[-16.419928,15.918554],[-16.420763,15.916506],[-16.422032,15.914989],[-16.422189,15.913343],[-16.422509,15.912428],[-16.423731,15.910901],[-16.424145,15.909913],[-16.425046,15.909293],[-16.425281,15.908098],[-16.425953,15.907063],[-16.42549,15.907265],[-16.424755,15.907935],[-16.424062,15.909492],[-16.422569,15.910551],[-16.422397,15.911456],[-16.422033,15.91204],[-16.421491,15.912395],[-16.42059,15.912572],[-16.419823,15.913801],[-16.419927,15.914647],[-16.419128,15.915168],[-16.418693,15.91582],[-16.418537,15.914632],[-16.417563,15.914385],[-16.417375,15.914206],[-16.417337,15.914062],[-16.417636,15.913907],[-16.417721,15.913661],[-16.417504,15.912896],[-16.418065,15.912137],[-16.418203,15.912393],[-16.41839,15.912392],[-16.419107,15.911925],[-16.419857,15.911802],[-16.420335,15.911515],[-16.421046,15.909982],[-16.422093,15.909497],[-16.422553,15.908954],[-16.422719,15.908525],[-16.42269,15.907555],[-16.423738,15.907582],[-16.425077,15.906647],[-16.425243,15.906334],[-16.425238,15.905812],[-16.424645,15.904876],[-16.424676,15.904372],[-16.425179,15.902929],[-16.42575,15.902489],[-16.426271,15.902373],[-16.426603,15.902701],[-16.427414,15.904393],[-16.427684,15.904476],[-16.42791,15.904827],[-16.427666,15.906568],[-16.426977,15.907386],[-16.426485,15.907676],[-16.425977,15.908445],[-16.42553,15.90951],[-16.425636,15.909854],[-16.425066,15.911049],[-16.425311,15.912166],[-16.424694,15.912988],[-16.423883,15.91523],[-16.423084,15.915858],[-16.421777,15.918497],[-16.420921,15.919018],[-16.420648,15.919996],[-16.420388,15.920224],[-16.420025,15.920226],[-16.420692,15.918639],[-16.421851,15.917503],[-16.422456,15.91637],[-16.424178,15.913891],[-16.424113,15.91305],[-16.42472,15.912242],[-16.424633,15.910692],[-16.424385,15.91055]],[[-16.417878,15.912621],[-16.417971,15.91262],[-16.417924,15.912575],[-16.417878,15.912621]]],[[[-16.418595,15.911809],[-16.418247,15.911895],[-16.418167,15.911935],[-16.418309,15.911654],[-16.418595,15.911809]]]]}},{"type":"Feature","properties":{"categorie":"Steppe"},"geometry":{"type":"MultiPolygon","coordinates":[[[[-16.511578,15.99159],[-16.511715,15.989754],[-16.511779,15.989563],[-16.511578,15.99159]]],[[[-16.508762,15.990963],[-16.509315,15.990168],[-16.509515,15.988609],[-16.508683,15.987093],[-16.508535,15.985932],[-16.508881,15.985683],[-16.510649,15.985526],[-16.510429,15.986555],[-16.510483,15.987503],[-16.509839,15.988773],[-16.509662,15.99013],[-16.508762,15.990963]]],[[[-16.511177,15.984761],[-16.511444,15.983217],[-16.510831,15.982646],[-16.510515,15.981707],[-16.509761,15.980588],[-16.510213,15.979581],[-16.511455,15.978858],[-16.511878,15.97803],[-16.511768,15.977028],[-16.51068,15.976123],[-16.510501,15.974254],[-16.510589,15.973754],[-16.511408,15.971528],[-16.510889,15.973085],[-16.510983,15.973175],[-16.510798,15.973402],[-16.510892,15.973537],[-16.510707,15.973719],[-16.510761,15.974668],[-16.511091,15.975117],[-16.511418,15.975115],[-16.511993,15.977009],[-16.512275,15.977278],[-16.512649,15.977276],[-16.512961,15.976587],[-16.513084,15.978077],[-16.512771,15.979914],[-16.512676,15.982137],[-16.512447,15.981525],[-16.512123,15.981889],[-16.511988,15.982613],[-16.511571,15.983067],[-16.511485,15.984062],[-16.511177,15.984761]],[[-16.512229,15.977414],[-16.512323,15.977413],[-16.512276,15.977369],[-16.512229,15.977414]],[[-16.512324,15.977549],[-16.512417,15.977548],[-16.51237,15.977458],[-16.512324,15.977549]],[[-16.512889,15.978132],[-16.512936,15.978268],[-16.512934,15.977997],[-16.512889,15.978132]]],[[[-16.511362,15.970494],[-16.511066,15.969426],[-16.511056,15.966325],[-16.511254,15.966955],[-16.512193,15.967645],[-16.512957,15.968655],[-16.512941,15.969658],[-16.51273,15.969412],[-16.512451,15.969595],[-16.511797,15.969554],[-16.511655,15.96942],[-16.511563,15.969601],[-16.511421,15.969241],[-16.51151,15.968653],[-16.511274,15.968338],[-16.51114,15.969152],[-16.511362,15.970494]]],[[[-16.511083,15.974078],[-16.510988,15.973808],[-16.511125,15.9734],[-16.511267,15.97367],[-16.511082,15.973897],[-16.511269,15.973987],[-16.511083,15.974078]]]]}},{"type":"Feature","properties":{"categorie":"Steppe"},"geometry":{"type":"Polygon","coordinates":[[[-16.421931,15.957667],[-16.42205,15.95594],[-16.422934,15.954136],[-16.424075,15.952971],[-16.425044,15.95263],[-16.425456,15.952754],[-16.425655,15.953105],[-16.425582,15.953449],[-16.423341,15.956266],[-16.42313,15.956792],[-16.423181,15.957306],[-16.423407,15.957594],[-16.423903,15.957735],[-16.42477,15.957558],[-16.426473,15.955233],[-16.42664,15.95769],[-16.426025,15.957965],[-16.425394,15.958584],[-16.423578,15.961995],[-16.419562,15.966115],[-16.418265,15.967669],[-16.417424,15.969058],[-16.416672,15.971006],[-16.414807,15.972844],[-16.413916,15.974956],[-16.412801,15.975885],[-16.411387,15.976735],[-16.411041,15.976728],[-16.411128,15.975733],[-16.412315,15.973249],[-16.414028,15.972397],[-16.414295,15.970515],[-16.414535,15.970026],[-16.415083,15.96957],[-16.416909,15.96879],[-16.417447,15.96828],[-16.417602,15.96639],[-16.418068,15.964878],[-16.418667,15.963789],[-16.419854,15.962471],[-16.419806,15.960935],[-16.420435,15.958716],[-16.420832,15.958072],[-16.421931,15.957667]]]}},{"type":"Feature","properties":{"categorie":"Steppe"},"geometry":{"type":"Polygon","coordinates":[[[-16.511171,15.962084],[-16.511023,15.962348],[-16.510759,15.960874],[-16.510905,15.959767],[-16.510742,15.957774],[-16.510859,15.957693],[-16.510981,15.958102],[-16.510971,15.959424],[-16.511299,15.959553],[-16.511769,15.959411],[-16.512161,15.959113],[-16.512097,15.958465],[-16.512286,15.95795],[-16.513054,15.9575],[-16.513398,15.956584],[-16.513827,15.956257],[-16.514153,15.956233],[-16.514457,15.957168],[-16.51422,15.957533],[-16.513746,15.957558],[-16.514033,15.958031],[-16.513533,15.958237],[-16.513063,15.958095],[-16.512734,15.958681],[-16.512916,15.958964],[-16.513297,15.958703],[-16.513513,15.958818],[-16.513628,15.959578],[-16.514056,15.9606],[-16.512199,15.962132],[-16.511473,15.962498],[-16.511171,15.962084]]]}},{"type":"Feature","properties":{"categorie":"Steppe"},"geometry":{"type":"Polygon","coordinates":[[[-16.512892,15.955],[-16.5112,15.955055],[-16.510858,15.954956],[-16.51052,15.954661],[-16.51048,15.954081],[-16.511977,15.952897],[-16.512628,15.952072],[-16.513397,15.951907],[-16.513636,15.952137],[-16.51397,15.95318],[-16.513839,15.954344],[-16.513383,15.955402],[-16.512892,15.955]],[[-16.512245,15.954594],[-16.511963,15.95437],[-16.512382,15.954141],[-16.512616,15.954275],[-16.512571,15.954501],[-16.51271,15.954274],[-16.51252,15.953959],[-16.511537,15.953605],[-16.511258,15.953787],[-16.51126,15.954058],[-16.511589,15.954372],[-16.512245,15.954594]]]}},{"type":"Feature","properties":{"categorie":"Steppe"},"geometry":{"type":"Polygon","coordinates":[[[-16.433956,15.947683],[-16.431302,15.942918],[-16.430461,15.942732],[-16.42844,15.943606],[-16.425078,15.943533],[-16.421811,15.942885],[-16.421362,15.942266],[-16.421049,15.94002],[-16.421974,15.938006],[-16.42364,15.935938],[-16.424325,15.934834],[-16.424908,15.933491],[-16.424796,15.931626],[-16.424094,15.930148],[-16.425126,15.929501],[-16.425958,15.929164],[-16.427411,15.930725],[-16.429551,15.932111],[-16.429637,15.932409],[-16.429295,15.932954],[-16.429456,15.933296],[-16.430047,15.933617],[-16.431138,15.934577],[-16.433753,15.935843],[-16.434017,15.936293],[-16.434279,15.937566],[-16.435441,15.939429],[-16.436164,15.939994],[-16.436862,15.939619],[-16.437113,15.94081],[-16.437338,15.940872],[-16.437906,15.94066],[-16.438282,15.940892],[-16.43885,15.943356],[-16.439247,15.943968],[-16.439594,15.944074],[-16.440076,15.943574],[-16.440561,15.943444],[-16.440748,15.943551],[-16.44064,15.94413],[-16.439445,15.945521],[-16.438865,15.946655],[-16.438612,15.947859],[-16.438438,15.951077],[-16.438081,15.952011],[-16.437553,15.952611],[-16.436723,15.952887],[-16.435257,15.952996],[-16.434266,15.952895],[-16.433447,15.952587],[-16.433542,15.95199],[-16.434971,15.951454],[-16.434914,15.950259],[-16.433956,15.947683]]]}},{"type":"Feature","properties":{"categorie":"Steppe"},"geometry":{"type":"Polygon","coordinates":[[[-16.511564,15.944234],[-16.514072,15.943406],[-16.514368,15.943862],[-16.514341,15.944533],[-16.514481,15.944768],[-16.514378,15.945141],[-16.514677,15.945437],[-16.514489,15.945719],[-16.51455,15.94639],[-16.514318,15.94699],[-16.51492,15.948207],[-16.514318,15.948369],[-16.514394,15.949272],[-16.514162,15.949361],[-16.514083,15.949588],[-16.514666,15.949862],[-16.514831,15.950574],[-16.514732,15.95072],[-16.514316,15.950708],[-16.513877,15.95109],[-16.513323,15.950959],[-16.512742,15.951304],[-16.512456,15.951058],[-16.512618,15.949692],[-16.512925,15.948635],[-16.512864,15.948062],[-16.513,15.947824],[-16.513481,15.94777],[-16.513696,15.947517],[-16.512908,15.947349],[-16.51309,15.946676],[-16.512921,15.946277],[-16.513023,15.946113],[-16.513612,15.94628],[-16.513778,15.946085],[-16.513206,15.945718],[-16.513078,15.945318],[-16.512656,15.944885],[-16.511661,15.944623],[-16.511532,15.94438],[-16.511564,15.944234]]]}},{"type":"Feature","properties":{"categorie":"Steppe"},"geometry":{"type":"Polygon","coordinates":[[[-16.353499,15.934573],[-16.353067,15.928571],[-16.374269,15.925348],[-16.381369,15.924533],[-16.383956,15.923952],[-16.388692,15.92326],[-16.388781,15.923448],[-16.389106,15.925552],[-16.389013,15.925658],[-16.379037,15.929623],[-16.375509,15.930436],[-16.3699,15.9323],[-16.365928,15.933295],[-16.362464,15.933926],[-16.353499,15.934573]]]}},{"type":"Feature","properties":{"categorie":"Steppe"},"geometry":{"type":"Polygon","coordinates":[[[-16.458611,15.897206],[-16.459671,15.899237],[-16.462818,15.902452],[-16.464432,15.90575],[-16.46366,15.905492],[-16.462276,15.90543],[-16.461062,15.905055],[-16.460547,15.905585],[-16.459595,15.907169],[-16.459665,15.910062],[-16.458866,15.912268],[-16.459119,15.913103],[-16.45814,15.914401],[-16.4578,15.91524],[-16.457779,15.915743],[-16.458079,15.916291],[-16.458376,15.916336],[-16.459135,15.915351],[-16.459426,15.915425],[-16.458947,15.91664],[-16.45785,15.918618],[-16.457466,15.919787],[-16.4575,15.920672],[-16.45796,15.922214],[-16.457937,15.922992],[-16.457524,15.923935],[-16.455951,15.926105],[-16.456018,15.927632],[-16.455661,15.928511],[-16.455654,15.928927],[-16.454088,15.92867],[-16.453665,15.928985],[-16.45305,15.927976],[-16.452889,15.925463],[-16.452669,15.924839],[-16.451799,15.92421],[-16.449153,15.92318],[-16.447726,15.921801],[-16.448341,15.921213],[-16.448646,15.920677],[-16.448716,15.920098],[-16.448535,15.919603],[-16.447839,15.918911],[-16.445513,15.917616],[-16.444602,15.9168],[-16.442903,15.914434],[-16.44201,15.912235],[-16.44168,15.911776],[-16.440603,15.911277],[-16.440495,15.910656],[-16.440173,15.910413],[-16.437848,15.91071],[-16.434898,15.910321],[-16.435255,15.90937],[-16.435795,15.906519],[-16.43742,15.90386],[-16.437913,15.903514],[-16.43934,15.903233],[-16.440292,15.901844],[-16.442228,15.900864],[-16.444709,15.89913],[-16.446296,15.897746],[-16.447712,15.895919],[-16.44897,15.895513],[-16.452271,15.894822],[-16.452553,15.895074],[-16.454094,15.895136],[-16.456139,15.896324],[-16.457644,15.896576],[-16.458611,15.897206]]]}},{"type":"Feature","properties":{"categorie":"Steppe"},"geometry":{"type":"MultiPolygon","coordinates":[[[[-16.394976,15.913],[-16.396078,15.908542],[-16.396073,15.907729],[-16.396334,15.907333],[-16.396875,15.906986],[-16.398639,15.906369],[-16.399849,15.906619],[-16.400644,15.906448],[-16.401025,15.906104],[-16.401377,15.904983],[-16.401653,15.905229],[-16.403212,15.905684],[-16.403394,15.906313],[-16.40304,15.907273],[-16.400582,15.911496],[-16.401922,15.912503],[-16.403447,15.909311],[-16.404167,15.908196],[-16.405768,15.90428],[-16.406973,15.903862],[-16.40781,15.903923],[-16.408113,15.904174],[-16.408131,15.904375],[-16.406708,15.906033],[-16.405879,15.907386],[-16.405963,15.907778],[-16.406618,15.908199],[-16.407844,15.908195],[-16.408972,15.906311],[-16.409462,15.905806],[-16.409938,15.905664],[-16.410167,15.90591],[-16.409764,15.906569],[-16.409041,15.9089],[-16.40843,15.910213],[-16.407269,15.910148],[-16.405385,15.912887],[-16.402897,15.914971],[-16.400337,15.915266],[-16.399865,15.914546],[-16.399352,15.914595],[-16.399023,15.914326],[-16.398837,15.914508],[-16.397715,15.914289],[-16.397152,15.913886],[-16.3965,15.914206],[-16.396036,15.914661],[-16.395616,15.91471],[-16.394976,15.913]],[[-16.398687,15.913062],[-16.398826,15.912881],[-16.398684,15.912611],[-16.398546,15.912928],[-16.398687,15.913062]],[[-16.404714,15.913385],[-16.40527,15.912794],[-16.404894,15.912389],[-16.404566,15.912301],[-16.404335,15.912619],[-16.404714,15.913385]]],[[[-16.397341,15.914246],[-16.39734,15.914156],[-16.397434,15.9142],[-16.397341,15.914246]]]]}},{"type":"Feature","properties":{"categorie":"Steppe"},"geometry":{"type":"Polygon","coordinates":[[[-16.408777,15.899996],[-16.409805,15.900066],[-16.410237,15.899565],[-16.410348,15.898532],[-16.410781,15.898184],[-16.410872,15.89717],[-16.410455,15.896809],[-16.40915,15.89676],[-16.408152,15.898278],[-16.406877,15.899625],[-16.407314,15.899948],[-16.407059,15.900362],[-16.405847,15.899719],[-16.40674,15.898441],[-16.407234,15.897392],[-16.406656,15.896394],[-16.408072,15.895332],[-16.408634,15.895174],[-16.409399,15.895611],[-16.410242,15.894572],[-16.410274,15.893501],[-16.409797,15.893178],[-16.407253,15.894828],[-16.40639,15.89493],[-16.406156,15.894536],[-16.406184,15.894095],[-16.407817,15.892772],[-16.408073,15.8923],[-16.406977,15.891824],[-16.408837,15.887174],[-16.409662,15.882686],[-16.409646,15.881961],[-16.409308,15.881217],[-16.408851,15.880767],[-16.407971,15.880532],[-16.407507,15.88073],[-16.406154,15.886478],[-16.404657,15.891485],[-16.40584,15.892522],[-16.404662,15.893845],[-16.403738,15.893064],[-16.402791,15.893062],[-16.401858,15.894409],[-16.402128,15.891942],[-16.402837,15.891015],[-16.403251,15.889377],[-16.403718,15.885337],[-16.403719,15.882007],[-16.404047,15.881132],[-16.404694,15.880163],[-16.406169,15.878408],[-16.407892,15.876816],[-16.408368,15.876146],[-16.408563,15.875369],[-16.40842,15.873237],[-16.408657,15.871467],[-16.408983,15.870498],[-16.409888,15.869006],[-16.410431,15.868483],[-16.410972,15.86832],[-16.412293,15.869275],[-16.412893,15.869383],[-16.413792,15.869049],[-16.415068,15.868163],[-16.415652,15.868803],[-16.416684,15.869186],[-16.41697,15.870309],[-16.416857,15.870886],[-16.41607,15.872302],[-16.415481,15.873896],[-16.415317,15.875718],[-16.415495,15.876989],[-16.416207,15.877213],[-16.416853,15.876881],[-16.416638,15.875063],[-16.416965,15.874097],[-16.417454,15.873456],[-16.418089,15.873134],[-16.418487,15.87316],[-16.419108,15.873604],[-16.419336,15.874112],[-16.418878,15.87584],[-16.416901,15.878963],[-16.416208,15.879798],[-16.415595,15.879395],[-16.415118,15.879772],[-16.41343,15.884594],[-16.416236,15.886584],[-16.415534,15.888573],[-16.416778,15.889809],[-16.41612,15.892004],[-16.415748,15.892284],[-16.4146,15.894027],[-16.414208,15.893852],[-16.413887,15.893239],[-16.414714,15.891448],[-16.413548,15.890882],[-16.411042,15.892955],[-16.410491,15.895422],[-16.410995,15.896805],[-16.413377,15.897059],[-16.413636,15.898535],[-16.411239,15.903008],[-16.408073,15.900879],[-16.408777,15.899996]]]}},{"type":"Feature","properties":{"categorie":"Steppe"},"geometry":{"type":"Polygon","coordinates":[[[-16.431213,15.895171],[-16.431283,15.89442],[-16.431847,15.89363],[-16.432367,15.893193],[-16.433429,15.89286],[-16.433673,15.892976],[-16.433835,15.893436],[-16.434134,15.893461],[-16.434323,15.892502],[-16.434843,15.89211],[-16.434989,15.89163],[-16.434801,15.891369],[-16.434195,15.891509],[-16.434099,15.891211],[-16.434765,15.890276],[-16.435135,15.889185],[-16.436644,15.88785],[-16.437232,15.887891],[-16.437936,15.888311],[-16.438172,15.888662],[-16.438174,15.888979],[-16.437034,15.891535],[-16.437079,15.892592],[-16.437428,15.893168],[-16.437822,15.893283],[-16.438967,15.891504],[-16.439444,15.892866],[-16.438978,15.894396],[-16.438064,15.895866],[-16.437712,15.89764],[-16.437218,15.899017],[-16.436967,15.899145],[-16.436601,15.898967],[-16.435786,15.897264],[-16.435863,15.896351],[-16.435386,15.896155],[-16.435055,15.895624],[-16.434522,15.895528],[-16.434191,15.896181],[-16.433994,15.897412],[-16.432871,15.898377],[-16.432386,15.89979],[-16.431811,15.900445],[-16.431657,15.901052],[-16.431443,15.901189],[-16.431004,15.901155],[-16.42953,15.900126],[-16.429256,15.899612],[-16.429337,15.899305],[-16.430536,15.898411],[-16.430883,15.897234],[-16.43168,15.896379],[-16.431668,15.896053],[-16.431213,15.895171]]]}},{"type":"Feature","properties":{"categorie":"Steppe"},"geometry":{"type":"Polygon","coordinates":[[[-16.448601,15.887453],[-16.452777,15.890679],[-16.453405,15.891382],[-16.452369,15.892906],[-16.449176,15.893081],[-16.448067,15.893332],[-16.447393,15.893138],[-16.446942,15.892698],[-16.446581,15.891851],[-16.446415,15.890921],[-16.446626,15.889094],[-16.447079,15.888386],[-16.448601,15.887453]]]}},{"type":"Feature","properties":{"categorie":"Tanne"},"geometry":{"type":"MultiPolygon","coordinates":[[[[-16.462818,15.902452],[-16.462587,15.902164],[-16.462388,15.901949],[-16.462575,15.901947],[-16.462818,15.902452]]],[[[-16.465325,15.907535],[-16.464961,15.907168],[-16.464475,15.906155],[-16.463463,15.905773],[-16.462774,15.906004],[-16.460373,15.907864],[-16.460205,15.908507],[-16.46073,15.908838],[-16.460285,15.909265],[-16.460524,15.911279],[-16.459671,15.913517],[-16.459426,15.915425],[-16.459135,15.915351],[-16.458376,15.916336],[-16.458079,15.916291],[-16.457779,15.915743],[-16.4578,15.91524],[-16.45814,15.914401],[-16.459119,15.913103],[-16.458866,15.912268],[-16.459665,15.910062],[-16.459595,15.907169],[-16.460547,15.905585],[-16.461062,15.905055],[-16.462276,15.90543],[-16.46366,15.905492],[-16.464432,15.90575],[-16.465325,15.907535]]]]}},{"type":"Feature","properties":{"categorie":"Tanne"},"geometry":{"type":"Polygon","coordinates":[[[-16.468346,15.914565],[-16.467328,15.917081],[-16.467104,15.918356],[-16.467305,15.919033],[-16.468122,15.919705],[-16.468349,15.920074],[-16.46814,15.921684],[-16.46772,15.923035],[-16.466037,15.926074],[-16.46577,15.926941],[-16.464117,15.929379],[-16.46439,15.92961],[-16.464752,15.929376],[-16.466701,15.927295],[-16.467047,15.927256],[-16.467185,15.927519],[-16.466389,15.928445],[-16.466538,15.928671],[-16.465517,15.929216],[-16.464785,15.930584],[-16.464112,15.931058],[-16.463987,15.931636],[-16.46411,15.931907],[-16.464758,15.932318],[-16.464691,15.933385],[-16.464825,15.933773],[-16.466299,15.934901],[-16.466876,15.935819],[-16.466987,15.938295],[-16.466581,15.940277],[-16.467302,15.9418],[-16.467493,15.943597],[-16.468159,15.945237],[-16.46816,15.945454],[-16.468002,15.945527],[-16.46739,15.945189],[-16.467617,15.94493],[-16.467455,15.944357],[-16.466956,15.943729],[-16.46675,15.942678],[-16.466806,15.942181],[-16.466244,15.941037],[-16.466367,15.938893],[-16.466602,15.938566],[-16.466414,15.937267],[-16.466525,15.936137],[-16.466204,15.935585],[-16.464674,15.934466],[-16.464314,15.933933],[-16.464091,15.933189],[-16.463792,15.932865],[-16.462803,15.932738],[-16.462326,15.932474],[-16.462102,15.931538],[-16.461746,15.93154],[-16.461413,15.931887],[-16.461337,15.932308],[-16.461874,15.932859],[-16.461639,15.933052],[-16.459878,15.932911],[-16.459084,15.932476],[-16.458742,15.931637],[-16.457607,15.930497],[-16.457284,15.929676],[-16.457533,15.928489],[-16.457228,15.927305],[-16.457423,15.926978],[-16.457798,15.926937],[-16.459145,15.927215],[-16.459811,15.926445],[-16.46052,15.926001],[-16.46131,15.925842],[-16.462161,15.926009],[-16.462716,15.926254],[-16.462976,15.926615],[-16.462978,15.926902],[-16.462093,15.927597],[-16.462005,15.92909],[-16.461654,15.929723],[-16.461776,15.930201],[-16.463633,15.930035],[-16.463685,15.928983],[-16.463998,15.928502],[-16.463419,15.92776],[-16.463751,15.927184],[-16.464776,15.926699],[-16.465487,15.926626],[-16.465582,15.926089],[-16.466415,15.925103],[-16.467095,15.923544],[-16.467099,15.920579],[-16.466493,15.918885],[-16.466562,15.918144],[-16.467872,15.913218],[-16.468346,15.914565]]]}},{"type":"Feature","properties":{"categorie":"Tanne"},"geometry":{"type":"Polygon","coordinates":[[[-16.480079,15.982604],[-16.47992,15.982086],[-16.478882,15.980348],[-16.477092,15.978393],[-16.476541,15.976575],[-16.474936,15.97499],[-16.473811,15.976063],[-16.472361,15.976995],[-16.471525,15.977751],[-16.470371,15.979566],[-16.469103,15.981193],[-16.468719,15.982433],[-16.46865,15.982311],[-16.469087,15.980379],[-16.468094,15.978759],[-16.468279,15.978487],[-16.468467,15.978576],[-16.468886,15.978392],[-16.4693,15.977576],[-16.469718,15.977257],[-16.469624,15.977167],[-16.46981,15.976985],[-16.470416,15.976845],[-16.470689,15.975759],[-16.471199,15.975258],[-16.471525,15.975121],[-16.472181,15.975387],[-16.472505,15.975069],[-16.473437,15.974746],[-16.47404,15.974109],[-16.474177,15.973747],[-16.473471,15.973029],[-16.473186,15.972307],[-16.47267,15.971995],[-16.472152,15.971411],[-16.472284,15.970325],[-16.472189,15.9701],[-16.472373,15.969692],[-16.473161,15.968873],[-16.473441,15.968871],[-16.473626,15.968599],[-16.473657,15.966475],[-16.473608,15.966159],[-16.473042,15.96544],[-16.47294,15.964175],[-16.472184,15.963005],[-16.471714,15.962647],[-16.471569,15.962015],[-16.471898,15.960161],[-16.472482,15.959072],[-16.472287,15.957989],[-16.472326,15.956949],[-16.472601,15.956224],[-16.472883,15.956403],[-16.47311,15.955498],[-16.472796,15.955349],[-16.473,15.954585],[-16.472949,15.953908],[-16.471693,15.949497],[-16.471818,15.948809],[-16.472491,15.947539],[-16.472688,15.946408],[-16.473388,15.948829],[-16.47428,15.949941],[-16.474097,15.950825],[-16.474631,15.951441],[-16.475032,15.952252],[-16.475726,15.952072],[-16.475806,15.955931],[-16.475637,15.956248],[-16.475946,15.956612],[-16.476464,15.959136],[-16.476412,15.959903],[-16.476993,15.961131],[-16.47875,15.966666],[-16.47939,15.967456],[-16.479769,15.968217],[-16.479659,15.968213],[-16.480014,15.969211],[-16.481821,15.973076],[-16.481649,15.973379],[-16.482121,15.974099],[-16.481937,15.974462],[-16.482125,15.974596],[-16.482365,15.97424],[-16.484641,15.979103],[-16.485783,15.980785],[-16.485771,15.981214],[-16.485585,15.981414],[-16.484622,15.981339],[-16.48358,15.981943],[-16.482155,15.982495],[-16.480643,15.982731],[-16.480079,15.982604]],[[-16.477989,15.970317],[-16.476592,15.970497],[-16.476584,15.972091],[-16.476823,15.97234],[-16.477313,15.9723],[-16.4778,15.9725],[-16.478254,15.972957],[-16.47851,15.972135],[-16.478295,15.971613],[-16.478193,15.970604],[-16.477989,15.970317]],[[-16.474896,15.972339],[-16.475145,15.971862],[-16.475055,15.970206],[-16.474571,15.970072],[-16.473654,15.970426],[-16.473306,15.969947],[-16.473273,15.969487],[-16.473052,15.96919],[-16.472883,15.969191],[-16.472458,15.969862],[-16.472484,15.971244],[-16.473811,15.972034],[-16.474295,15.972103],[-16.474588,15.972433],[-16.474896,15.972339]],[[-16.47537,15.962386],[-16.47578,15.962231],[-16.476476,15.96237],[-16.476656,15.962238],[-16.475981,15.961623],[-16.475721,15.961645],[-16.475409,15.961994],[-16.475352,15.962376],[-16.475116,15.962579],[-16.474652,15.96437],[-16.475141,15.964746],[-16.475503,15.964564],[-16.475639,15.964208],[-16.47537,15.962386]],[[-16.474465,15.962248],[-16.475846,15.95947],[-16.475888,15.958597],[-16.475407,15.958409],[-16.474798,15.958499],[-16.47406,15.959279],[-16.473796,15.960287],[-16.473854,15.9615],[-16.473263,15.962657],[-16.472869,15.962955],[-16.472557,15.962958],[-16.472663,15.963408],[-16.47341,15.964579],[-16.47413,15.963669],[-16.474465,15.962248]]]}},{"type":"Feature","properties":{"categorie":"Tanne"},"geometry":{"type":"Polygon","coordinates":[[[-16.468868,15.988344],[-16.468786,15.988428],[-16.468754,15.988456],[-16.468868,15.988344]]]}},{"type":"Feature","properties":{"categorie":"Tanne"},"geometry":{"type":"Polygon","coordinates":[[[-16.468967,15.988198],[-16.468893,15.988316],[-16.468868,15.988344],[-16.468967,15.988198]]]}},{"type":"Feature","properties":{"categorie":"Tanne"},"geometry":{"type":"Polygon","coordinates":[[[-16.468754,15.988456],[-16.468587,15.988585],[-16.468517,15.988633],[-16.46823,15.988817],[-16.468754,15.988456]]]}},{"type":"Feature","properties":{"categorie":"Sol nu"},"geometry":{"type":"Polygon","coordinates":[[[-16.419475,16.051754],[-16.419804,16.053331],[-16.419529,16.054056],[-16.419722,16.054913],[-16.419631,16.05545],[-16.418978,16.056707],[-16.418576,16.057993],[-16.417505,16.058588],[-16.416948,16.059134],[-16.415214,16.060105],[-16.414277,16.059756],[-16.413026,16.059553],[-16.412895,16.05823],[-16.413095,16.05756],[-16.414755,16.056296],[-16.41668,16.055434],[-16.417064,16.054852],[-16.41802,16.052471],[-16.418738,16.05191],[-16.419475,16.051754]]]}},{"type":"Feature","properties":{"categorie":"Steppe"},"geometry":{"type":"MultiPolygon","coordinates":[[[[-16.334727,16.130934],[-16.334678,16.124831],[-16.335434,16.125432],[-16.336851,16.124586],[-16.338105,16.122635],[-16.33717,16.121445],[-16.339032,16.117876],[-16.339152,16.117278],[-16.337635,16.117018],[-16.334638,16.119787],[-16.334396,16.089006],[-16.335742,16.087214],[-16.337019,16.083807],[-16.337945,16.082554],[-16.340491,16.080188],[-16.342622,16.077382],[-16.343403,16.076763],[-16.344893,16.075958],[-16.346017,16.074893],[-16.347481,16.072941],[-16.349733,16.068733],[-16.350948,16.067234],[-16.354299,16.063796],[-16.356408,16.060511],[-16.357403,16.059764],[-16.359482,16.059009],[-16.360516,16.058415],[-16.361957,16.057331],[-16.363257,16.055994],[-16.364266,16.054568],[-16.36523,16.052059],[-16.365775,16.051097],[-16.366703,16.05016],[-16.36876,16.048882],[-16.369771,16.047818],[-16.373362,16.04258],[-16.374433,16.04063],[-16.375454,16.038237],[-16.376075,16.037546],[-16.378092,16.035961],[-16.379591,16.03371],[-16.381958,16.034029],[-16.384461,16.035215],[-16.385855,16.03535],[-16.387842,16.034822],[-16.389238,16.034081],[-16.390369,16.034057],[-16.39131,16.033259],[-16.392002,16.033381],[-16.392393,16.033849],[-16.392662,16.034953],[-16.392083,16.03512],[-16.39149,16.035822],[-16.390749,16.037494],[-16.390229,16.038154],[-16.389265,16.04057],[-16.388055,16.04272],[-16.378958,16.05565],[-16.377574,16.058983],[-16.377511,16.059437],[-16.377098,16.060084],[-16.376628,16.062384],[-16.375599,16.063595],[-16.374513,16.065386],[-16.371325,16.067297],[-16.370985,16.067965],[-16.370446,16.068484],[-16.367918,16.072097],[-16.368071,16.072485],[-16.368726,16.072698],[-16.369047,16.073102],[-16.369095,16.074611],[-16.368977,16.075181],[-16.3687,16.075608],[-16.368235,16.075954],[-16.367758,16.076003],[-16.367485,16.075661],[-16.367424,16.074965],[-16.367087,16.074968],[-16.366828,16.075313],[-16.3665,16.07658],[-16.365871,16.077488],[-16.365764,16.078284],[-16.364912,16.077537],[-16.36545,16.076171],[-16.365453,16.075341],[-16.364909,16.074638],[-16.364182,16.074351],[-16.362262,16.076184],[-16.361735,16.077198],[-16.360331,16.078533],[-16.359743,16.07934],[-16.360109,16.078347],[-16.360341,16.07812],[-16.35978,16.078123],[-16.359503,16.078622],[-16.359222,16.078534],[-16.359036,16.07867],[-16.35913,16.07876],[-16.358757,16.078898],[-16.358946,16.079123],[-16.358853,16.079214],[-16.359227,16.079302],[-16.359043,16.079664],[-16.359185,16.07989],[-16.359738,16.079348],[-16.359218,16.080061],[-16.358905,16.080072],[-16.359024,16.080327],[-16.358467,16.081539],[-16.357222,16.082767],[-16.35666,16.083873],[-16.35602,16.084718],[-16.355415,16.086376],[-16.35549,16.08675],[-16.354975,16.087761],[-16.35423,16.088588],[-16.352534,16.089764],[-16.352509,16.090237],[-16.353036,16.091299],[-16.352866,16.091854],[-16.352316,16.092348],[-16.351561,16.092443],[-16.35172,16.09357],[-16.350682,16.094314],[-16.350545,16.094812],[-16.35008,16.095131],[-16.349564,16.094863],[-16.349331,16.094955],[-16.349239,16.095182],[-16.349522,16.095542],[-16.349463,16.095912],[-16.347449,16.094588],[-16.346879,16.093235],[-16.346036,16.09297],[-16.339067,16.09925],[-16.338793,16.100336],[-16.340771,16.102493],[-16.341089,16.102301],[-16.34109,16.102663],[-16.339653,16.104272],[-16.338605,16.106023],[-16.338194,16.106346],[-16.337433,16.106581],[-16.33706,16.106964],[-16.336435,16.108903],[-16.336416,16.109945],[-16.336684,16.110123],[-16.338785,16.110191],[-16.339172,16.110075],[-16.339595,16.109593],[-16.339803,16.109572],[-16.34033,16.110252],[-16.339485,16.112115],[-16.339509,16.112403],[-16.339862,16.11273],[-16.340184,16.112835],[-16.340376,16.112711],[-16.341065,16.111376],[-16.341451,16.111816],[-16.342289,16.111359],[-16.342619,16.111673],[-16.343368,16.11194],[-16.343324,16.112256],[-16.343747,16.11266],[-16.346372,16.113728],[-16.346795,16.114042],[-16.346935,16.113951],[-16.347124,16.114311],[-16.347297,16.114226],[-16.345863,16.116183],[-16.345679,16.117114],[-16.344448,16.119367],[-16.337635,16.126952],[-16.335512,16.130555],[-16.335119,16.130229],[-16.334727,16.130934]],[[-16.355173,16.075186],[-16.3566,16.07396],[-16.356481,16.074077],[-16.357322,16.074072],[-16.357604,16.074296],[-16.357419,16.074613],[-16.357796,16.075063],[-16.357471,16.075291],[-16.357056,16.076197],[-16.357105,16.076468],[-16.357385,16.076376],[-16.357621,16.076691],[-16.357248,16.076829],[-16.357105,16.076559],[-16.356875,16.077102],[-16.357347,16.077732],[-16.357255,16.077868],[-16.357769,16.07791],[-16.358365,16.077546],[-16.358749,16.077633],[-16.358933,16.07727],[-16.359404,16.077809],[-16.35959,16.077627],[-16.360058,16.07776],[-16.360337,16.077532],[-16.36048,16.077983],[-16.360666,16.077801],[-16.360805,16.077574],[-16.360524,16.077486],[-16.360615,16.077214],[-16.360422,16.076266],[-16.360555,16.075181],[-16.360739,16.074818],[-16.361532,16.074587],[-16.36209,16.074177],[-16.36162,16.073728],[-16.361806,16.073546],[-16.362367,16.073588],[-16.361944,16.073364],[-16.363034,16.073471],[-16.364462,16.070157],[-16.36553,16.068616],[-16.365619,16.068037],[-16.36406,16.067258],[-16.363736,16.066853],[-16.368418,16.060869],[-16.369332,16.061555],[-16.370766,16.059681],[-16.366365,16.056158],[-16.36508,16.058175],[-16.3673,16.060063],[-16.36708,16.060399],[-16.364893,16.058859],[-16.35765,16.067546],[-16.354297,16.064737],[-16.35154,16.067724],[-16.347086,16.075493],[-16.342566,16.081013],[-16.342293,16.081702],[-16.344645,16.082696],[-16.347807,16.08296],[-16.348828,16.083315],[-16.34914,16.083852],[-16.349068,16.085087],[-16.349215,16.086532],[-16.351619,16.089138],[-16.355139,16.086147],[-16.354678,16.085323],[-16.352143,16.082041],[-16.354371,16.080708],[-16.355173,16.075186]],[[-16.369117,16.063211],[-16.367537,16.066465],[-16.365869,16.069462],[-16.364465,16.071175],[-16.36437,16.071494],[-16.364543,16.071714],[-16.364933,16.071854],[-16.365244,16.071118],[-16.366129,16.070276],[-16.367519,16.06735],[-16.368623,16.066123],[-16.369577,16.06461],[-16.369756,16.063812],[-16.369117,16.063211]],[[-16.366971,16.063938],[-16.365719,16.065144],[-16.365656,16.065651],[-16.365868,16.066153],[-16.367138,16.064812],[-16.367349,16.064228],[-16.366971,16.063938]],[[-16.380784,16.039163],[-16.380271,16.039849],[-16.379214,16.040184],[-16.378913,16.040472],[-16.378695,16.040932],[-16.378582,16.041812],[-16.377919,16.042514],[-16.378075,16.043308],[-16.376611,16.043996],[-16.376139,16.044445],[-16.375402,16.0456],[-16.374335,16.046122],[-16.375133,16.048198],[-16.374923,16.04898],[-16.374362,16.049721],[-16.373711,16.050039],[-16.373032,16.050081],[-16.372506,16.049317],[-16.371482,16.048755],[-16.370918,16.047922],[-16.37034,16.04795],[-16.369783,16.048325],[-16.369619,16.048851],[-16.369672,16.049376],[-16.371198,16.049665],[-16.371542,16.05083],[-16.37249,16.051374],[-16.372593,16.051932],[-16.372476,16.052596],[-16.372625,16.052776],[-16.373125,16.052914],[-16.373508,16.0528],[-16.375613,16.050649],[-16.37707,16.048795],[-16.378013,16.046762],[-16.379308,16.045093],[-16.379839,16.043849],[-16.380576,16.041214],[-16.381144,16.040176],[-16.381155,16.039465],[-16.380784,16.039163]],[[-16.362414,16.073633],[-16.362414,16.073723],[-16.362461,16.073678],[-16.362414,16.073633]],[[-16.362136,16.073996],[-16.362136,16.074086],[-16.362183,16.074041],[-16.362136,16.073996]],[[-16.362184,16.074131],[-16.362793,16.074353],[-16.36279,16.073992],[-16.362184,16.074131]],[[-16.363121,16.074577],[-16.363214,16.074441],[-16.363071,16.07408],[-16.362932,16.074262],[-16.363121,16.074577]],[[-16.354829,16.064823],[-16.355298,16.064956],[-16.355575,16.064593],[-16.355014,16.064506],[-16.354829,16.064823]],[[-16.356435,16.074213],[-16.356436,16.074303],[-16.356482,16.074258],[-16.356435,16.074213]],[[-16.356826,16.076741],[-16.356827,16.076831],[-16.356873,16.076786],[-16.356826,16.076741]],[[-16.357489,16.077912],[-16.357489,16.078002],[-16.357536,16.077957],[-16.357489,16.077912]],[[-16.357537,16.078138],[-16.357725,16.078272],[-16.35791,16.07809],[-16.357816,16.078],[-16.357537,16.078138]],[[-16.357397,16.078184],[-16.357398,16.078274],[-16.357444,16.078228],[-16.357397,16.078184]]],[[[-16.333822,16.059144],[-16.335729,16.058284],[-16.336712,16.057061],[-16.341383,16.060073],[-16.341804,16.060094],[-16.346029,16.055859],[-16.348835,16.053904],[-16.350439,16.05332],[-16.346931,16.050246],[-16.342028,16.045529],[-16.339076,16.050797],[-16.338363,16.052937],[-16.337894,16.052716],[-16.33683,16.052571],[-16.335946,16.053011],[-16.335288,16.052993],[-16.333633,16.051926],[-16.333594,16.050435],[-16.333785,16.050297],[-16.334344,16.050085],[-16.336418,16.05022],[-16.3372,16.049534],[-16.338638,16.048825],[-16.338727,16.048547],[-16.338413,16.047785],[-16.338582,16.047007],[-16.339765,16.045507],[-16.340454,16.043947],[-16.341543,16.044458],[-16.344029,16.044586],[-16.346626,16.040549],[-16.346515,16.041862],[-16.346121,16.042971],[-16.34551,16.044021],[-16.345667,16.044468],[-16.347051,16.043473],[-16.34773,16.04323],[-16.349181,16.043011],[-16.349739,16.043217],[-16.351032,16.042402],[-16.352462,16.040946],[-16.35376,16.040938],[-16.356895,16.038336],[-16.356963,16.037331],[-16.352931,16.033518],[-16.349916,16.032547],[-16.348893,16.032044],[-16.351291,16.030781],[-16.353025,16.030119],[-16.355068,16.0296],[-16.357206,16.029315],[-16.358106,16.029789],[-16.360857,16.030169],[-16.361466,16.031837],[-16.361371,16.033013],[-16.362029,16.033569],[-16.363702,16.033576],[-16.364782,16.032955],[-16.365674,16.032154],[-16.366885,16.030293],[-16.367437,16.029015],[-16.368016,16.028822],[-16.368843,16.029503],[-16.369078,16.0298],[-16.366978,16.031576],[-16.3643,16.034892],[-16.363912,16.035645],[-16.363975,16.036548],[-16.362999,16.037404],[-16.362068,16.03793],[-16.361906,16.038339],[-16.36104,16.039033],[-16.359962,16.040417],[-16.357734,16.044754],[-16.357394,16.04608],[-16.356774,16.046801],[-16.356535,16.048058],[-16.355895,16.049467],[-16.354181,16.052019],[-16.353537,16.052681],[-16.352457,16.053046],[-16.35126,16.054],[-16.349125,16.0547],[-16.347422,16.055832],[-16.346437,16.056787],[-16.341506,16.062973],[-16.340863,16.063302],[-16.338717,16.063831],[-16.337553,16.064435],[-16.336697,16.0651],[-16.336058,16.06599],[-16.335008,16.068256],[-16.334092,16.069446],[-16.333822,16.059144]]],[[[-16.359226,16.079166],[-16.359413,16.079165],[-16.359321,16.079256],[-16.359226,16.079166]]]]}},{"type":"Feature","properties":{"categorie":"Steppe"},"geometry":{"type":"Polygon","coordinates":[[[-16.347363,16.10281],[-16.348243,16.102429],[-16.348775,16.102641],[-16.348801,16.102537],[-16.349449,16.102712],[-16.349957,16.102635],[-16.350866,16.102158],[-16.351371,16.101364],[-16.352656,16.10124],[-16.350655,16.10461],[-16.350374,16.104077],[-16.349954,16.104216],[-16.349629,16.104534],[-16.349395,16.10449],[-16.348548,16.103592],[-16.347658,16.103371],[-16.347473,16.103644],[-16.347331,16.103373],[-16.347363,16.10281]],[[-16.348683,16.102913],[-16.348683,16.102823],[-16.348636,16.102868],[-16.348683,16.102913]],[[-16.348871,16.10298],[-16.349011,16.102956],[-16.348824,16.102957],[-16.348871,16.10298]]]}},{"type":"Feature","properties":{"categorie":"Steppe"},"geometry":{"type":"MultiPolygon","coordinates":[[[[-16.380071,16.078707],[-16.380247,16.078796],[-16.380485,16.078392],[-16.380958,16.078846],[-16.381842,16.078253],[-16.382682,16.078022],[-16.38305,16.077161],[-16.382955,16.076981],[-16.383093,16.076663],[-16.383744,16.076516],[-16.383099,16.078027],[-16.384758,16.079737],[-16.384021,16.08146],[-16.383827,16.081449],[-16.383949,16.081597],[-16.38365,16.082147],[-16.379869,16.081075],[-16.381045,16.079489],[-16.380071,16.078707]],[[-16.383867,16.080364],[-16.384332,16.08009],[-16.384284,16.079864],[-16.38391,16.079912],[-16.383867,16.080364]]],[[[-16.385554,16.069442],[-16.38406,16.069387],[-16.382156,16.070185],[-16.380961,16.071395],[-16.379538,16.073529],[-16.378354,16.073919],[-16.377359,16.07382],[-16.378167,16.072208],[-16.378791,16.07171],[-16.378637,16.070972],[-16.378447,16.070734],[-16.378219,16.070721],[-16.380352,16.067281],[-16.380735,16.066936],[-16.381722,16.066644],[-16.382528,16.065918],[-16.383356,16.065837],[-16.385358,16.066253],[-16.385707,16.066113],[-16.385927,16.065663],[-16.386825,16.065758],[-16.38652,16.06694],[-16.386678,16.067873],[-16.386173,16.069142],[-16.385554,16.069442]]],[[[-16.387027,16.069916],[-16.386776,16.069836],[-16.386642,16.069455],[-16.386781,16.069228],[-16.387027,16.069916]]],[[[-16.386545,16.071338],[-16.386468,16.071264],[-16.386589,16.070767],[-16.386545,16.071338]]],[[[-16.386543,16.071372],[-16.386127,16.073264],[-16.386499,16.073544],[-16.385395,16.077684],[-16.384006,16.076472],[-16.384679,16.076201],[-16.384825,16.075376],[-16.38505,16.075792],[-16.385404,16.075753],[-16.385824,16.075164],[-16.385871,16.074716],[-16.385739,16.074487],[-16.385291,16.074449],[-16.38506,16.074627],[-16.386017,16.073617],[-16.385968,16.073391],[-16.386108,16.07339],[-16.386055,16.072396],[-16.38596,16.072216],[-16.385868,16.072397],[-16.385633,16.072173],[-16.386543,16.071372]]],[[[-16.385042,16.074663],[-16.384879,16.07498],[-16.384811,16.07498],[-16.385042,16.074663]]]]}},{"type":"Feature","properties":{"categorie":"Steppe"},"geometry":{"type":"Polygon","coordinates":[[[-16.376914,16.077519],[-16.376316,16.077753],[-16.375531,16.07845],[-16.374825,16.078025],[-16.374149,16.07788],[-16.373702,16.077176],[-16.372861,16.076829],[-16.373423,16.075852],[-16.375668,16.073264],[-16.37562,16.072912],[-16.374857,16.072541],[-16.373974,16.072772],[-16.373163,16.073557],[-16.372563,16.074652],[-16.372138,16.076177],[-16.371166,16.07543],[-16.370652,16.075388],[-16.369671,16.075529],[-16.368983,16.076022],[-16.369587,16.075449],[-16.37003,16.074732],[-16.369932,16.073991],[-16.37006,16.073665],[-16.371779,16.072081],[-16.372317,16.071203],[-16.373204,16.070842],[-16.374433,16.069728],[-16.37551,16.069379],[-16.375163,16.070796],[-16.375205,16.071447],[-16.375535,16.071757],[-16.376668,16.072149],[-16.375735,16.073779],[-16.375572,16.075062],[-16.374939,16.075961],[-16.375063,16.076508],[-16.375314,16.076769],[-16.375757,16.076666],[-16.376103,16.076393],[-16.376274,16.075925],[-16.377186,16.076796],[-16.378969,16.077072],[-16.379661,16.077369],[-16.379011,16.078425],[-16.378039,16.079498],[-16.377718,16.079409],[-16.377783,16.078698],[-16.377565,16.078061],[-16.377225,16.077616],[-16.376914,16.077519]]]}},{"type":"Feature","properties":{"categorie":"Steppe"},"geometry":{"type":"MultiPolygon","coordinates":[[[[-16.430246,16.058036],[-16.43009,16.057768],[-16.431224,16.056445],[-16.429885,16.055019],[-16.430679,16.053758],[-16.429253,16.053113],[-16.430032,16.052404],[-16.43098,16.051019],[-16.432585,16.049947],[-16.433008,16.050306],[-16.43301,16.050577],[-16.432456,16.051484],[-16.432505,16.051891],[-16.432277,16.05257],[-16.431347,16.053299],[-16.431211,16.053888],[-16.431306,16.054113],[-16.431128,16.055289],[-16.431367,16.05601],[-16.431325,16.056734],[-16.431584,16.057898],[-16.430246,16.058036]]],[[[-16.437153,16.054887],[-16.43785,16.05434],[-16.438181,16.05479],[-16.4393,16.054421],[-16.43962,16.054726],[-16.437153,16.054887]]],[[[-16.434757,16.055599],[-16.43524,16.055216],[-16.436131,16.055144],[-16.434757,16.055599]]],[[[-16.434134,16.058776],[-16.433803,16.061799],[-16.434328,16.063153],[-16.43393,16.063883],[-16.433346,16.063337],[-16.433238,16.062776],[-16.432955,16.062507],[-16.432811,16.061966],[-16.432626,16.062238],[-16.432508,16.062126],[-16.432065,16.06028],[-16.432385,16.061246],[-16.43276,16.061379],[-16.432752,16.060294],[-16.43428,16.05825],[-16.43452,16.057173],[-16.434507,16.058773],[-16.434134,16.058776]]]]}},{"type":"Feature","properties":{"categorie":"Sol nu"},"geometry":{"type":"Polygon","coordinates":[[[-16.511578,15.99159],[-16.511779,15.989563],[-16.512441,15.986947],[-16.512838,15.983827],[-16.512645,15.98306],[-16.512829,15.982561],[-16.512676,15.982137],[-16.512738,15.980456],[-16.513084,15.978077],[-16.51296,15.976688],[-16.513099,15.975103],[-16.513326,15.974198],[-16.513313,15.972436],[-16.513118,15.971353],[-16.513161,15.970855],[-16.513391,15.970447],[-16.513058,15.969591],[-16.512941,15.969658],[-16.512957,15.968655],[-16.513576,15.970147],[-16.513753,15.971285],[-16.513585,15.975073],[-16.51372,15.976852],[-16.513647,15.978398],[-16.513894,15.980292],[-16.513766,15.985503],[-16.512976,15.990517],[-16.513227,15.990511],[-16.51296,15.991624],[-16.511578,15.99159]]]}},{"type":"Feature","properties":{"categorie":"Tanne"},"geometry":{"type":"Polygon","coordinates":[[[-16.459305,16.01255],[-16.452242,16.015399],[-16.454136,16.012385],[-16.454643,16.01124],[-16.454565,16.010644],[-16.45408,16.009865],[-16.453119,16.00902],[-16.452645,16.008204],[-16.451449,16.00773],[-16.451986,16.00704],[-16.45201,16.006479],[-16.451083,16.004985],[-16.450186,16.002425],[-16.449243,16.00112],[-16.448537,16.00052],[-16.447609,16.000029],[-16.447253,15.998576],[-16.447544,15.997553],[-16.448701,15.996],[-16.448996,15.995356],[-16.449425,15.992705],[-16.449908,15.991701],[-16.450092,15.990567],[-16.449934,15.989729],[-16.449159,15.98883],[-16.449787,15.987481],[-16.450374,15.98691],[-16.451571,15.986903],[-16.451548,15.987658],[-16.451936,15.989404],[-16.451432,15.992511],[-16.451579,15.993404],[-16.45422,15.996767],[-16.45514,15.998713],[-16.45528,16.000031],[-16.454326,16.001204],[-16.454198,16.002813],[-16.45455,16.004926],[-16.454512,16.006245],[-16.45488,16.006686],[-16.455545,16.006889],[-16.456413,16.006784],[-16.456999,16.006409],[-16.457953,16.005237],[-16.458624,16.003651],[-16.459793,16.002581],[-16.461004,16.001991],[-16.461333,16.001643],[-16.461382,15.998761],[-16.461113,15.996485],[-16.461395,15.994052],[-16.461068,15.988911],[-16.461356,15.988783],[-16.462292,15.98893],[-16.463522,15.988542],[-16.464219,15.988068],[-16.465084,15.986938],[-16.46531,15.987771],[-16.465323,15.989533],[-16.468967,15.988198],[-16.46823,15.988817],[-16.466796,15.989008],[-16.465676,15.989611],[-16.463505,15.992275],[-16.462964,15.993756],[-16.462956,15.995747],[-16.463645,15.998019],[-16.463313,15.999487],[-16.462527,16.001496],[-16.462432,16.003247],[-16.4639,16.005757],[-16.464442,16.007136],[-16.464834,16.010556],[-16.459305,16.01255]],[[-16.450579,15.990745],[-16.450492,15.992371],[-16.450222,15.993387],[-16.450265,15.993865],[-16.450464,15.993998],[-16.45072,15.993881],[-16.450752,15.992771],[-16.451372,15.991065],[-16.451438,15.989266],[-16.451229,15.987836],[-16.450294,15.987305],[-16.450579,15.990745]]]}},{"type":"Feature","properties":{"categorie":"Steppe"},"geometry":{"type":"MultiPolygon","coordinates":[[[[-16.426834,15.999466],[-16.428591,15.99863],[-16.429445,15.998871],[-16.430275,15.999491],[-16.432098,15.999487],[-16.432343,16.000123],[-16.432405,16.001217],[-16.433169,16.002111],[-16.433174,16.002927],[-16.433472,16.003668],[-16.433344,16.003793],[-16.432322,16.003773],[-16.432356,16.004587],[-16.433128,16.005238],[-16.433235,16.005836],[-16.432543,16.00599],[-16.432119,16.007491],[-16.43071,16.009079],[-16.430982,16.009992],[-16.430999,16.010863],[-16.431578,16.012676],[-16.430422,16.012724],[-16.430479,16.013997],[-16.429739,16.014712],[-16.428724,16.015084],[-16.427375,16.015167],[-16.426812,16.015459],[-16.427669,16.016743],[-16.426895,16.017243],[-16.426792,16.017534],[-16.42685,16.017922],[-16.427375,16.01839],[-16.427664,16.01897],[-16.427667,16.019296],[-16.427407,16.019776],[-16.427451,16.020161],[-16.427777,16.020256],[-16.429444,16.019946],[-16.429723,16.020103],[-16.43024,16.020853],[-16.43119,16.020796],[-16.431527,16.020958],[-16.432335,16.022112],[-16.432758,16.023829],[-16.433567,16.023956],[-16.433872,16.026006],[-16.432707,16.027731],[-16.431676,16.027412],[-16.431295,16.029033],[-16.433779,16.029974],[-16.434154,16.031025],[-16.433903,16.031681],[-16.433623,16.031683],[-16.4333,16.032363],[-16.433395,16.032543],[-16.433118,16.033042],[-16.433214,16.033358],[-16.432936,16.033721],[-16.432377,16.033951],[-16.432096,16.033817],[-16.431161,16.033824],[-16.431164,16.03423],[-16.431306,16.03441],[-16.431492,16.034318],[-16.431635,16.034724],[-16.430846,16.035498],[-16.430663,16.036041],[-16.429782,16.036951],[-16.429311,16.036412],[-16.428751,16.036506],[-16.428475,16.037231],[-16.428099,16.036917],[-16.428377,16.036554],[-16.427301,16.036335],[-16.426881,16.036428],[-16.426039,16.036253],[-16.425245,16.036439],[-16.423796,16.036313],[-16.423607,16.036088],[-16.423652,16.035817],[-16.423275,16.035367],[-16.423155,16.035407],[-16.423508,16.035185],[-16.423627,16.034904],[-16.423569,16.03456],[-16.42277,16.034249],[-16.422947,16.032893],[-16.424867,16.031769],[-16.425404,16.029075],[-16.426253,16.028424],[-16.425872,16.027063],[-16.424782,16.024954],[-16.424214,16.02338],[-16.423012,16.023267],[-16.422144,16.02208],[-16.421798,16.020763],[-16.421858,16.019949],[-16.422152,16.019296],[-16.422932,16.018577],[-16.42379,16.0183],[-16.42402,16.017883],[-16.423918,16.015299],[-16.424215,16.013733],[-16.424572,16.010016],[-16.424447,16.009502],[-16.42409,16.009305],[-16.422905,16.009575],[-16.42255,16.009496],[-16.422388,16.009136],[-16.422469,16.008602],[-16.422662,16.008248],[-16.423425,16.007737],[-16.423686,16.006362],[-16.425195,16.005601],[-16.425835,16.00491],[-16.425996,16.002677],[-16.426707,16.00147],[-16.426834,15.999466]],[[-16.431075,16.034773],[-16.431262,16.034817],[-16.43112,16.034592],[-16.431075,16.034773]],[[-16.423533,16.035433],[-16.423508,16.035275],[-16.423415,16.035321],[-16.423533,16.035433]]],[[[-16.419854,16.046597],[-16.420165,16.044806],[-16.420998,16.043608],[-16.421093,16.043968],[-16.420581,16.044242],[-16.420215,16.045284],[-16.420499,16.045825],[-16.42013,16.04655],[-16.419854,16.046597]]],[[[-16.42229,16.038417],[-16.422364,16.038627],[-16.422384,16.038806],[-16.42229,16.038417]]],[[[-16.422256,16.038279],[-16.421967,16.037009],[-16.422712,16.035982],[-16.422256,16.038279]]]]}},{"type":"Feature","properties":{"categorie":"Steppe"},"geometry":{"type":"Polygon","coordinates":[[[-16.373443,16.001156],[-16.375703,15.998628],[-16.375699,15.998377],[-16.374411,15.998317],[-16.376071,15.995576],[-16.375636,15.99384],[-16.374788,15.992843],[-16.37473,15.989824],[-16.37492,15.988892],[-16.375271,15.988366],[-16.376739,15.987154],[-16.378219,15.986268],[-16.379228,15.986289],[-16.381448,15.987034],[-16.381692,15.987267],[-16.382063,15.988159],[-16.3832,15.989146],[-16.382868,15.989853],[-16.383201,15.990629],[-16.38352,15.99078],[-16.384864,15.990609],[-16.385426,15.990876],[-16.385555,15.991888],[-16.385342,15.992251],[-16.384451,15.993007],[-16.383372,15.99521],[-16.383989,15.996507],[-16.384581,15.997028],[-16.385612,15.997437],[-16.385765,15.997969],[-16.385155,15.998904],[-16.384176,15.99929],[-16.383103,15.999441],[-16.38277,16.000031],[-16.380888,16.002158],[-16.37938,16.004418],[-16.378877,16.005994],[-16.378904,16.007409],[-16.377749,16.00769],[-16.376606,16.008706],[-16.376279,16.013926],[-16.376544,16.014911],[-16.376998,16.015481],[-16.376194,16.016212],[-16.371467,16.012647],[-16.371583,16.00784],[-16.372601,16.008431],[-16.373997,16.006533],[-16.372203,16.005333],[-16.371273,16.00499],[-16.371152,16.004583],[-16.373443,16.001156]]]}},{"type":"Feature","properties":{"categorie":"Tanne"},"geometry":{"type":"MultiPolygon","coordinates":[[[[-16.45502,15.960094],[-16.455343,15.958677],[-16.454985,15.957428],[-16.454981,15.954366],[-16.455276,15.951321],[-16.455091,15.94556],[-16.454448,15.94274],[-16.455135,15.940522],[-16.455191,15.939888],[-16.454978,15.939294],[-16.454067,15.937911],[-16.453375,15.93594],[-16.454469,15.935642],[-16.456591,15.936469],[-16.456944,15.936142],[-16.456613,15.935122],[-16.455381,15.935048],[-16.455116,15.934643],[-16.455409,15.933791],[-16.455688,15.933618],[-16.456207,15.9336],[-16.456187,15.933798],[-16.455719,15.934017],[-16.455549,15.934341],[-16.455637,15.934555],[-16.456231,15.934659],[-16.456526,15.93449],[-16.457144,15.934485],[-16.457516,15.934638],[-16.457581,15.935092],[-16.457416,15.937546],[-16.45639,15.940256],[-16.456233,15.941775],[-16.456733,15.947701],[-16.456822,15.954822],[-16.456712,15.956368],[-16.456036,15.959871],[-16.4561,15.961843],[-16.455779,15.961716],[-16.455213,15.961042],[-16.45502,15.960094]]],[[[-16.456116,15.961939],[-16.456397,15.96323],[-16.457007,15.96549],[-16.456079,15.964425],[-16.456352,15.963475],[-16.456116,15.961939]]],[[[-16.458831,15.966334],[-16.458713,15.965126],[-16.459176,15.964974],[-16.459886,15.964969],[-16.460478,15.965563],[-16.460818,15.96559],[-16.461247,15.965169],[-16.461551,15.964479],[-16.462289,15.964026],[-16.463183,15.963721],[-16.464049,15.963775],[-16.464319,15.962667],[-16.464254,15.962219],[-16.463913,15.962042],[-16.463604,15.962104],[-16.462963,15.963214],[-16.462255,15.963518],[-16.461236,15.963644],[-16.460338,15.963352],[-16.459747,15.962847],[-16.459,15.961986],[-16.45881,15.961419],[-16.45896,15.96073],[-16.460313,15.959854],[-16.459684,15.958304],[-16.460019,15.957644],[-16.462548,15.957119],[-16.462914,15.956429],[-16.463017,15.953559],[-16.463432,15.951225],[-16.463366,15.950538],[-16.462898,15.950003],[-16.462818,15.947433],[-16.462563,15.946328],[-16.462954,15.944831],[-16.462818,15.943158],[-16.462906,15.94256],[-16.463424,15.94151],[-16.461955,15.939218],[-16.462626,15.937958],[-16.462729,15.935148],[-16.463191,15.934965],[-16.463901,15.934961],[-16.464521,15.935196],[-16.464864,15.935642],[-16.464407,15.936571],[-16.46405,15.93639],[-16.46369,15.936469],[-16.463576,15.936773],[-16.463678,15.938028],[-16.462758,15.938631],[-16.462505,15.939175],[-16.463728,15.941038],[-16.463938,15.941669],[-16.463518,15.942991],[-16.463812,15.944842],[-16.463195,15.947313],[-16.463841,15.951439],[-16.463466,15.953783],[-16.463302,15.956911],[-16.463927,15.958172],[-16.464027,15.959084],[-16.464506,15.960617],[-16.464661,15.962695],[-16.464345,15.964234],[-16.463834,15.964599],[-16.46304,15.964604],[-16.462851,15.964334],[-16.462712,15.964471],[-16.462806,15.964606],[-16.462625,15.96542],[-16.462866,15.966413],[-16.463007,15.966502],[-16.464401,15.965499],[-16.464684,15.965813],[-16.463943,15.966722],[-16.463577,15.967809],[-16.462969,15.967677],[-16.463012,15.96718],[-16.46287,15.966955],[-16.462777,15.967046],[-16.462822,15.966729],[-16.462681,15.966595],[-16.462215,15.966779],[-16.4617,15.966692],[-16.461282,15.966966],[-16.461188,15.966876],[-16.460676,15.967151],[-16.460678,15.967422],[-16.460261,15.967877],[-16.460125,15.96851],[-16.460409,15.969005],[-16.461627,15.969404],[-16.461813,15.969312],[-16.462281,15.969445],[-16.463079,15.970027],[-16.463223,15.970568],[-16.462854,15.971158],[-16.463561,15.972012],[-16.46371,15.973231],[-16.46357,15.97456],[-16.463715,15.975174],[-16.463473,15.975311],[-16.463003,15.974998],[-16.461947,15.973008],[-16.461643,15.972892],[-16.461275,15.973039],[-16.461001,15.974533],[-16.460324,15.975233],[-16.460191,15.9756],[-16.460968,15.977823],[-16.4607,15.97824],[-16.460188,15.978479],[-16.45942,15.978149],[-16.458722,15.977232],[-16.458398,15.976439],[-16.4565,15.97497],[-16.457175,15.973962],[-16.457365,15.97259],[-16.457676,15.972142],[-16.458083,15.970286],[-16.457334,15.966353],[-16.457585,15.966042],[-16.457107,15.965586],[-16.458831,15.966334]],[[-16.457586,15.966132],[-16.457726,15.966154],[-16.457773,15.966131],[-16.457586,15.966132]],[[-16.462846,15.970073],[-16.462939,15.970073],[-16.462892,15.970028],[-16.462846,15.970073]],[[-16.458017,15.974128],[-16.458019,15.974309],[-16.458111,15.974218],[-16.458017,15.974128]]]]}},{"type":"Feature","properties":{"categorie":"Tanne"},"geometry":{"type":"Polygon","coordinates":[[[-16.457486,15.967296],[-16.457358,15.966992],[-16.457334,15.966353],[-16.457486,15.967296]]]}},{"type":"Feature","properties":{"categorie":"Steppe"},"geometry":{"type":"MultiPolygon","coordinates":[[[[-16.451415,16.015728],[-16.44996,16.015006],[-16.448591,16.015387],[-16.4478,16.015058],[-16.447308,16.011575],[-16.446863,16.010814],[-16.445858,16.009665],[-16.445458,16.008011],[-16.44407,16.004996],[-16.444212,16.004689],[-16.445274,16.004614],[-16.445542,16.004419],[-16.445484,16.003456],[-16.444978,16.001987],[-16.444868,16.001077],[-16.44495,16.000642],[-16.445477,15.999959],[-16.445055,15.9995],[-16.444188,15.999366],[-16.443545,15.999062],[-16.443236,15.998793],[-16.443116,15.998421],[-16.443601,15.99689],[-16.443381,15.994402],[-16.443533,15.993746],[-16.44404,15.993636],[-16.444369,15.993854],[-16.444697,15.994373],[-16.444877,15.995496],[-16.445342,15.996094],[-16.445742,15.996336],[-16.446392,15.995887],[-16.447406,15.99424],[-16.447136,15.993881],[-16.44548,15.993389],[-16.444878,15.992689],[-16.444586,15.991985],[-16.445622,15.991429],[-16.44534,15.99116],[-16.445426,15.990165],[-16.445289,15.990034],[-16.446067,15.989167],[-16.446269,15.988613],[-16.445955,15.987876],[-16.446051,15.98735],[-16.445764,15.986439],[-16.4458,15.985562],[-16.444977,15.982848],[-16.444589,15.979345],[-16.444042,15.978018],[-16.444011,15.977455],[-16.444401,15.976465],[-16.445878,15.976271],[-16.446011,15.975727],[-16.445868,15.974915],[-16.444735,15.973296],[-16.444436,15.971522],[-16.444206,15.971152],[-16.443815,15.971119],[-16.443068,15.971381],[-16.441571,15.972398],[-16.44145,15.971131],[-16.441674,15.969837],[-16.441675,15.968671],[-16.441497,15.968636],[-16.440462,15.968851],[-16.438843,15.969801],[-16.44005,15.971303],[-16.44022,15.972919],[-16.439631,15.974107],[-16.439568,15.97578],[-16.438613,15.977874],[-16.437909,15.977993],[-16.437723,15.977893],[-16.438075,15.975174],[-16.437787,15.974539],[-16.437172,15.973889],[-16.435969,15.973464],[-16.4332,15.973361],[-16.431924,15.972555],[-16.431164,15.972467],[-16.430548,15.971974],[-16.430085,15.97081],[-16.429391,15.970566],[-16.429211,15.970261],[-16.429205,15.969381],[-16.42936,15.96894],[-16.430128,15.96859],[-16.430344,15.968321],[-16.430342,15.968092],[-16.429945,15.967807],[-16.429764,15.967349],[-16.430235,15.966906],[-16.430581,15.965907],[-16.430294,15.965296],[-16.430565,15.964472],[-16.431561,15.962839],[-16.43319,15.960992],[-16.433488,15.960356],[-16.435244,15.960787],[-16.435943,15.961165],[-16.436236,15.961657],[-16.436563,15.963482],[-16.437304,15.964836],[-16.438457,15.965931],[-16.441033,15.967491],[-16.442684,15.967843],[-16.444463,15.967621],[-16.445521,15.967055],[-16.445964,15.965922],[-16.446095,15.965932],[-16.446102,15.967159],[-16.445552,15.968654],[-16.445647,15.968834],[-16.44602,15.968786],[-16.446115,15.968921],[-16.44645,15.970049],[-16.446732,15.970408],[-16.446965,15.970226],[-16.447059,15.970361],[-16.447157,15.970948],[-16.447438,15.971127],[-16.447441,15.971488],[-16.447957,15.971846],[-16.44801,15.972659],[-16.449415,15.973102],[-16.450959,15.973099],[-16.450634,15.973898],[-16.450767,15.974564],[-16.451445,15.975782],[-16.452695,15.977164],[-16.453227,15.978733],[-16.454238,15.979811],[-16.454319,15.980823],[-16.454653,15.981014],[-16.455345,15.981087],[-16.456499,15.980795],[-16.457042,15.981132],[-16.457511,15.981845],[-16.457906,15.984318],[-16.458243,15.984849],[-16.459177,15.984945],[-16.459745,15.984453],[-16.459642,15.983114],[-16.460001,15.981726],[-16.459925,15.980785],[-16.4594,15.980006],[-16.4586,15.979705],[-16.458285,15.979874],[-16.457802,15.98073],[-16.457578,15.980789],[-16.45663,15.979739],[-16.455709,15.979187],[-16.455236,15.978074],[-16.454993,15.975848],[-16.4565,15.97497],[-16.458398,15.976439],[-16.458722,15.977232],[-16.45942,15.978149],[-16.460188,15.978479],[-16.4607,15.97824],[-16.460968,15.977823],[-16.460191,15.9756],[-16.460324,15.975233],[-16.461001,15.974533],[-16.461275,15.973039],[-16.461643,15.972892],[-16.462112,15.973169],[-16.462881,15.974827],[-16.463191,15.975186],[-16.463687,15.975264],[-16.46357,15.97456],[-16.463669,15.974162],[-16.464185,15.974357],[-16.464752,15.975167],[-16.46424,15.975441],[-16.464058,15.976166],[-16.463269,15.976849],[-16.462997,15.978026],[-16.463236,15.978702],[-16.463849,15.979466],[-16.463757,15.979738],[-16.463199,15.980013],[-16.463482,15.980508],[-16.46339,15.980644],[-16.463952,15.980776],[-16.46386,15.981002],[-16.464337,15.9824],[-16.464154,15.982943],[-16.464342,15.983123],[-16.464067,15.983757],[-16.463649,15.984212],[-16.463607,15.9848],[-16.46488,15.986463],[-16.465084,15.986938],[-16.464219,15.988068],[-16.463522,15.988542],[-16.462292,15.98893],[-16.461226,15.988802],[-16.460994,15.989129],[-16.461395,15.994052],[-16.461113,15.996485],[-16.461382,15.998761],[-16.46134,16.001618],[-16.461004,16.001991],[-16.459793,16.002581],[-16.458624,16.003651],[-16.457953,16.005237],[-16.456999,16.006409],[-16.456236,16.00683],[-16.455189,16.006828],[-16.454711,16.006542],[-16.454474,16.006083],[-16.45455,16.004926],[-16.454258,16.003382],[-16.454199,16.001747],[-16.454464,16.000913],[-16.45528,16.000031],[-16.455006,15.998253],[-16.453936,15.996371],[-16.451683,15.99363],[-16.451434,15.992782],[-16.451782,15.990511],[-16.452527,15.990618],[-16.45324,15.990346],[-16.453618,15.989593],[-16.454091,15.987878],[-16.454407,15.98758],[-16.455172,15.987349],[-16.455388,15.98707],[-16.455519,15.984879],[-16.455305,15.983745],[-16.454967,15.98331],[-16.454654,15.983236],[-16.453279,15.984388],[-16.453216,15.983271],[-16.45207,15.983535],[-16.451715,15.982044],[-16.450456,15.980922],[-16.449603,15.979568],[-16.449004,15.979039],[-16.449024,15.978856],[-16.449537,15.978415],[-16.449863,15.977554],[-16.451178,15.977365],[-16.451297,15.976794],[-16.451141,15.976467],[-16.449326,15.976559],[-16.448738,15.976754],[-16.448068,15.97767],[-16.446482,15.978685],[-16.445634,15.980089],[-16.445649,15.98036],[-16.446074,15.980431],[-16.446946,15.979966],[-16.447538,15.979991],[-16.4484,15.980385],[-16.449097,15.980942],[-16.450088,15.98249],[-16.450991,15.985726],[-16.451566,15.986868],[-16.450262,15.986962],[-16.449479,15.988047],[-16.449844,15.985836],[-16.449505,15.985056],[-16.448769,15.984173],[-16.44848,15.983344],[-16.448023,15.982962],[-16.447471,15.982778],[-16.446902,15.982834],[-16.446456,15.98308],[-16.446372,15.983652],[-16.446777,15.985676],[-16.446787,15.987038],[-16.447089,15.988718],[-16.446816,15.989821],[-16.446084,15.990628],[-16.445988,15.990937],[-16.44683,15.991719],[-16.447023,15.992902],[-16.447253,15.993171],[-16.447856,15.993315],[-16.448575,15.993256],[-16.449082,15.99306],[-16.449425,15.992705],[-16.448876,15.995691],[-16.447849,15.997045],[-16.447296,15.998106],[-16.447253,15.998576],[-16.447609,16.000029],[-16.448537,16.00052],[-16.449243,16.00112],[-16.450186,16.002425],[-16.451083,16.004985],[-16.45201,16.006479],[-16.451986,16.00704],[-16.451449,16.00773],[-16.452645,16.008204],[-16.453158,16.009067],[-16.454301,16.010131],[-16.454635,16.010933],[-16.45463,16.011291],[-16.454136,16.012385],[-16.452242,16.015399],[-16.451415,16.015728]],[[-16.44568,15.966981],[-16.445681,15.967071],[-16.445727,15.967026],[-16.44568,15.966981]]],[[[-16.468346,15.914565],[-16.470172,15.919742],[-16.472482,15.924859],[-16.471899,15.92653],[-16.471948,15.926891],[-16.471506,15.927699],[-16.471583,15.928015],[-16.471333,15.928405],[-16.471327,15.928758],[-16.471737,15.93002],[-16.47239,15.931073],[-16.472487,15.931597],[-16.472433,15.934399],[-16.471517,15.935652],[-16.47174,15.937686],[-16.472272,15.93811],[-16.471391,15.939264],[-16.471542,15.940151],[-16.470947,15.940826],[-16.471136,15.94105],[-16.470952,15.941458],[-16.471046,15.941548],[-16.470537,15.942229],[-16.470212,15.942412],[-16.470867,15.942634],[-16.470965,15.943221],[-16.47195,15.943756],[-16.472135,15.943574],[-16.473277,15.943823],[-16.473543,15.944537],[-16.47298,15.94543],[-16.472491,15.947539],[-16.4717,15.949289],[-16.471906,15.950562],[-16.472949,15.953908],[-16.473,15.954585],[-16.472796,15.955349],[-16.472455,15.955412],[-16.471752,15.955055],[-16.468529,15.955077],[-16.466335,15.955273],[-16.465916,15.955456],[-16.466387,15.95595],[-16.465037,15.956547],[-16.464472,15.956008],[-16.464147,15.956191],[-16.464009,15.956554],[-16.463874,15.957233],[-16.463984,15.958415],[-16.463302,15.956911],[-16.463466,15.953783],[-16.463841,15.951439],[-16.463195,15.947313],[-16.463812,15.944842],[-16.463518,15.942991],[-16.463938,15.941669],[-16.463728,15.941038],[-16.462505,15.939175],[-16.462758,15.938631],[-16.463678,15.938028],[-16.463576,15.936773],[-16.463714,15.936446],[-16.464181,15.936434],[-16.465466,15.937257],[-16.465783,15.93843],[-16.465822,15.942533],[-16.466048,15.94404],[-16.466511,15.944733],[-16.467815,15.945474],[-16.468123,15.945499],[-16.46812,15.945084],[-16.467493,15.943597],[-16.467302,15.9418],[-16.466581,15.940277],[-16.466987,15.938295],[-16.466876,15.935819],[-16.466299,15.934901],[-16.464825,15.933773],[-16.464691,15.933385],[-16.464758,15.932318],[-16.46411,15.931907],[-16.463987,15.931636],[-16.464112,15.931058],[-16.464785,15.930584],[-16.465517,15.929216],[-16.466538,15.928671],[-16.466389,15.928445],[-16.467185,15.927519],[-16.467047,15.927256],[-16.466701,15.927295],[-16.464752,15.929376],[-16.46439,15.92961],[-16.464117,15.929379],[-16.46577,15.926941],[-16.466037,15.926074],[-16.46772,15.923035],[-16.46814,15.921684],[-16.468349,15.920074],[-16.468122,15.919705],[-16.467305,15.919033],[-16.467104,15.918356],[-16.467328,15.917081],[-16.468346,15.914565]],[[-16.470241,15.943293],[-16.470404,15.943179],[-16.470216,15.943045],[-16.470124,15.943136],[-16.470241,15.943293]],[[-16.470312,15.943406],[-16.470314,15.943587],[-16.470406,15.943496],[-16.470312,15.943406]]],[[[-16.471901,15.960196],[-16.471801,15.960705],[-16.471898,15.960161],[-16.471901,15.960196]]],[[[-16.468719,15.982433],[-16.468494,15.983072],[-16.46865,15.982311],[-16.468719,15.982433]]],[[[-16.468967,15.988198],[-16.46891,15.988063],[-16.468953,15.987709],[-16.468967,15.988198]]],[[[-16.464341,15.982987],[-16.464435,15.982987],[-16.464388,15.983032],[-16.464341,15.982987]]],[[[-16.466716,15.956264],[-16.466624,15.956446],[-16.466389,15.956312],[-16.466575,15.956175],[-16.466716,15.956264]]]]}},{"type":"Feature","properties":{"categorie":"Steppe"},"geometry":{"type":"Polygon","coordinates":[[[-16.333405,16.034169],[-16.333359,16.023413],[-16.32998,16.023266],[-16.330367,16.022533],[-16.33336,16.018664],[-16.335007,16.016195],[-16.335926,16.015223],[-16.336874,16.014557],[-16.337071,16.013281],[-16.338076,16.012525],[-16.33853,16.011989],[-16.34209,16.006408],[-16.344909,16.003137],[-16.3457,16.00258],[-16.345978,16.002181],[-16.346173,16.000634],[-16.346108,15.99927],[-16.345488,15.998822],[-16.344049,15.998831],[-16.343266,15.999116],[-16.343959,16.000702],[-16.343991,16.001407],[-16.343724,16.001698],[-16.343777,16.000965],[-16.343616,16.000682],[-16.341785,16.000907],[-16.341009,16.000475],[-16.340928,16.000269],[-16.341182,15.999807],[-16.341052,15.999308],[-16.339429,15.997373],[-16.338952,15.997382],[-16.338086,15.997726],[-16.337201,15.998557],[-16.345378,15.976631],[-16.356575,15.978239],[-16.356924,15.976713],[-16.358303,15.976657],[-16.359226,15.976083],[-16.359562,15.975453],[-16.359558,15.974915],[-16.359183,15.97435],[-16.358751,15.974293],[-16.357766,15.974956],[-16.357207,15.975575],[-16.359265,15.967313],[-16.361134,15.966964],[-16.36212,15.966527],[-16.363141,15.963986],[-16.359748,15.955654],[-16.352521,15.954667],[-16.353679,15.950158],[-16.354048,15.947561],[-16.355434,15.944583],[-16.356157,15.943528],[-16.357235,15.942929],[-16.358755,15.942818],[-16.362265,15.943351],[-16.364183,15.943985],[-16.365023,15.944049],[-16.365691,15.94356],[-16.366968,15.94141],[-16.367552,15.941103],[-16.368247,15.941056],[-16.369791,15.941518],[-16.377121,15.94513],[-16.3779,15.945381],[-16.378572,15.945403],[-16.379327,15.944882],[-16.380561,15.94233],[-16.381757,15.941067],[-16.382557,15.940502],[-16.383067,15.940353],[-16.383472,15.940429],[-16.385273,15.941848],[-16.385749,15.941901],[-16.385895,15.941357],[-16.385879,15.938867],[-16.386743,15.936828],[-16.390613,15.93712],[-16.392383,15.938205],[-16.393052,15.938386],[-16.393582,15.938197],[-16.394243,15.937672],[-16.395262,15.936212],[-16.395841,15.935988],[-16.396656,15.935924],[-16.397412,15.936038],[-16.397708,15.936303],[-16.396479,15.938445],[-16.396658,15.940348],[-16.397203,15.940303],[-16.398201,15.939794],[-16.400977,15.939167],[-16.401682,15.939198],[-16.402797,15.939621],[-16.40302,15.94016],[-16.404998,15.940101],[-16.406331,15.940309],[-16.40665,15.94055],[-16.407631,15.940589],[-16.407988,15.940984],[-16.407707,15.943453],[-16.407897,15.943976],[-16.408411,15.944045],[-16.408849,15.943816],[-16.409622,15.944488],[-16.410973,15.94458],[-16.412984,15.94528],[-16.412433,15.946016],[-16.411085,15.946929],[-16.410649,15.947402],[-16.410294,15.948751],[-16.410356,15.950947],[-16.410013,15.951247],[-16.408988,15.951679],[-16.408128,15.951648],[-16.407958,15.951405],[-16.408189,15.951033],[-16.408169,15.950753],[-16.407691,15.950566],[-16.404247,15.951023],[-16.401892,15.950902],[-16.401553,15.950534],[-16.401512,15.949974],[-16.401797,15.949367],[-16.402428,15.948748],[-16.402959,15.948455],[-16.40336,15.948453],[-16.403689,15.94874],[-16.404087,15.949523],[-16.404452,15.949648],[-16.404973,15.949337],[-16.405266,15.948494],[-16.405209,15.948242],[-16.405002,15.948126],[-16.403862,15.948025],[-16.402738,15.947661],[-16.40202,15.947802],[-16.400524,15.950279],[-16.39912,15.951192],[-16.398899,15.951672],[-16.399108,15.952168],[-16.399399,15.95241],[-16.400712,15.95185],[-16.401742,15.952142],[-16.402015,15.952438],[-16.402054,15.952727],[-16.401313,15.953681],[-16.401418,15.953951],[-16.401691,15.954176],[-16.40199,15.954183],[-16.402779,15.953491],[-16.403031,15.953525],[-16.404127,15.955181],[-16.404317,15.955731],[-16.404265,15.956301],[-16.403004,15.95903],[-16.401013,15.960254],[-16.399198,15.961106],[-16.397716,15.961631],[-16.396818,15.96151],[-16.396269,15.961839],[-16.394602,15.963947],[-16.393903,15.965542],[-16.393015,15.966822],[-16.392962,15.967229],[-16.393356,15.968198],[-16.390906,15.969809],[-16.388557,15.970701],[-16.388159,15.971128],[-16.387624,15.972207],[-16.38634,15.972975],[-16.383621,15.975868],[-16.382934,15.97558],[-16.381044,15.974014],[-16.379725,15.976318],[-16.378433,15.979819],[-16.377556,15.979593],[-16.377343,15.978401],[-16.376499,15.977964],[-16.375994,15.97794],[-16.375528,15.978115],[-16.374509,15.979432],[-16.374032,15.979372],[-16.373506,15.978887],[-16.373049,15.97908],[-16.372488,15.980339],[-16.370901,15.981922],[-16.370626,15.982656],[-16.370602,15.983289],[-16.370897,15.984055],[-16.371508,15.984594],[-16.37391,15.98466],[-16.37408,15.985038],[-16.373953,15.985527],[-16.373183,15.986373],[-16.370197,15.988353],[-16.369241,15.989299],[-16.369031,15.989951],[-16.369026,15.99062],[-16.369705,15.991483],[-16.369858,15.991997],[-16.369777,15.992432],[-16.369499,15.992804],[-16.366345,15.994849],[-16.36571,15.994826],[-16.364845,15.994108],[-16.364388,15.994183],[-16.364044,15.99452],[-16.363787,15.995181],[-16.363857,15.995796],[-16.36413,15.996119],[-16.365134,15.996718],[-16.36572,15.997772],[-16.365963,15.997752],[-16.365857,15.998693],[-16.363562,16.000615],[-16.36302,16.000591],[-16.361717,16.002669],[-16.359967,16.003765],[-16.359364,16.004401],[-16.358903,16.0052],[-16.358352,16.00673],[-16.358093,16.008531],[-16.357543,16.010116],[-16.356193,16.012212],[-16.354047,16.014115],[-16.350602,16.015971],[-16.349803,16.016627],[-16.349648,16.017152],[-16.349979,16.017738],[-16.349844,16.018606],[-16.350152,16.019833],[-16.347927,16.02114],[-16.347156,16.021904],[-16.346846,16.023036],[-16.347557,16.024477],[-16.347459,16.025228],[-16.347015,16.025891],[-16.345834,16.026757],[-16.345114,16.028072],[-16.343708,16.028903],[-16.340881,16.029581],[-16.339912,16.029975],[-16.337939,16.031352],[-16.33526,16.033655],[-16.334187,16.03306],[-16.333405,16.034169]],[[-16.369853,15.975069],[-16.372282,15.972937],[-16.374745,15.969565],[-16.370726,15.967312],[-16.369714,15.968353],[-16.368385,15.970418],[-16.366288,15.970997],[-16.365438,15.972217],[-16.365405,15.97283],[-16.365569,15.97325],[-16.368276,15.973951],[-16.369853,15.975069]],[[-16.360553,15.986996],[-16.3605,15.986384],[-16.360004,15.986174],[-16.359254,15.986543],[-16.35781,15.986482],[-16.355664,15.985954],[-16.355178,15.986004],[-16.355094,15.9863],[-16.356111,15.987053],[-16.356909,15.987957],[-16.356632,15.988343],[-16.356725,15.988767],[-16.357181,15.988829],[-16.358196,15.988894],[-16.358417,15.988133],[-16.359579,15.987209],[-16.360366,15.987275],[-16.360553,15.986996]],[[-16.350805,15.995066],[-16.351807,15.994884],[-16.35277,15.994429],[-16.355181,15.991953],[-16.355482,15.990907],[-16.355374,15.989166],[-16.355183,15.988575],[-16.354286,15.987857],[-16.353414,15.987734],[-16.352582,15.9886],[-16.352237,15.989648],[-16.351973,15.989984],[-16.35112,15.990403],[-16.35004,15.990533],[-16.349744,15.990261],[-16.349739,15.987969],[-16.34929,15.987215],[-16.348578,15.986787],[-16.347909,15.98663],[-16.347008,15.986741],[-16.346158,15.9871],[-16.345228,15.987862],[-16.345093,15.988542],[-16.345734,15.989495],[-16.34701,15.989974],[-16.347378,15.990303],[-16.347724,15.992879],[-16.348065,15.993785],[-16.348555,15.994443],[-16.349071,15.99482],[-16.350805,15.995066]],[[-16.37452,15.963208],[-16.372137,15.964516],[-16.371572,15.965161],[-16.371232,15.966067],[-16.371793,15.966109],[-16.372638,15.965389],[-16.373775,15.964993],[-16.375887,15.963678],[-16.375783,15.963462],[-16.375202,15.963204],[-16.37452,15.963208]],[[-16.369804,15.962172],[-16.370035,15.961791],[-16.37105,15.961206],[-16.371864,15.960116],[-16.372247,15.960014],[-16.372745,15.960535],[-16.373325,15.960549],[-16.37402,15.959804],[-16.374877,15.959419],[-16.375462,15.958882],[-16.374175,15.959233],[-16.373894,15.959027],[-16.373769,15.958486],[-16.373478,15.958379],[-16.372836,15.958781],[-16.371727,15.959114],[-16.369507,15.961071],[-16.368657,15.962414],[-16.36826,15.963194],[-16.368281,15.963438],[-16.368833,15.963597],[-16.369448,15.963349],[-16.369789,15.96266],[-16.369804,15.962172]],[[-16.377425,15.950861],[-16.378951,15.949857],[-16.379193,15.949856],[-16.379316,15.949964],[-16.379283,15.950696],[-16.379518,15.95083],[-16.379723,15.950756],[-16.380441,15.949278],[-16.381267,15.948487],[-16.381488,15.948006],[-16.38104,15.947991],[-16.378985,15.949496],[-16.376808,15.95082],[-16.375694,15.951722],[-16.375696,15.952129],[-16.376182,15.95208],[-16.376824,15.951724],[-16.377425,15.950861]],[[-16.377854,15.949313],[-16.378354,15.948641],[-16.378949,15.948276],[-16.379179,15.947777],[-16.378441,15.94771],[-16.377937,15.947848],[-16.376616,15.948688],[-16.376406,15.94935],[-16.376651,15.949592],[-16.3772,15.949326],[-16.377854,15.949313]]]}}]}