{"type":"FeatureCollection","name":"habitat-zape.geojson","features":[{"type":"Feature","properties":{"categorie":"Prairie aquatique"},"geometry":{"type":"Polygon","coordinates":[[[-16.483792,15.967888],[-16.483976,15.965907],[-16.48443,15.964096],[-16.48523,15.963344],[-16.486036,15.962916],[-16.486689,15.962958],[-16.486662,15.962459],[-16.487259,15.961271],[-16.487889,15.960739],[-16.488663,15.960508],[-16.488895,15.960003],[-16.48989,15.958799],[-16.489576,15.957231],[-16.488971,15.956361],[-16.489077,15.955978],[-16.489688,15.956461],[-16.490056,15.957956],[-16.490327,15.958086],[-16.490495,15.957756],[-16.490228,15.95717],[-16.490227,15.95668],[-16.490607,15.955662],[-16.490823,15.955647],[-16.490731,15.957148],[-16.491006,15.959008],[-16.492198,15.961185],[-16.491767,15.962329],[-16.491064,15.962388],[-16.490695,15.96172],[-16.490458,15.961707],[-16.490138,15.962613],[-16.489163,15.963179],[-16.487681,15.965299],[-16.487699,15.965555],[-16.485945,15.966806],[-16.485459,15.966782],[-16.485016,15.966343],[-16.48468,15.966381],[-16.484198,15.968149],[-16.483792,15.967888]]]}},{"type":"Feature","properties":{"categorie":"Prairie aquatique"},"geometry":{"type":"MultiPolygon","coordinates":[[[[-16.496122,15.974889],[-16.496122,15.974888],[-16.496125,15.974887],[-16.496122,15.974889]]],[[[-16.494277,15.976147],[-16.494408,15.975532],[-16.494641,15.97544],[-16.495,15.975654],[-16.494277,15.976147]]]]}},{"type":"Feature","properties":{"categorie":"Mangrove"},"geometry":{"type":"Polygon","coordinates":[[[-16.474744,15.932751],[-16.473762,15.937426],[-16.473136,15.937889],[-16.472272,15.93811],[-16.47174,15.937686],[-16.471517,15.935652],[-16.472433,15.934399],[-16.472487,15.931597],[-16.47239,15.931073],[-16.471737,15.93002],[-16.471356,15.928965],[-16.471333,15.928405],[-16.471583,15.928015],[-16.472061,15.928219],[-16.472172,15.929412],[-16.472561,15.930204],[-16.474728,15.931554],[-16.474574,15.932206],[-16.474744,15.932751]]]}},{"type":"Feature","properties":{"categorie":"Mangrove"},"geometry":{"type":"Polygon","coordinates":[[[-16.478343,15.948867],[-16.481663,15.948777],[-16.479926,15.949992],[-16.479157,15.949618],[-16.478343,15.948867]]]}},{"type":"Feature","properties":{"categorie":"Mangrove"},"geometry":{"type":"Polygon","coordinates":[[[-16.50129,15.957186],[-16.50158,15.95611],[-16.501565,15.955596],[-16.501012,15.953094],[-16.501093,15.950664],[-16.501405,15.950088],[-16.502364,15.949849],[-16.502618,15.949445],[-16.502575,15.948986],[-16.501136,15.947828],[-16.50133,15.947277],[-16.502692,15.947626],[-16.503067,15.948269],[-16.503719,15.953268],[-16.503592,15.953027],[-16.503109,15.953841],[-16.50289,15.954368],[-16.502786,15.955433],[-16.501915,15.957507],[-16.501678,15.95747],[-16.501343,15.957674],[-16.50129,15.957186]]]}},{"type":"Feature","properties":{"categorie":"Mangrove"},"geometry":{"type":"Polygon","coordinates":[[[-16.48364,15.948616],[-16.491637,15.948008],[-16.49176,15.949748],[-16.491011,15.950801],[-16.490811,15.951462],[-16.490895,15.955276],[-16.490227,15.95668],[-16.490228,15.95717],[-16.490493,15.957729],[-16.490381,15.958066],[-16.490072,15.95799],[-16.489706,15.956497],[-16.489293,15.956024],[-16.489077,15.955978],[-16.488801,15.956473],[-16.488386,15.956336],[-16.487721,15.955353],[-16.486244,15.9546],[-16.485745,15.953329],[-16.485189,15.95348],[-16.48472,15.953923],[-16.484436,15.955424],[-16.484129,15.956049],[-16.483755,15.9559],[-16.483147,15.955083],[-16.482569,15.953825],[-16.483097,15.953161],[-16.483807,15.952655],[-16.485125,15.952605],[-16.485742,15.952073],[-16.485617,15.951096],[-16.484391,15.949962],[-16.48364,15.948616]]]}},{"type":"Feature","properties":{"categorie":"Mangrove"},"geometry":{"type":"Polygon","coordinates":[[[-16.500425,15.947353],[-16.500616,15.947855],[-16.500893,15.947841],[-16.50137,15.948507],[-16.502285,15.949161],[-16.502435,15.949466],[-16.50216,15.949716],[-16.501283,15.95],[-16.500764,15.950718],[-16.500906,15.951872],[-16.500601,15.952843],[-16.500809,15.953817],[-16.500818,15.954875],[-16.501312,15.956115],[-16.501069,15.95666],[-16.50106,15.958007],[-16.501268,15.95821],[-16.50144,15.958818],[-16.500979,15.958898],[-16.500504,15.956265],[-16.500151,15.955624],[-16.50013,15.952869],[-16.5004,15.951968],[-16.500196,15.951051],[-16.500458,15.950624],[-16.500425,15.947353]]]}},{"type":"Feature","properties":{"categorie":"Mangrove"},"geometry":{"type":"Polygon","coordinates":[[[-16.498617,15.963609],[-16.499476,15.960365],[-16.50059,15.958519],[-16.500901,15.959045],[-16.501061,15.96055],[-16.499771,15.963261],[-16.499933,15.963403],[-16.50116,15.962579],[-16.501124,15.962778],[-16.500198,15.963869],[-16.499516,15.963883],[-16.498617,15.963609]]]}},{"type":"Feature","properties":{"categorie":"Mangrove"},"geometry":{"type":"Polygon","coordinates":[[[-16.502581,15.963081],[-16.502328,15.96428],[-16.502718,15.966518],[-16.503063,15.967118],[-16.502856,15.968618],[-16.502379,15.968888],[-16.501786,15.968935],[-16.501281,15.968781],[-16.500309,15.967877],[-16.499954,15.966293],[-16.500111,15.965561],[-16.501069,15.964742],[-16.502581,15.963081]]]}},{"type":"Feature","properties":{"categorie":"Mangrove"},"geometry":{"type":"Polygon","coordinates":[[[-16.472482,15.924859],[-16.475116,15.93069],[-16.47508,15.930887],[-16.474309,15.930427],[-16.473327,15.930199],[-16.472931,15.929705],[-16.472593,15.92817],[-16.472603,15.927041],[-16.472789,15.926886],[-16.472796,15.926596],[-16.4723,15.926509],[-16.471948,15.926891],[-16.471899,15.92653],[-16.472482,15.924859]]]}},{"type":"Feature","properties":{"categorie":"Mangrove"},"geometry":{"type":"Polygon","coordinates":[[[-16.477401,15.953583],[-16.476065,15.951042],[-16.475774,15.951136],[-16.475589,15.951402],[-16.475726,15.952072],[-16.47521,15.952279],[-16.474988,15.952213],[-16.474653,15.951475],[-16.474071,15.95076],[-16.474267,15.949907],[-16.473578,15.949183],[-16.473237,15.948452],[-16.472688,15.946408],[-16.473201,15.94504],[-16.47399,15.944348],[-16.473865,15.945072],[-16.474495,15.945673],[-16.4754,15.948089],[-16.476333,15.949239],[-16.477451,15.950036],[-16.479082,15.950865],[-16.479732,15.951033],[-16.479778,15.951297],[-16.480061,15.951409],[-16.481392,15.950984],[-16.481616,15.951097],[-16.481248,15.951473],[-16.480301,15.951867],[-16.479772,15.952261],[-16.479813,15.952435],[-16.480551,15.953539],[-16.481121,15.954999],[-16.481827,15.955607],[-16.482333,15.955612],[-16.483029,15.956181],[-16.483116,15.957233],[-16.482821,15.957407],[-16.482424,15.957314],[-16.482203,15.956837],[-16.48176,15.956704],[-16.481494,15.956384],[-16.481385,15.955791],[-16.480689,15.955279],[-16.479466,15.952954],[-16.47891,15.95269],[-16.478496,15.952826],[-16.479197,15.953988],[-16.47954,15.954923],[-16.479625,15.955833],[-16.479585,15.958205],[-16.479157,15.958439],[-16.478829,15.958305],[-16.478593,15.957991],[-16.477401,15.953583]]]}},{"type":"Feature","properties":{"categorie":"Mare"},"geometry":{"type":"Polygon","coordinates":[[[-16.376433,15.949123],[-16.376811,15.948506],[-16.377937,15.947848],[-16.378441,15.94771],[-16.379179,15.947777],[-16.378949,15.948276],[-16.378354,15.948641],[-16.377947,15.949285],[-16.3772,15.949326],[-16.376566,15.949583],[-16.376433,15.949123]]]}},{"type":"Feature","properties":{"categorie":"Mare"},"geometry":{"type":"Polygon","coordinates":[[[-16.376511,15.951057],[-16.38104,15.947991],[-16.381488,15.948006],[-16.381267,15.948487],[-16.380441,15.949278],[-16.379723,15.950756],[-16.379321,15.950759],[-16.379316,15.949964],[-16.378951,15.949857],[-16.377592,15.950707],[-16.376824,15.951724],[-16.376182,15.95208],[-16.375696,15.952129],[-16.375694,15.951722],[-16.376511,15.951057]]]}},{"type":"Feature","properties":{"categorie":"Mare"},"geometry":{"type":"Polygon","coordinates":[[[-16.369507,15.961071],[-16.371727,15.959114],[-16.372836,15.958781],[-16.373478,15.958379],[-16.373769,15.958486],[-16.373894,15.959027],[-16.374175,15.959233],[-16.375462,15.958882],[-16.374877,15.959419],[-16.37402,15.959804],[-16.373325,15.960549],[-16.372745,15.960535],[-16.372247,15.960014],[-16.371864,15.960116],[-16.37105,15.961206],[-16.369924,15.961918],[-16.369789,15.96266],[-16.369448,15.963349],[-16.368833,15.963597],[-16.368328,15.963483],[-16.368307,15.963094],[-16.369507,15.961071]]]}},{"type":"Feature","properties":{"categorie":"Mare"},"geometry":{"type":"Polygon","coordinates":[[[-16.474673,15.958599],[-16.47519,15.958389],[-16.475888,15.958597],[-16.475846,15.95947],[-16.474337,15.962501],[-16.47413,15.963669],[-16.47341,15.964579],[-16.472663,15.963408],[-16.472557,15.962958],[-16.472869,15.962955],[-16.473168,15.962744],[-16.473602,15.962072],[-16.473903,15.961296],[-16.473789,15.96037],[-16.473982,15.959445],[-16.474673,15.958599]]]}},{"type":"Feature","properties":{"categorie":"Mare"},"geometry":{"type":"Polygon","coordinates":[[[-16.475339,15.962372],[-16.475452,15.961928],[-16.475847,15.961613],[-16.476097,15.961678],[-16.476656,15.962238],[-16.476476,15.96237],[-16.47578,15.962231],[-16.47537,15.962386],[-16.475647,15.964103],[-16.475559,15.964486],[-16.475196,15.964752],[-16.474737,15.96456],[-16.474652,15.96437],[-16.475116,15.962579],[-16.475339,15.962372]]]}},{"type":"Feature","properties":{"categorie":"Mare"},"geometry":{"type":"Polygon","coordinates":[[[-16.37494,15.963142],[-16.375783,15.963462],[-16.37586,15.963742],[-16.374556,15.964392],[-16.373775,15.964993],[-16.372638,15.965389],[-16.371793,15.966109],[-16.371232,15.966067],[-16.371572,15.965161],[-16.372137,15.964516],[-16.374157,15.963355],[-16.37494,15.963142]]]}},{"type":"Feature","properties":{"categorie":"Mare"},"geometry":{"type":"Polygon","coordinates":[[[-16.474114,15.972046],[-16.473811,15.972034],[-16.472443,15.971167],[-16.472458,15.969862],[-16.472883,15.969191],[-16.473052,15.96919],[-16.473273,15.969487],[-16.473306,15.969947],[-16.473654,15.970426],[-16.474571,15.970072],[-16.475055,15.970206],[-16.475163,15.97118],[-16.475052,15.972233],[-16.474622,15.972442],[-16.474114,15.972046]]]}},{"type":"Feature","properties":{"categorie":"Mare"},"geometry":{"type":"Polygon","coordinates":[[[-16.477231,15.972291],[-16.476823,15.97234],[-16.476606,15.972157],[-16.476592,15.970497],[-16.477989,15.970317],[-16.478193,15.970604],[-16.478474,15.972586],[-16.478254,15.972957],[-16.477911,15.972571],[-16.477231,15.972291]]]}},{"type":"Feature","properties":{"categorie":"Mare"},"geometry":{"type":"Polygon","coordinates":[[[-16.35611,15.97679],[-16.357766,15.974956],[-16.358751,15.974293],[-16.359183,15.97435],[-16.359558,15.974915],[-16.359562,15.975453],[-16.359226,15.976083],[-16.358303,15.976657],[-16.356924,15.976713],[-16.355961,15.977568],[-16.355498,15.977631],[-16.355433,15.977273],[-16.35611,15.97679]]]}},{"type":"Feature","properties":{"categorie":"Mare"},"geometry":{"type":"Polygon","coordinates":[[[-16.42964,15.98751],[-16.430247,15.987472],[-16.4305,15.987873],[-16.4306,15.988995],[-16.431051,15.990097],[-16.431152,15.991054],[-16.430319,15.99319],[-16.429795,15.993497],[-16.429748,15.993729],[-16.429241,15.993843],[-16.42897,15.99364],[-16.42932,15.992143],[-16.429072,15.991247],[-16.429137,15.989567],[-16.429376,15.988033],[-16.42964,15.98751]]]}},{"type":"Feature","properties":{"categorie":"Mare"},"geometry":{"type":"Polygon","coordinates":[[[-16.450294,15.987305],[-16.451229,15.987836],[-16.451438,15.989266],[-16.451372,15.991065],[-16.450752,15.992771],[-16.45072,15.993881],[-16.450464,15.993998],[-16.450265,15.993865],[-16.450222,15.993387],[-16.450492,15.992371],[-16.450579,15.990745],[-16.450294,15.987305]]]}},{"type":"Feature","properties":{"categorie":"Mare"},"geometry":{"type":"Polygon","coordinates":[[[-16.424633,15.910692],[-16.42472,15.912242],[-16.424113,15.91305],[-16.424178,15.913891],[-16.422456,15.91637],[-16.421851,15.917503],[-16.420692,15.918639],[-16.420011,15.920223],[-16.419757,15.919898],[-16.419876,15.919404],[-16.421336,15.916238],[-16.422684,15.914603],[-16.422842,15.912474],[-16.423283,15.911873],[-16.423946,15.91139],[-16.424385,15.91055],[-16.424633,15.910692]]]}},{"type":"Feature","properties":{"categorie":"Mare"},"geometry":{"type":"Polygon","coordinates":[[[-16.440523,15.879525],[-16.440062,15.879955],[-16.439286,15.881217],[-16.439451,15.88211],[-16.439159,15.883097],[-16.43939,15.884063],[-16.438795,15.884853],[-16.438023,15.884466],[-16.437804,15.884199],[-16.437781,15.88374],[-16.438417,15.882433],[-16.438374,15.881684],[-16.437895,15.881289],[-16.437713,15.880567],[-16.4373,15.880326],[-16.436768,15.880302],[-16.436682,15.880077],[-16.437107,15.879414],[-16.438921,15.877787],[-16.440523,15.879525]]]}},{"type":"Feature","properties":{"categorie":"Mare"},"geometry":{"type":"Polygon","coordinates":[[[-16.44355,15.882808],[-16.443035,15.884301],[-16.442192,15.885082],[-16.441906,15.885876],[-16.441783,15.885299],[-16.442079,15.883905],[-16.441629,15.883471],[-16.442345,15.881501],[-16.44355,15.882808]]]}},{"type":"Feature","properties":{"categorie":"Mare"},"geometry":{"type":"Polygon","coordinates":[[[-16.413181,15.933143],[-16.414287,15.932179],[-16.414591,15.931519],[-16.41533,15.931216],[-16.416312,15.930193],[-16.416745,15.93025],[-16.416751,15.931503],[-16.415216,15.932472],[-16.415037,15.933489],[-16.414574,15.934064],[-16.413485,15.934119],[-16.413181,15.933143]]]}},{"type":"Feature","properties":{"categorie":"Mare"},"geometry":{"type":"Polygon","coordinates":[[[-16.40829,15.94041],[-16.407066,15.940264],[-16.406891,15.940024],[-16.407129,15.939186],[-16.407451,15.938838],[-16.409354,15.93877],[-16.40945,15.938929],[-16.40916,15.939915],[-16.409431,15.940226],[-16.409899,15.94033],[-16.410846,15.938775],[-16.411169,15.938506],[-16.411421,15.938579],[-16.411186,15.939397],[-16.410458,15.940132],[-16.410459,15.940349],[-16.409288,15.941165],[-16.408964,15.941574],[-16.409015,15.943553],[-16.408719,15.943926],[-16.408419,15.944043],[-16.407936,15.942922],[-16.407993,15.942324],[-16.40865,15.940683],[-16.40829,15.94041]]]}},{"type":"Feature","properties":{"categorie":"Mare"},"geometry":{"type":"Polygon","coordinates":[[[-16.429856,15.948875],[-16.430367,15.948655],[-16.430365,15.949364],[-16.429922,15.949375],[-16.429856,15.948875]]]}},{"type":"Feature","properties":{"categorie":"Mare"},"geometry":{"type":"Polygon","coordinates":[[[-16.426785,15.950522],[-16.426948,15.950518],[-16.428268,15.947893],[-16.429081,15.946982],[-16.429282,15.946981],[-16.429089,15.946517],[-16.42918,15.946168],[-16.429559,15.945793],[-16.429818,15.945788],[-16.429952,15.946007],[-16.42975,15.946371],[-16.430024,15.947057],[-16.429164,15.948074],[-16.42865,15.949609],[-16.427744,15.950475],[-16.427075,15.950679],[-16.426785,15.950522]]]}},{"type":"Feature","properties":{"categorie":"Mare"},"geometry":{"type":"Polygon","coordinates":[[[-16.465438,15.907763],[-16.467872,15.913218],[-16.466562,15.918144],[-16.466493,15.918885],[-16.467099,15.920579],[-16.467095,15.923544],[-16.466415,15.925103],[-16.465582,15.926089],[-16.465487,15.926626],[-16.464776,15.926699],[-16.463751,15.927184],[-16.463419,15.92776],[-16.463998,15.928502],[-16.463685,15.928983],[-16.463633,15.930035],[-16.461776,15.930201],[-16.461654,15.929723],[-16.462005,15.92909],[-16.462093,15.927597],[-16.462978,15.926902],[-16.462976,15.926615],[-16.462716,15.926254],[-16.46131,15.925842],[-16.46052,15.926001],[-16.459811,15.926445],[-16.459145,15.927215],[-16.457423,15.926978],[-16.457228,15.927305],[-16.457533,15.928489],[-16.457284,15.929676],[-16.457607,15.930497],[-16.458742,15.931637],[-16.459084,15.932476],[-16.459878,15.932911],[-16.461639,15.933052],[-16.461874,15.932859],[-16.461337,15.932308],[-16.461413,15.931887],[-16.461746,15.93154],[-16.462102,15.931538],[-16.462326,15.932474],[-16.462803,15.932738],[-16.463792,15.932865],[-16.464091,15.933189],[-16.464314,15.933933],[-16.464674,15.934466],[-16.466204,15.935585],[-16.466525,15.936137],[-16.466414,15.937267],[-16.466602,15.938566],[-16.466367,15.938893],[-16.466244,15.941037],[-16.466806,15.942181],[-16.46675,15.942678],[-16.466956,15.943729],[-16.467455,15.944357],[-16.467617,15.94493],[-16.46739,15.945189],[-16.466736,15.944867],[-16.466304,15.944536],[-16.466048,15.94404],[-16.465822,15.942533],[-16.465817,15.939234],[-16.465665,15.937671],[-16.465466,15.937257],[-16.464407,15.936571],[-16.464864,15.935642],[-16.464521,15.935196],[-16.463901,15.934961],[-16.463191,15.934965],[-16.462729,15.935148],[-16.462626,15.937958],[-16.461955,15.939218],[-16.463424,15.94151],[-16.462906,15.94256],[-16.462818,15.943158],[-16.462954,15.944831],[-16.462563,15.946328],[-16.462818,15.947433],[-16.462898,15.950003],[-16.463366,15.950538],[-16.463432,15.951225],[-16.463017,15.953559],[-16.462914,15.956429],[-16.462548,15.957119],[-16.460019,15.957644],[-16.459684,15.958304],[-16.460313,15.959854],[-16.45896,15.96073],[-16.45881,15.961419],[-16.459,15.961986],[-16.459747,15.962847],[-16.460338,15.963352],[-16.461236,15.963644],[-16.462255,15.963518],[-16.462963,15.963214],[-16.463604,15.962104],[-16.463913,15.962042],[-16.464254,15.962219],[-16.464319,15.962667],[-16.464049,15.963775],[-16.463183,15.963721],[-16.462289,15.964026],[-16.461551,15.964479],[-16.461247,15.965169],[-16.460818,15.96559],[-16.460478,15.965563],[-16.459886,15.964969],[-16.458713,15.965126],[-16.458831,15.966334],[-16.457007,15.96549],[-16.456224,15.962526],[-16.455997,15.960901],[-16.456116,15.959255],[-16.456712,15.956368],[-16.456822,15.954822],[-16.456733,15.947701],[-16.456271,15.943194],[-16.456283,15.940925],[-16.456536,15.939776],[-16.457416,15.937546],[-16.457581,15.935092],[-16.457516,15.934638],[-16.457144,15.934485],[-16.456526,15.93449],[-16.456231,15.934659],[-16.455637,15.934555],[-16.455549,15.934341],[-16.455719,15.934017],[-16.456187,15.933798],[-16.456207,15.9336],[-16.456771,15.933556],[-16.457469,15.933163],[-16.45808,15.932417],[-16.458263,15.931919],[-16.45798,15.931478],[-16.456334,15.929998],[-16.455721,15.929153],[-16.455661,15.928511],[-16.456018,15.927632],[-16.45587,15.926422],[-16.456274,15.925552],[-16.457662,15.923708],[-16.457937,15.922992],[-16.45796,15.922214],[-16.4575,15.920672],[-16.457466,15.919787],[-16.45785,15.918618],[-16.459324,15.915815],[-16.459671,15.913517],[-16.46047,15.911533],[-16.460539,15.9108],[-16.460285,15.909265],[-16.46073,15.908838],[-16.460205,15.908507],[-16.460239,15.908109],[-16.460572,15.907655],[-16.46153,15.90707],[-16.462774,15.906004],[-16.463463,15.905773],[-16.464475,15.906155],[-16.464961,15.907168],[-16.465438,15.907763]]]}},{"type":"Feature","properties":{"categorie":"Mare"},"geometry":{"type":"Polygon","coordinates":[[[-16.421491,15.965197],[-16.421862,15.964654],[-16.422531,15.964276],[-16.423018,15.965032],[-16.423806,15.965183],[-16.423807,15.965355],[-16.422503,15.966641],[-16.422142,15.96757],[-16.42227,15.968128],[-16.421733,15.968599],[-16.420828,15.968103],[-16.420591,15.967786],[-16.420826,15.967473],[-16.421769,15.966997],[-16.422072,15.96664],[-16.422015,15.966067],[-16.421145,15.965399],[-16.421491,15.965197]]]}},{"type":"Feature","properties":{"categorie":"Mare"},"geometry":{"type":"Polygon","coordinates":[[[-16.418121,15.971451],[-16.418696,15.971642],[-16.41845,15.972436],[-16.417417,15.97336],[-16.41668,15.973704],[-16.416603,15.973141],[-16.416929,15.972366],[-16.417556,15.971576],[-16.418121,15.971451]]]}},{"type":"Feature","properties":{"categorie":"Plaine inondable"},"geometry":{"type":"Polygon","coordinates":[[[-16.49398,15.961614],[-16.494432,15.960053],[-16.494369,15.959368],[-16.492821,15.956895],[-16.492604,15.956128],[-16.492817,15.955368],[-16.492761,15.954568],[-16.493226,15.953907],[-16.493407,15.952226],[-16.493788,15.95136],[-16.494248,15.951215],[-16.49448,15.951278],[-16.494585,15.951503],[-16.494944,15.955496],[-16.494567,15.957238],[-16.49521,15.957585],[-16.495649,15.957369],[-16.495696,15.957727],[-16.495434,15.958461],[-16.495509,15.958574],[-16.495919,15.958349],[-16.496258,15.958593],[-16.496487,15.960458],[-16.496317,15.960825],[-16.495928,15.961097],[-16.49398,15.961614]]]}},{"type":"Feature","properties":{"categorie":"Plaine inondable"},"geometry":{"type":"Polygon","coordinates":[[[-16.496407,15.947738],[-16.497496,15.948551],[-16.497789,15.949037],[-16.497842,15.949868],[-16.498604,15.95055],[-16.498586,15.95186],[-16.49884,15.953449],[-16.498541,15.957121],[-16.49781,15.958084],[-16.497628,15.9587],[-16.497908,15.960035],[-16.497597,15.960833],[-16.496646,15.962331],[-16.496512,15.963226],[-16.496088,15.962789],[-16.495998,15.962263],[-16.497281,15.960826],[-16.497515,15.960359],[-16.497563,15.959646],[-16.497062,15.957987],[-16.498279,15.956643],[-16.498502,15.953356],[-16.498157,15.952549],[-16.498117,15.951301],[-16.49825,15.950845],[-16.497588,15.949686],[-16.496871,15.949026],[-16.496616,15.947999],[-16.496407,15.947738]]]}},{"type":"Feature","properties":{"categorie":"Plaine inondable"},"geometry":{"type":"MultiPolygon","coordinates":[[[[-16.501913,15.945831],[-16.503328,15.945756],[-16.503395,15.947132],[-16.504089,15.94901],[-16.504314,15.953429],[-16.504025,15.954508],[-16.504061,15.953205],[-16.503966,15.953115],[-16.503831,15.953749],[-16.503642,15.953434],[-16.503616,15.952211],[-16.503067,15.948269],[-16.502692,15.947626],[-16.501874,15.947321],[-16.50133,15.947277],[-16.501186,15.947498],[-16.501012,15.947112],[-16.50103,15.946421],[-16.501827,15.946354],[-16.501913,15.945831]],[[-16.503855,15.950766],[-16.503896,15.949952],[-16.503797,15.94914],[-16.503518,15.949322],[-16.503427,15.949639],[-16.503663,15.950044],[-16.503755,15.949773],[-16.503712,15.95036],[-16.503855,15.950766]],[[-16.504011,15.952799],[-16.504104,15.952798],[-16.504057,15.952753],[-16.504011,15.952799]]],[[[-16.500232,15.968442],[-16.500309,15.967877],[-16.501281,15.968781],[-16.501786,15.968935],[-16.502379,15.968888],[-16.502856,15.968618],[-16.503063,15.967118],[-16.502718,15.966518],[-16.50244,15.965157],[-16.502328,15.96428],[-16.502585,15.963159],[-16.502377,15.960891],[-16.501872,15.959404],[-16.502398,15.958314],[-16.502191,15.95705],[-16.502786,15.955433],[-16.503193,15.955922],[-16.503736,15.955587],[-16.502815,15.958032],[-16.502633,15.959407],[-16.502637,15.961516],[-16.503082,15.966054],[-16.503584,15.968265],[-16.50474,15.970868],[-16.504979,15.972994],[-16.504614,15.97381],[-16.503407,15.974484],[-16.502027,15.974883],[-16.502986,15.97324],[-16.50346,15.972921],[-16.503589,15.972334],[-16.50346,15.971574],[-16.502903,15.970864],[-16.50112,15.969792],[-16.500232,15.968442]],[[-16.504524,15.971458],[-16.504615,15.971231],[-16.504567,15.971006],[-16.504429,15.971323],[-16.504524,15.971458]]],[[[-16.50289,15.954368],[-16.503198,15.953763],[-16.502894,15.954827],[-16.50289,15.954368]]]]}},{"type":"Feature","properties":{"categorie":"Plaine inondable"},"geometry":{"type":"MultiPolygon","coordinates":[[[[-16.44355,15.882808],[-16.44593,15.88539],[-16.448577,15.887435],[-16.447079,15.888386],[-16.446626,15.889094],[-16.446415,15.890921],[-16.446581,15.891851],[-16.447111,15.892923],[-16.447627,15.893254],[-16.448067,15.893332],[-16.449176,15.893081],[-16.452369,15.892906],[-16.453405,15.891382],[-16.453676,15.891685],[-16.452747,15.893236],[-16.452831,15.894039],[-16.45319,15.894458],[-16.45406,15.89449],[-16.457439,15.895895],[-16.458536,15.897122],[-16.457644,15.896576],[-16.456139,15.896324],[-16.454094,15.895136],[-16.452553,15.895074],[-16.452271,15.894822],[-16.44897,15.895513],[-16.447712,15.895919],[-16.446296,15.897746],[-16.444709,15.89913],[-16.442228,15.900864],[-16.440292,15.901844],[-16.43934,15.903233],[-16.437913,15.903514],[-16.43742,15.90386],[-16.435795,15.906519],[-16.435183,15.909641],[-16.434447,15.911264],[-16.433487,15.912816],[-16.432864,15.913254],[-16.430001,15.913906],[-16.429126,15.914336],[-16.429712,15.915227],[-16.429661,15.916014],[-16.427864,15.918186],[-16.427381,15.919879],[-16.426362,15.922353],[-16.426308,15.923999],[-16.425144,15.925805],[-16.425158,15.926401],[-16.425557,15.927384],[-16.425743,15.928675],[-16.425958,15.929164],[-16.424094,15.930148],[-16.424796,15.931626],[-16.424908,15.933491],[-16.424325,15.934834],[-16.42364,15.935938],[-16.421974,15.938006],[-16.421049,15.94002],[-16.421362,15.942266],[-16.421811,15.942885],[-16.425078,15.943533],[-16.42844,15.943606],[-16.430461,15.942732],[-16.431302,15.942918],[-16.433956,15.947683],[-16.434914,15.950259],[-16.434971,15.951454],[-16.433542,15.95199],[-16.433447,15.952587],[-16.432648,15.952652],[-16.43161,15.953726],[-16.431246,15.953782],[-16.431029,15.953549],[-16.430969,15.952908],[-16.430182,15.952705],[-16.429909,15.952363],[-16.429895,15.951667],[-16.430424,15.948868],[-16.430316,15.948625],[-16.429686,15.948569],[-16.42762,15.950968],[-16.427366,15.951991],[-16.426684,15.953325],[-16.426537,15.955034],[-16.426316,15.955532],[-16.424938,15.957421],[-16.424351,15.957714],[-16.423594,15.957674],[-16.423275,15.957478],[-16.423157,15.956656],[-16.423647,15.955839],[-16.425361,15.95383],[-16.425646,15.953241],[-16.425607,15.952925],[-16.42525,15.952656],[-16.424764,15.952678],[-16.424075,15.952971],[-16.423341,15.953627],[-16.422583,15.954689],[-16.42205,15.95594],[-16.421931,15.957667],[-16.420832,15.958072],[-16.420435,15.958716],[-16.419806,15.960935],[-16.419854,15.962471],[-16.418667,15.963789],[-16.418068,15.964878],[-16.417602,15.96639],[-16.417447,15.96828],[-16.416909,15.96879],[-16.415083,15.96957],[-16.414535,15.970026],[-16.414295,15.970515],[-16.414028,15.972397],[-16.412315,15.973249],[-16.411458,15.974863],[-16.410975,15.976593],[-16.411041,15.976728],[-16.411387,15.976735],[-16.413145,15.975666],[-16.413916,15.974956],[-16.414807,15.972844],[-16.416672,15.971006],[-16.417424,15.969058],[-16.418265,15.967669],[-16.419562,15.966115],[-16.423578,15.961995],[-16.425394,15.958584],[-16.426025,15.957965],[-16.42664,15.95769],[-16.427209,15.957623],[-16.430855,15.957961],[-16.431466,15.958436],[-16.431798,15.959238],[-16.432857,15.959664],[-16.433488,15.960356],[-16.43319,15.960992],[-16.431561,15.962839],[-16.430565,15.964472],[-16.430294,15.965296],[-16.430581,15.965907],[-16.430235,15.966906],[-16.429764,15.967349],[-16.429945,15.967807],[-16.430342,15.968092],[-16.430344,15.968321],[-16.430128,15.96859],[-16.42936,15.96894],[-16.429205,15.969381],[-16.429211,15.970261],[-16.429391,15.970566],[-16.430085,15.97081],[-16.430548,15.971974],[-16.431164,15.972467],[-16.432049,15.972622],[-16.431161,15.976025],[-16.429946,15.977621],[-16.429539,15.978714],[-16.427398,15.980335],[-16.426149,15.982105],[-16.425081,15.982953],[-16.423909,15.984994],[-16.42179,15.987882],[-16.419754,15.989459],[-16.419407,15.990591],[-16.418152,15.992724],[-16.413319,15.997772],[-16.413438,15.996135],[-16.413751,15.99541],[-16.412816,15.995317],[-16.412252,15.994886],[-16.411595,15.99311],[-16.41155,15.991963],[-16.411244,15.991713],[-16.4124,15.989689],[-16.41056,15.988075],[-16.40932,15.987557],[-16.410982,15.98482],[-16.412734,15.980934],[-16.41396,15.979444],[-16.41311,15.978158],[-16.413892,15.976814],[-16.412703,15.976534],[-16.41113,15.977693],[-16.409355,15.978422],[-16.408558,15.977662],[-16.407997,15.975131],[-16.406659,15.974757],[-16.405473,15.974717],[-16.404482,15.974436],[-16.403295,15.974348],[-16.402359,15.974833],[-16.401578,15.97632],[-16.400744,15.977282],[-16.399484,15.980925],[-16.398197,15.980695],[-16.394629,15.979474],[-16.394428,15.979045],[-16.396332,15.975589],[-16.397315,15.974722],[-16.395623,15.973107],[-16.390417,15.978114],[-16.389283,15.978648],[-16.388379,15.976549],[-16.387339,15.976317],[-16.385865,15.977713],[-16.383621,15.975868],[-16.38634,15.972975],[-16.387624,15.972207],[-16.388159,15.971128],[-16.388557,15.970701],[-16.390906,15.969809],[-16.393356,15.968198],[-16.392962,15.967229],[-16.393015,15.966822],[-16.393903,15.965542],[-16.394602,15.963947],[-16.396269,15.961839],[-16.396818,15.96151],[-16.397716,15.961631],[-16.399198,15.961106],[-16.402028,15.959696],[-16.403125,15.958875],[-16.404265,15.956301],[-16.404317,15.955731],[-16.404127,15.955181],[-16.403031,15.953525],[-16.402779,15.953491],[-16.40199,15.954183],[-16.401691,15.954176],[-16.401418,15.953951],[-16.401313,15.953681],[-16.402054,15.952727],[-16.402015,15.952438],[-16.401742,15.952142],[-16.400712,15.95185],[-16.399399,15.95241],[-16.399108,15.952168],[-16.398899,15.951672],[-16.39912,15.951192],[-16.400524,15.950279],[-16.401862,15.947938],[-16.402169,15.94771],[-16.402738,15.947661],[-16.403862,15.948025],[-16.405002,15.948126],[-16.405209,15.948242],[-16.405266,15.948494],[-16.404973,15.949337],[-16.404452,15.949648],[-16.404087,15.949523],[-16.403689,15.94874],[-16.40336,15.948453],[-16.402959,15.948455],[-16.402428,15.948748],[-16.401797,15.949367],[-16.401512,15.949974],[-16.401553,15.950534],[-16.401892,15.950902],[-16.404247,15.951023],[-16.407691,15.950566],[-16.408169,15.950753],[-16.408189,15.951033],[-16.407958,15.951405],[-16.408044,15.951567],[-16.408559,15.951745],[-16.409473,15.951513],[-16.41031,15.951019],[-16.410418,15.950485],[-16.410294,15.948751],[-16.410455,15.947801],[-16.410927,15.947066],[-16.412433,15.946016],[-16.41285,15.945562],[-16.413079,15.944864],[-16.413061,15.943753],[-16.413787,15.941904],[-16.413716,15.941163],[-16.412982,15.9404],[-16.412904,15.939912],[-16.413963,15.93911],[-16.414039,15.937998],[-16.414457,15.937607],[-16.415074,15.937738],[-16.416147,15.93878],[-16.416481,15.938737],[-16.417008,15.937707],[-16.416762,15.937329],[-16.417037,15.936568],[-16.418273,15.935656],[-16.419513,15.934021],[-16.42049,15.933364],[-16.420392,15.931503],[-16.421181,15.929356],[-16.421297,15.928596],[-16.421135,15.928118],[-16.420779,15.927985],[-16.420387,15.928051],[-16.419673,15.928869],[-16.419533,15.928861],[-16.419399,15.928446],[-16.419662,15.927269],[-16.419567,15.92708],[-16.419221,15.927001],[-16.418831,15.927302],[-16.418267,15.928164],[-16.417143,15.928949],[-16.416839,15.929565],[-16.417706,15.929306],[-16.418145,15.929376],[-16.418344,15.929745],[-16.418237,15.930496],[-16.417138,15.931],[-16.416999,15.931137],[-16.41675,15.931518],[-16.416611,15.931673],[-16.415532,15.932439],[-16.415276,15.933227],[-16.415481,15.934437],[-16.41538,15.934726],[-16.415156,15.934773],[-16.413966,15.934139],[-16.41337,15.934423],[-16.412927,15.935258],[-16.412815,15.936497],[-16.412278,15.937232],[-16.412368,15.938145],[-16.410562,15.940271],[-16.410459,15.940349],[-16.410458,15.940132],[-16.411233,15.9393],[-16.411425,15.93864],[-16.411343,15.9385],[-16.410846,15.938775],[-16.409899,15.94033],[-16.409431,15.940226],[-16.40916,15.939915],[-16.40945,15.938929],[-16.409354,15.93877],[-16.407632,15.938787],[-16.407217,15.939043],[-16.406903,15.939883],[-16.406974,15.940208],[-16.40829,15.94041],[-16.40865,15.940683],[-16.407993,15.942324],[-16.407936,15.942922],[-16.408419,15.944043],[-16.407991,15.944039],[-16.407746,15.943733],[-16.407969,15.940894],[-16.407631,15.940589],[-16.406472,15.94047],[-16.406273,15.940137],[-16.406336,15.939739],[-16.407288,15.938277],[-16.409286,15.93821],[-16.40981,15.938369],[-16.409933,15.938549],[-16.409591,15.939121],[-16.409485,15.939962],[-16.409635,15.940033],[-16.40997,15.939796],[-16.411259,15.937149],[-16.411015,15.936951],[-16.410099,15.936894],[-16.408886,15.93711],[-16.408529,15.936724],[-16.408618,15.936181],[-16.408934,15.935971],[-16.409841,15.936055],[-16.412015,15.935734],[-16.412093,15.934784],[-16.412955,15.933947],[-16.412482,15.933046],[-16.412532,15.932214],[-16.414622,15.929191],[-16.415485,15.928399],[-16.416965,15.927612],[-16.419697,15.925533],[-16.421494,15.924708],[-16.422205,15.923601],[-16.422873,15.922964],[-16.42289,15.922674],[-16.4224,15.922072],[-16.422208,15.921396],[-16.422528,15.919016],[-16.423976,15.916521],[-16.424249,15.915471],[-16.423883,15.91523],[-16.424694,15.912988],[-16.425311,15.912166],[-16.425066,15.911049],[-16.425636,15.909854],[-16.42553,15.90951],[-16.426485,15.907676],[-16.426977,15.907386],[-16.427666,15.906568],[-16.428102,15.906923],[-16.428708,15.906774],[-16.429238,15.906328],[-16.430483,15.904178],[-16.430726,15.90282],[-16.430595,15.901492],[-16.430039,15.900827],[-16.428936,15.90069],[-16.428734,15.899842],[-16.429812,15.896346],[-16.4303,15.89543],[-16.430616,15.893927],[-16.431654,15.8928],[-16.43305,15.892113],[-16.433606,15.89144],[-16.433638,15.890636],[-16.432678,15.888392],[-16.433336,15.887592],[-16.43359,15.886506],[-16.43406,15.885707],[-16.434175,15.884821],[-16.43454,15.88489],[-16.434833,15.885359],[-16.434744,15.887311],[-16.434895,15.888053],[-16.435023,15.888028],[-16.435473,15.887388],[-16.436469,15.886993],[-16.436896,15.886574],[-16.437209,15.885903],[-16.437233,15.884005],[-16.438206,15.882789],[-16.437781,15.88374],[-16.437804,15.884199],[-16.438023,15.884466],[-16.438795,15.884853],[-16.437764,15.886422],[-16.439491,15.887768],[-16.440108,15.886946],[-16.44041,15.885565],[-16.441629,15.883471],[-16.442079,15.883905],[-16.441783,15.885299],[-16.441912,15.885877],[-16.442192,15.885082],[-16.443035,15.884301],[-16.44355,15.882808]],[[-16.417995,15.971456],[-16.417556,15.971576],[-16.416929,15.972366],[-16.416603,15.973141],[-16.41668,15.973704],[-16.417417,15.97336],[-16.418494,15.972366],[-16.418696,15.971642],[-16.417995,15.971456]],[[-16.423405,15.965186],[-16.422873,15.964899],[-16.422478,15.964278],[-16.421862,15.964654],[-16.421515,15.965175],[-16.421145,15.965399],[-16.421975,15.966017],[-16.422095,15.966555],[-16.421769,15.966997],[-16.420642,15.967656],[-16.42078,15.968063],[-16.421657,15.968588],[-16.422078,15.968399],[-16.422283,15.968077],[-16.422119,15.967881],[-16.422142,15.96757],[-16.422462,15.96671],[-16.423807,15.965355],[-16.423806,15.965183],[-16.423405,15.965186]],[[-16.428918,15.949056],[-16.429363,15.94772],[-16.430024,15.947057],[-16.429741,15.946305],[-16.429954,15.945968],[-16.429761,15.945755],[-16.429133,15.946245],[-16.429101,15.946604],[-16.429282,15.946981],[-16.429081,15.946982],[-16.428268,15.947893],[-16.426813,15.950598],[-16.42719,15.950671],[-16.427672,15.950508],[-16.428402,15.949911],[-16.428918,15.949056]],[[-16.432788,15.898532],[-16.433994,15.897412],[-16.434309,15.895819],[-16.434643,15.895491],[-16.435055,15.895624],[-16.435386,15.896155],[-16.435863,15.896351],[-16.435786,15.897264],[-16.436601,15.898967],[-16.436967,15.899145],[-16.437329,15.898845],[-16.438064,15.895866],[-16.438978,15.894396],[-16.439444,15.892866],[-16.438967,15.891504],[-16.437933,15.89321],[-16.43756,15.89324],[-16.437146,15.892781],[-16.437034,15.891535],[-16.438182,15.88887],[-16.437936,15.888311],[-16.43742,15.887971],[-16.436868,15.88783],[-16.436523,15.887905],[-16.435135,15.889185],[-16.434765,15.890276],[-16.434099,15.891211],[-16.43426,15.891526],[-16.434876,15.891414],[-16.43499,15.891765],[-16.434843,15.89211],[-16.434323,15.892502],[-16.434097,15.893516],[-16.433835,15.893436],[-16.433616,15.892931],[-16.433205,15.89288],[-16.4322,15.893311],[-16.431403,15.89422],[-16.431185,15.895044],[-16.431668,15.896053],[-16.43168,15.896379],[-16.430883,15.897234],[-16.430536,15.898411],[-16.429337,15.899305],[-16.429294,15.899775],[-16.42953,15.900126],[-16.430544,15.90086],[-16.431125,15.901209],[-16.431443,15.901189],[-16.43173,15.900925],[-16.431811,15.900445],[-16.432386,15.89979],[-16.432788,15.898532]],[[-16.413575,15.934091],[-16.414574,15.934064],[-16.415037,15.933489],[-16.415216,15.932472],[-16.416751,15.931503],[-16.416745,15.93025],[-16.416312,15.930193],[-16.41533,15.931216],[-16.414591,15.931519],[-16.414287,15.932179],[-16.413181,15.933143],[-16.413575,15.934091]],[[-16.422542,15.925018],[-16.422705,15.925039],[-16.422588,15.924927],[-16.422542,15.925018]]],[[[-16.458611,15.897206],[-16.462256,15.901283],[-16.462575,15.901947],[-16.462388,15.901949],[-16.459671,15.899237],[-16.458611,15.897206]]]]}},{"type":"Feature","properties":{"categorie":"Vasière"},"geometry":{"type":"MultiPolygon","coordinates":[[[[-16.497194,15.947031],[-16.496407,15.947738],[-16.496213,15.947587],[-16.496156,15.947356],[-16.497194,15.947031]]],[[[-16.498735,15.946549],[-16.498671,15.946766],[-16.498455,15.946739],[-16.498418,15.946648],[-16.498735,15.946549]]]]}},{"type":"Feature","properties":{"categorie":"Vasière"},"geometry":{"type":"MultiPolygon","coordinates":[[[[-16.48364,15.948616],[-16.484391,15.949962],[-16.485617,15.951096],[-16.485774,15.951899],[-16.48563,15.952284],[-16.485255,15.952548],[-16.484733,15.952713],[-16.483807,15.952655],[-16.483061,15.953203],[-16.482569,15.953825],[-16.483183,15.955147],[-16.483755,15.9559],[-16.484129,15.956049],[-16.484436,15.955424],[-16.48472,15.953923],[-16.485189,15.95348],[-16.485745,15.953329],[-16.486285,15.954642],[-16.487343,15.955052],[-16.487721,15.955353],[-16.48835,15.956306],[-16.48871,15.956487],[-16.488971,15.956361],[-16.489327,15.956715],[-16.489643,15.957426],[-16.489884,15.95865],[-16.488695,15.960477],[-16.487889,15.960739],[-16.487259,15.961271],[-16.486662,15.962459],[-16.486689,15.962958],[-16.486036,15.962916],[-16.48523,15.963344],[-16.485214,15.96269],[-16.483339,15.961799],[-16.482961,15.961305],[-16.483238,15.96076],[-16.482622,15.95968],[-16.482381,15.958642],[-16.482473,15.958416],[-16.482137,15.957243],[-16.481863,15.956812],[-16.482203,15.956837],[-16.482424,15.957314],[-16.482821,15.957407],[-16.483116,15.957233],[-16.483029,15.956181],[-16.482333,15.955612],[-16.481827,15.955607],[-16.481121,15.954999],[-16.480551,15.953539],[-16.479772,15.952261],[-16.481248,15.951473],[-16.481616,15.951097],[-16.481392,15.950984],[-16.480061,15.951409],[-16.479778,15.951297],[-16.479732,15.951033],[-16.480671,15.950882],[-16.481648,15.950396],[-16.482539,15.949667],[-16.483168,15.948654],[-16.48364,15.948616]],[[-16.488247,15.959167],[-16.48855,15.959052],[-16.488313,15.958556],[-16.487799,15.958515],[-16.487613,15.958697],[-16.488247,15.959167]],[[-16.487568,15.958923],[-16.487569,15.959013],[-16.487615,15.958968],[-16.487568,15.958923]],[[-16.487662,15.959013],[-16.487663,15.959103],[-16.487709,15.959058],[-16.487662,15.959013]],[[-16.487617,15.959239],[-16.487758,15.959283],[-16.487897,15.959237],[-16.487617,15.959239]],[[-16.48743,15.959195],[-16.487385,15.959466],[-16.487618,15.959329],[-16.48743,15.959195]],[[-16.487459,15.95994],[-16.487809,15.95987],[-16.487619,15.959465],[-16.487433,15.959602],[-16.487459,15.95994]]],[[[-16.484641,15.979103],[-16.482365,15.97424],[-16.482444,15.973509],[-16.482815,15.973145],[-16.482765,15.972784],[-16.483091,15.972601],[-16.483273,15.971877],[-16.482855,15.972286],[-16.482063,15.972518],[-16.481821,15.973076],[-16.480014,15.969211],[-16.479659,15.968213],[-16.479769,15.968217],[-16.47939,15.967456],[-16.479551,15.967564],[-16.480671,15.967511],[-16.48231,15.967997],[-16.482636,15.967904],[-16.483107,15.968443],[-16.483784,15.967734],[-16.483792,15.967888],[-16.484198,15.968149],[-16.48431,15.969375],[-16.483621,15.971034],[-16.483382,15.972707],[-16.483419,15.973936],[-16.484107,15.97611],[-16.485568,15.979055],[-16.486123,15.97963],[-16.486683,15.979535],[-16.486824,15.979643],[-16.486026,15.980344],[-16.485771,15.980824],[-16.484641,15.979103]]],[[[-16.487574,15.959736],[-16.487575,15.959827],[-16.487528,15.959782],[-16.487574,15.959736]]]]}},{"type":"Feature","properties":{"categorie":"Mangrove"},"geometry":{"type":"Polygon","coordinates":[[[-16.401897,16.092955],[-16.40002,16.094375],[-16.400651,16.093735],[-16.401897,16.092955]]]}},{"type":"Feature","properties":{"categorie":"Mare"},"geometry":{"type":"Polygon","coordinates":[[[-16.346121,16.042971],[-16.346515,16.041862],[-16.346626,16.040549],[-16.348361,16.037851],[-16.352462,16.040946],[-16.351032,16.042402],[-16.349739,16.043217],[-16.349181,16.043011],[-16.34773,16.04323],[-16.347051,16.043473],[-16.345667,16.044468],[-16.34551,16.044021],[-16.346121,16.042971]]]}},{"type":"Feature","properties":{"categorie":"Mare"},"geometry":{"type":"Polygon","coordinates":[[[-16.366995,16.063937],[-16.367349,16.064228],[-16.367138,16.064812],[-16.365868,16.066153],[-16.365656,16.065651],[-16.365719,16.065144],[-16.366995,16.063937]]]}},{"type":"Feature","properties":{"categorie":"Mare"},"geometry":{"type":"Polygon","coordinates":[[[-16.369082,16.063195],[-16.369756,16.063812],[-16.369577,16.06461],[-16.368623,16.066123],[-16.367519,16.06735],[-16.366129,16.070276],[-16.365244,16.071118],[-16.364933,16.071854],[-16.364543,16.071714],[-16.36437,16.071494],[-16.364465,16.071175],[-16.365869,16.069462],[-16.367537,16.066465],[-16.369082,16.063195]]]}},{"type":"Feature","properties":{"categorie":"Mare"},"geometry":{"type":"Polygon","coordinates":[[[-16.385117,16.075796],[-16.384811,16.07498],[-16.385219,16.074474],[-16.385739,16.074487],[-16.385868,16.075025],[-16.38556,16.075649],[-16.385117,16.075796]]]}},{"type":"Feature","properties":{"categorie":"Mare"},"geometry":{"type":"Polygon","coordinates":[[[-16.375735,16.073779],[-16.377344,16.071124],[-16.377902,16.070768],[-16.378483,16.070761],[-16.378762,16.071276],[-16.378772,16.071753],[-16.378167,16.072208],[-16.377442,16.073704],[-16.377044,16.073837],[-16.376378,16.074872],[-16.376103,16.07566],[-16.376274,16.075925],[-16.376103,16.076393],[-16.375339,16.076774],[-16.375063,16.076508],[-16.374933,16.075986],[-16.375572,16.075062],[-16.375735,16.073779]]]}},{"type":"Feature","properties":{"categorie":"Mare"},"geometry":{"type":"Polygon","coordinates":[[[-16.372138,16.076177],[-16.37271,16.074319],[-16.373663,16.072999],[-16.374736,16.072533],[-16.375669,16.072961],[-16.375545,16.073461],[-16.373423,16.075852],[-16.372861,16.076829],[-16.372343,16.076642],[-16.372138,16.076177]]]}},{"type":"Feature","properties":{"categorie":"Mare"},"geometry":{"type":"Polygon","coordinates":[[[-16.378039,16.079498],[-16.379797,16.077236],[-16.380281,16.076898],[-16.380633,16.076921],[-16.380575,16.078508],[-16.380445,16.078405],[-16.380228,16.078807],[-16.380071,16.078707],[-16.378929,16.080125],[-16.378429,16.080833],[-16.378422,16.081313],[-16.378011,16.082017],[-16.377845,16.081938],[-16.37767,16.081402],[-16.377652,16.080176],[-16.378039,16.079498]]]}},{"type":"Feature","properties":{"categorie":"Mare"},"geometry":{"type":"Polygon","coordinates":[[[-16.35911,16.081327],[-16.359307,16.081452],[-16.359216,16.082059],[-16.35857,16.083116],[-16.357992,16.084009],[-16.356714,16.085107],[-16.355853,16.086605],[-16.355489,16.086939],[-16.355415,16.086376],[-16.355919,16.084899],[-16.357222,16.082767],[-16.358578,16.081439],[-16.35911,16.081327]]]}},{"type":"Feature","properties":{"categorie":"Mare"},"geometry":{"type":"Polygon","coordinates":[[[-16.37698,16.07752],[-16.377338,16.077731],[-16.377704,16.078362],[-16.377696,16.079461],[-16.37692,16.079769],[-16.375023,16.080953],[-16.374217,16.082441],[-16.374128,16.083876],[-16.372927,16.085438],[-16.372488,16.08635],[-16.372441,16.087627],[-16.371803,16.088638],[-16.3712,16.090905],[-16.370942,16.090479],[-16.370888,16.088848],[-16.371377,16.08706],[-16.371847,16.086108],[-16.372857,16.084719],[-16.372993,16.084176],[-16.373568,16.08344],[-16.37394,16.081928],[-16.375106,16.078848],[-16.376225,16.077815],[-16.37698,16.07752]]]}},{"type":"Feature","properties":{"categorie":"Mare"},"geometry":{"type":"Polygon","coordinates":[[[-16.414073,16.015879],[-16.414011,16.015048],[-16.414184,16.014504],[-16.415146,16.013106],[-16.416464,16.011733],[-16.417096,16.010038],[-16.418526,16.008691],[-16.419586,16.006633],[-16.419702,16.005909],[-16.419235,16.004493],[-16.419305,16.003932],[-16.42005,16.003466],[-16.420651,16.002667],[-16.421042,16.002466],[-16.424705,16.00245],[-16.425709,16.002968],[-16.425973,16.003328],[-16.426005,16.003888],[-16.425696,16.005164],[-16.425195,16.005601],[-16.423686,16.006362],[-16.423425,16.007737],[-16.422662,16.008248],[-16.422423,16.008801],[-16.422418,16.009307],[-16.422644,16.00955],[-16.423903,16.009279],[-16.424306,16.009385],[-16.424532,16.009637],[-16.424215,16.013733],[-16.422302,16.014026],[-16.421158,16.014811],[-16.419449,16.016395],[-16.418961,16.016082],[-16.417188,16.016419],[-16.416332,16.016967],[-16.415473,16.016963],[-16.414573,16.016644],[-16.414073,16.015879]]]}},{"type":"Feature","properties":{"categorie":"Mare"},"geometry":{"type":"Polygon","coordinates":[[[-16.377165,16.062533],[-16.377124,16.061502],[-16.377467,16.060551],[-16.378213,16.060279],[-16.378212,16.06011],[-16.379449,16.06047],[-16.378666,16.061816],[-16.378657,16.062366],[-16.378026,16.062164],[-16.377623,16.062777],[-16.377318,16.062735],[-16.377165,16.062533]]]}},{"type":"Feature","properties":{"categorie":"Mare"},"geometry":{"type":"Polygon","coordinates":[[[-16.389028,16.064334],[-16.389196,16.063574],[-16.389629,16.062795],[-16.390519,16.061987],[-16.390761,16.062109],[-16.391128,16.062467],[-16.391114,16.06338],[-16.390983,16.06376],[-16.390437,16.064243],[-16.390353,16.064619],[-16.39068,16.065076],[-16.391259,16.065316],[-16.391256,16.065698],[-16.39115,16.065788],[-16.39007,16.065095],[-16.389325,16.064871],[-16.389028,16.064334]]]}},{"type":"Feature","properties":{"categorie":"Mare"},"geometry":{"type":"Polygon","coordinates":[[[-16.3665,16.07658],[-16.367022,16.075031],[-16.367321,16.074885],[-16.367485,16.075661],[-16.367758,16.076003],[-16.368374,16.075881],[-16.368885,16.075363],[-16.369121,16.074304],[-16.369047,16.073102],[-16.368726,16.072698],[-16.368071,16.072485],[-16.367918,16.072097],[-16.370845,16.068066],[-16.371237,16.067955],[-16.371613,16.068377],[-16.37151,16.069688],[-16.371589,16.070338],[-16.371759,16.070518],[-16.372189,16.070533],[-16.372809,16.069405],[-16.37344,16.069064],[-16.374451,16.068907],[-16.374935,16.069258],[-16.375094,16.069514],[-16.374433,16.069728],[-16.373204,16.070842],[-16.372317,16.071203],[-16.371779,16.072081],[-16.370236,16.073411],[-16.369932,16.073991],[-16.370057,16.074542],[-16.369947,16.074913],[-16.368603,16.076485],[-16.36842,16.077029],[-16.367491,16.077939],[-16.367078,16.079026],[-16.366586,16.079598],[-16.365949,16.079331],[-16.365561,16.078692],[-16.365871,16.077488],[-16.3665,16.07658]]]}},{"type":"Feature","properties":{"categorie":"Mare"},"geometry":{"type":"Polygon","coordinates":[[[-16.334363,16.084761],[-16.334159,16.072035],[-16.335721,16.070158],[-16.340017,16.066733],[-16.348222,16.060915],[-16.349634,16.059506],[-16.351096,16.057372],[-16.35246,16.057246],[-16.353864,16.057545],[-16.352314,16.059154],[-16.349687,16.064639],[-16.34679,16.068968],[-16.346229,16.07021],[-16.345562,16.072546],[-16.344889,16.073906],[-16.344165,16.074778],[-16.341201,16.077391],[-16.336381,16.08213],[-16.334363,16.084761]]]}},{"type":"Feature","properties":{"categorie":"Mare"},"geometry":{"type":"MultiPolygon","coordinates":[[[[-16.333472,16.045782],[-16.335455,16.042874],[-16.335517,16.042295],[-16.334975,16.039551],[-16.334969,16.038674],[-16.335308,16.037551],[-16.337008,16.034621],[-16.338122,16.033448],[-16.338793,16.033164],[-16.340132,16.033616],[-16.342282,16.033684],[-16.342564,16.033917],[-16.342614,16.03445],[-16.342849,16.034603],[-16.345201,16.03137],[-16.347042,16.029885],[-16.346941,16.030299],[-16.34336,16.034893],[-16.342605,16.034921],[-16.341679,16.034079],[-16.33981,16.03564],[-16.339407,16.03746],[-16.33833,16.039093],[-16.337693,16.039262],[-16.335943,16.04016],[-16.336092,16.041785],[-16.336536,16.042113],[-16.335391,16.044374],[-16.333507,16.047118],[-16.333472,16.045782]]],[[[-16.333412,16.036137],[-16.335405,16.033827],[-16.33526,16.033655],[-16.337939,16.031352],[-16.339567,16.030176],[-16.340881,16.029581],[-16.343708,16.028903],[-16.345114,16.028072],[-16.345834,16.026757],[-16.347015,16.025891],[-16.347459,16.025228],[-16.347557,16.024477],[-16.346914,16.023379],[-16.34689,16.022611],[-16.347268,16.021759],[-16.348104,16.021048],[-16.347892,16.021529],[-16.347816,16.022786],[-16.347505,16.023746],[-16.34787,16.023816],[-16.348279,16.023506],[-16.348685,16.022672],[-16.349173,16.02294],[-16.349269,16.0234],[-16.348086,16.025296],[-16.34785,16.026419],[-16.347601,16.026881],[-16.346654,16.027746],[-16.34608,16.028689],[-16.345754,16.0288],[-16.345211,16.028659],[-16.345016,16.028786],[-16.345314,16.030023],[-16.345177,16.030494],[-16.342789,16.032542],[-16.34208,16.032764],[-16.340184,16.032938],[-16.339855,16.03275],[-16.339871,16.032244],[-16.340886,16.031768],[-16.341318,16.030726],[-16.341064,16.03042],[-16.339915,16.030481],[-16.339115,16.031002],[-16.336297,16.033701],[-16.334564,16.037223],[-16.334123,16.038853],[-16.33445,16.040675],[-16.334407,16.041262],[-16.33344,16.043857],[-16.333412,16.036137]]],[[[-16.328912,16.02322],[-16.33059,16.018129],[-16.331218,16.017448],[-16.331835,16.016039],[-16.332937,16.015371],[-16.333435,16.014748],[-16.334293,16.015097],[-16.334908,16.014735],[-16.335424,16.015705],[-16.33336,16.018664],[-16.330792,16.02188],[-16.32998,16.023266],[-16.328912,16.02322]]]]}},{"type":"Feature","properties":{"categorie":"Plaine inondable"},"geometry":{"type":"Polygon","coordinates":[[[-16.437336,16.03474],[-16.437644,16.032108],[-16.438058,16.031156],[-16.437962,16.030841],[-16.438144,16.030162],[-16.437998,16.030002],[-16.438438,16.026409],[-16.438883,16.026406],[-16.439727,16.026744],[-16.440761,16.027532],[-16.440938,16.028606],[-16.440843,16.029242],[-16.440432,16.02983],[-16.440486,16.030869],[-16.440207,16.032167],[-16.439755,16.033179],[-16.439954,16.034849],[-16.43992,16.036702],[-16.439737,16.037246],[-16.43895,16.0382],[-16.438622,16.038157],[-16.438522,16.037254],[-16.437864,16.036626],[-16.437336,16.03474]]]}},{"type":"Feature","properties":{"categorie":"Plaine inondable"},"geometry":{"type":"Polygon","coordinates":[[[-16.371542,16.05083],[-16.371067,16.049572],[-16.369687,16.049399],[-16.369619,16.048851],[-16.369847,16.048235],[-16.370416,16.047927],[-16.370944,16.047937],[-16.371482,16.048755],[-16.372506,16.049317],[-16.373032,16.050081],[-16.373711,16.050039],[-16.374362,16.049721],[-16.374923,16.04898],[-16.375133,16.048198],[-16.374335,16.046122],[-16.375402,16.0456],[-16.376139,16.044445],[-16.376611,16.043996],[-16.378075,16.043308],[-16.377919,16.042514],[-16.378582,16.041812],[-16.378695,16.040932],[-16.378953,16.040415],[-16.379252,16.040167],[-16.380242,16.039869],[-16.380762,16.03917],[-16.381016,16.039268],[-16.381182,16.039586],[-16.381144,16.040176],[-16.380576,16.041214],[-16.379499,16.044731],[-16.378013,16.046762],[-16.37707,16.048795],[-16.375565,16.050703],[-16.373544,16.052773],[-16.373006,16.052902],[-16.37248,16.052618],[-16.372593,16.051932],[-16.372465,16.051327],[-16.371542,16.05083]]]}},{"type":"Feature","properties":{"categorie":"Plaine inondable"},"geometry":{"type":"Polygon","coordinates":[[[-16.396823,16.074992],[-16.397797,16.075248],[-16.398557,16.075767],[-16.399364,16.077425],[-16.399116,16.078096],[-16.399155,16.078394],[-16.401777,16.08032],[-16.402128,16.08104],[-16.401944,16.081457],[-16.400367,16.08192],[-16.399077,16.08191],[-16.397297,16.081343],[-16.396113,16.080384],[-16.394903,16.078557],[-16.394574,16.076878],[-16.394655,16.076506],[-16.395582,16.075353],[-16.396244,16.07505],[-16.396823,16.074992]]]}},{"type":"Feature","properties":{"categorie":"Plaine inondable"},"geometry":{"type":"MultiPolygon","coordinates":[[[[-16.404133,16.080413],[-16.403325,16.079803],[-16.40097,16.078517],[-16.400339,16.077835],[-16.400054,16.077231],[-16.399878,16.074864],[-16.3987,16.072034],[-16.398419,16.070743],[-16.39801,16.069734],[-16.398026,16.069227],[-16.398274,16.068656],[-16.398625,16.065514],[-16.399844,16.062971],[-16.402932,16.05975],[-16.403741,16.057865],[-16.404244,16.057609],[-16.405452,16.057845],[-16.405993,16.05767],[-16.407517,16.055174],[-16.408185,16.054365],[-16.409105,16.053636],[-16.411051,16.052675],[-16.411469,16.052274],[-16.412223,16.050453],[-16.415129,16.046348],[-16.416266,16.043358],[-16.416755,16.041128],[-16.417911,16.040834],[-16.41854,16.040198],[-16.42044,16.037603],[-16.421043,16.036164],[-16.422177,16.034244],[-16.42277,16.034249],[-16.423569,16.03456],[-16.4236,16.035085],[-16.422811,16.035732],[-16.421967,16.037009],[-16.422384,16.038806],[-16.42237,16.039531],[-16.422096,16.040346],[-16.421354,16.041255],[-16.421082,16.042341],[-16.420998,16.043608],[-16.420018,16.045177],[-16.419854,16.046597],[-16.419103,16.046692],[-16.41841,16.047782],[-16.418369,16.04855],[-16.418651,16.048819],[-16.418558,16.04891],[-16.418889,16.049496],[-16.419122,16.049313],[-16.419313,16.0499],[-16.418891,16.049767],[-16.418752,16.049903],[-16.418895,16.050309],[-16.419224,16.050578],[-16.419134,16.050985],[-16.419475,16.051754],[-16.418738,16.05191],[-16.41798,16.052524],[-16.416802,16.055298],[-16.416315,16.055685],[-16.414755,16.056296],[-16.413139,16.057509],[-16.412899,16.058142],[-16.413026,16.059553],[-16.411246,16.059263],[-16.411432,16.058899],[-16.411383,16.058583],[-16.410961,16.05836],[-16.408721,16.058553],[-16.406087,16.057877],[-16.405679,16.058214],[-16.40191,16.06593],[-16.402608,16.066225],[-16.401694,16.069872],[-16.400716,16.071713],[-16.401133,16.072425],[-16.401123,16.07641],[-16.401786,16.07768],[-16.403162,16.079154],[-16.404193,16.079662],[-16.405307,16.079772],[-16.409957,16.077753],[-16.410951,16.079117],[-16.413084,16.077091],[-16.414891,16.076284],[-16.416017,16.074953],[-16.417224,16.074397],[-16.419407,16.073705],[-16.41928,16.073028],[-16.420203,16.072687],[-16.42374,16.071896],[-16.424993,16.07186],[-16.426444,16.07214],[-16.426788,16.073177],[-16.42819,16.073249],[-16.428402,16.074124],[-16.431325,16.073743],[-16.431921,16.071804],[-16.433043,16.072141],[-16.434773,16.072202],[-16.434824,16.072486],[-16.434526,16.073026],[-16.434714,16.073205],[-16.436491,16.073284],[-16.439208,16.074214],[-16.439768,16.074075],[-16.440326,16.07371],[-16.442006,16.073247],[-16.443119,16.072064],[-16.444737,16.070825],[-16.445724,16.07042],[-16.446188,16.06992],[-16.446698,16.069725],[-16.446322,16.070325],[-16.446477,16.071129],[-16.446367,16.071455],[-16.44609,16.071881],[-16.444953,16.072377],[-16.443223,16.074892],[-16.442646,16.075258],[-16.441919,16.075434],[-16.441606,16.074876],[-16.440897,16.075071],[-16.440195,16.074976],[-16.436952,16.073651],[-16.434287,16.073506],[-16.432382,16.073881],[-16.430163,16.074664],[-16.428524,16.075524],[-16.428122,16.0755],[-16.427277,16.075026],[-16.426925,16.075472],[-16.427144,16.075985],[-16.427025,16.076284],[-16.425023,16.077382],[-16.424112,16.078075],[-16.423586,16.079127],[-16.423066,16.079546],[-16.422,16.07959],[-16.421437,16.079232],[-16.421149,16.079523],[-16.420916,16.079543],[-16.419753,16.079071],[-16.419132,16.078461],[-16.41833,16.078773],[-16.417758,16.078533],[-16.41731,16.078545],[-16.415799,16.079097],[-16.414059,16.080185],[-16.413163,16.080344],[-16.412838,16.080708],[-16.41261,16.081423],[-16.411806,16.081438],[-16.411816,16.081591],[-16.409583,16.083052],[-16.408464,16.083457],[-16.407371,16.0835],[-16.40648,16.083163],[-16.404133,16.080413]],[[-16.418702,16.049497],[-16.418703,16.049587],[-16.418749,16.049542],[-16.418702,16.049497]],[[-16.414632,16.055399],[-16.414632,16.055489],[-16.414679,16.055443],[-16.414632,16.055399]],[[-16.410022,16.057756],[-16.410861,16.057547],[-16.411653,16.057135],[-16.412685,16.057671],[-16.412963,16.057398],[-16.413168,16.056651],[-16.414263,16.056124],[-16.414681,16.055715],[-16.414493,16.055625],[-16.414492,16.055445],[-16.413837,16.055313],[-16.413187,16.05595],[-16.412391,16.055775],[-16.412113,16.056048],[-16.411785,16.055914],[-16.412063,16.055641],[-16.411921,16.055326],[-16.411124,16.055015],[-16.411771,16.054062],[-16.411208,16.053614],[-16.410649,16.053934],[-16.410325,16.054342],[-16.409727,16.055747],[-16.409918,16.056288],[-16.409551,16.05733],[-16.40974,16.057645],[-16.410022,16.057756]],[[-16.434244,16.072847],[-16.434431,16.0728],[-16.434384,16.07271],[-16.434244,16.072847]]],[[[-16.411839,16.057044],[-16.41184,16.057134],[-16.411793,16.057089],[-16.411839,16.057044]]],[[[-16.412026,16.056952],[-16.412026,16.057043],[-16.411979,16.056998],[-16.412026,16.056952]]],[[[-16.412303,16.056498],[-16.412303,16.056589],[-16.412256,16.056544],[-16.412303,16.056498]]]]}},{"type":"Feature","properties":{"categorie":"Plaine inondable"},"geometry":{"type":"MultiPolygon","coordinates":[[[[-16.452396,16.0673],[-16.450806,16.068859],[-16.449385,16.069789],[-16.450292,16.068742],[-16.451785,16.067566],[-16.452396,16.0673]]],[[[-16.448371,16.071069],[-16.446524,16.074994],[-16.444782,16.076701],[-16.443291,16.077237],[-16.444877,16.076363],[-16.445902,16.075352],[-16.448371,16.071069]]],[[[-16.442273,16.077603],[-16.441279,16.077516],[-16.441155,16.077477],[-16.442273,16.077603]]],[[[-16.438465,16.076405],[-16.43749,16.07583],[-16.438582,16.07646],[-16.438465,16.076405]]],[[[-16.435999,16.074951],[-16.434829,16.074959],[-16.432969,16.075212],[-16.43396,16.07471],[-16.434963,16.07459],[-16.435592,16.074728],[-16.436162,16.075029],[-16.436623,16.075319],[-16.435999,16.074951]]]]}},{"type":"Feature","properties":{"categorie":"Plaine inondable"},"geometry":{"type":"MultiPolygon","coordinates":[[[[-16.42214,16.080993],[-16.420839,16.080932],[-16.419079,16.080152],[-16.417557,16.079936],[-16.416623,16.080169],[-16.415467,16.081189],[-16.416369,16.080278],[-16.417741,16.079632],[-16.418819,16.079876],[-16.419898,16.080407],[-16.420828,16.080652],[-16.422476,16.080799],[-16.42214,16.080993]]],[[[-16.413717,16.082675],[-16.410344,16.085185],[-16.410234,16.086203],[-16.409723,16.087411],[-16.406612,16.089576],[-16.404986,16.08995],[-16.401355,16.091703],[-16.400239,16.092524],[-16.399283,16.093652],[-16.399147,16.094002],[-16.399247,16.09474],[-16.398376,16.094618],[-16.397245,16.096103],[-16.395928,16.097203],[-16.392977,16.098348],[-16.391991,16.098891],[-16.391605,16.099487],[-16.391146,16.099505],[-16.390559,16.099109],[-16.389975,16.099113],[-16.387396,16.098338],[-16.384939,16.098128],[-16.383303,16.098365],[-16.377362,16.101908],[-16.374803,16.103847],[-16.37224,16.105333],[-16.370138,16.105912],[-16.366865,16.106159],[-16.365003,16.105914],[-16.36417,16.105385],[-16.362755,16.103698],[-16.36275,16.10302],[-16.363215,16.102564],[-16.36508,16.101648],[-16.36683,16.101071],[-16.36889,16.100709],[-16.369069,16.100332],[-16.368311,16.099004],[-16.365612,16.096818],[-16.365149,16.095744],[-16.365487,16.093294],[-16.365328,16.092218],[-16.364615,16.091733],[-16.363044,16.091498],[-16.361528,16.091997],[-16.359058,16.093629],[-16.356395,16.096779],[-16.354339,16.099779],[-16.352139,16.104052],[-16.350495,16.10798],[-16.350061,16.111263],[-16.350009,16.115251],[-16.349477,16.118891],[-16.349227,16.119084],[-16.346111,16.117387],[-16.346619,16.116621],[-16.347057,16.115451],[-16.347745,16.114431],[-16.348193,16.11331],[-16.348656,16.112674],[-16.349478,16.109867],[-16.349717,16.109307],[-16.349983,16.109156],[-16.350334,16.108154],[-16.350433,16.107028],[-16.351056,16.105119],[-16.352397,16.102388],[-16.353447,16.100765],[-16.353869,16.100355],[-16.354077,16.099706],[-16.355062,16.098093],[-16.357478,16.094884],[-16.359067,16.093196],[-16.361863,16.091093],[-16.363559,16.090455],[-16.365935,16.090531],[-16.367086,16.090807],[-16.367496,16.091607],[-16.36753,16.092328],[-16.367328,16.092944],[-16.366149,16.093818],[-16.366013,16.094303],[-16.368229,16.0965],[-16.368778,16.097587],[-16.36981,16.100761],[-16.369588,16.101136],[-16.368175,16.101618],[-16.367137,16.102238],[-16.365977,16.103238],[-16.36598,16.103777],[-16.366551,16.104841],[-16.367293,16.10513],[-16.369493,16.104963],[-16.373464,16.103273],[-16.381521,16.097873],[-16.384319,16.097206],[-16.389157,16.097648],[-16.391998,16.097623],[-16.394216,16.096937],[-16.395703,16.096243],[-16.396669,16.095577],[-16.398466,16.093967],[-16.397392,16.092531],[-16.391347,16.080309],[-16.390095,16.077233],[-16.392938,16.07415],[-16.393537,16.073016],[-16.394315,16.069559],[-16.393835,16.069562],[-16.393843,16.06849],[-16.393492,16.067794],[-16.393752,16.067012],[-16.394811,16.065895],[-16.396242,16.063983],[-16.397262,16.061918],[-16.399373,16.06009],[-16.400268,16.058494],[-16.401093,16.05873],[-16.401413,16.058621],[-16.401353,16.059565],[-16.399816,16.060943],[-16.396528,16.064843],[-16.395009,16.067512],[-16.395033,16.068998],[-16.394744,16.071446],[-16.393465,16.074225],[-16.393763,16.074452],[-16.393648,16.074855],[-16.394021,16.075751],[-16.393662,16.076978],[-16.3936,16.077951],[-16.394173,16.079205],[-16.395425,16.080823],[-16.396006,16.081314],[-16.397021,16.081751],[-16.397384,16.082137],[-16.401229,16.082233],[-16.403355,16.083345],[-16.405055,16.084585],[-16.407011,16.085361],[-16.408193,16.085334],[-16.409944,16.08478],[-16.410263,16.084811],[-16.413609,16.082664],[-16.415023,16.081566],[-16.413717,16.082675]]]]}},{"type":"Feature","properties":{"categorie":"Plaine inondable"},"geometry":{"type":"Polygon","coordinates":[[[-16.331271,16.016062],[-16.331835,16.016039],[-16.331218,16.017448],[-16.33059,16.018129],[-16.331271,16.016062]]]}},{"type":"Feature","properties":{"categorie":"Vasière"},"geometry":{"type":"Polygon","coordinates":[[[-16.475151,15.982304],[-16.47438,15.982399],[-16.471803,15.980743],[-16.470477,15.981141],[-16.469957,15.981832],[-16.469779,15.982849],[-16.470701,15.98646],[-16.468459,15.992603],[-16.467972,15.994174],[-16.467884,15.995705],[-16.467641,15.996281],[-16.465378,15.997779],[-16.465448,16.000552],[-16.464629,16.003571],[-16.466308,16.003225],[-16.466803,16.003365],[-16.467109,16.004606],[-16.466103,16.009013],[-16.466061,16.010113],[-16.464834,16.010556],[-16.464442,16.007136],[-16.4639,16.005757],[-16.462432,16.003247],[-16.462527,16.001496],[-16.463313,15.999487],[-16.463645,15.998019],[-16.462903,15.995372],[-16.462905,15.994169],[-16.463144,15.99305],[-16.463722,15.991969],[-16.465796,15.989508],[-16.466945,15.988963],[-16.46823,15.988817],[-16.468893,15.988316],[-16.468998,15.987339],[-16.469409,15.986071],[-16.468936,15.985216],[-16.469028,15.985125],[-16.468699,15.98481],[-16.468456,15.983547],[-16.469001,15.981392],[-16.471748,15.977496],[-16.473811,15.976063],[-16.474936,15.97499],[-16.476541,15.976575],[-16.477092,15.978393],[-16.478882,15.980348],[-16.47992,15.982086],[-16.480084,15.982652],[-16.476376,15.980579],[-16.47567,15.980404],[-16.474935,15.981306],[-16.473823,15.981278],[-16.47364,15.981602],[-16.474199,15.982029],[-16.475359,15.982109],[-16.475151,15.982304]],[[-16.469029,15.985215],[-16.469123,15.985214],[-16.469076,15.985169],[-16.469029,15.985215]]]}},{"type":"Feature","properties":{"categorie":"Plaine inondable"},"geometry":{"type":"Polygon","coordinates":[[[-16.425921,15.989473],[-16.426468,15.990192],[-16.426485,15.992596],[-16.4262,15.993149],[-16.425113,15.994078],[-16.424886,15.995047],[-16.42506,15.995814],[-16.426032,15.997209],[-16.426865,16.000002],[-16.426707,16.00147],[-16.426041,16.002451],[-16.425973,16.003328],[-16.425709,16.002968],[-16.424705,16.00245],[-16.421042,16.002466],[-16.420651,16.002667],[-16.42005,16.003466],[-16.419305,16.003932],[-16.419235,16.004493],[-16.419702,16.005909],[-16.419586,16.006633],[-16.418526,16.008691],[-16.417226,16.009857],[-16.416464,16.011733],[-16.415146,16.013106],[-16.414037,16.01484],[-16.414073,16.015879],[-16.414404,16.016491],[-16.415201,16.01692],[-16.416332,16.016967],[-16.416964,16.016502],[-16.417664,16.016298],[-16.418985,16.016081],[-16.419449,16.016395],[-16.421158,16.014811],[-16.422302,16.014026],[-16.424215,16.013733],[-16.423918,16.015299],[-16.423984,16.018019],[-16.42379,16.0183],[-16.422932,16.018577],[-16.422365,16.019024],[-16.421958,16.019641],[-16.421804,16.020293],[-16.422001,16.021783],[-16.423155,16.023637],[-16.423125,16.024685],[-16.423385,16.025841],[-16.423363,16.0266],[-16.420234,16.031504],[-16.421107,16.032594],[-16.418252,16.03635],[-16.417956,16.036514],[-16.417655,16.034871],[-16.417544,16.032414],[-16.416857,16.030358],[-16.416679,16.028949],[-16.416072,16.027814],[-16.415869,16.028068],[-16.416094,16.030824],[-16.415543,16.033638],[-16.415596,16.034433],[-16.415253,16.034887],[-16.414703,16.03499],[-16.413857,16.034291],[-16.413404,16.032468],[-16.411577,16.031766],[-16.411041,16.031309],[-16.410654,16.030697],[-16.410299,16.029398],[-16.410317,16.026677],[-16.410189,16.025792],[-16.408813,16.0228],[-16.40755,16.02129],[-16.405255,16.019172],[-16.402193,16.01818],[-16.402498,16.017453],[-16.402493,16.01665],[-16.401772,16.015507],[-16.406439,16.012492],[-16.407082,16.011053],[-16.409442,16.009086],[-16.41055,16.006439],[-16.412839,16.002808],[-16.41667,16.0],[-16.41751,15.998413],[-16.418113,15.996574],[-16.418744,15.995883],[-16.419881,15.995523],[-16.420411,15.995104],[-16.421174,15.993345],[-16.423144,15.990431],[-16.423674,15.990048],[-16.424859,15.989814],[-16.425575,15.989439],[-16.425921,15.989473]],[[-16.414861,16.018983],[-16.413253,16.018948],[-16.413287,16.018388],[-16.41195,16.015694],[-16.409969,16.015707],[-16.409823,16.015639],[-16.409784,16.015254],[-16.408951,16.01523],[-16.408002,16.015409],[-16.40804,16.016051],[-16.405715,16.016046],[-16.405586,16.017425],[-16.408202,16.018843],[-16.40834,16.021203],[-16.412032,16.022101],[-16.415126,16.022126],[-16.415063,16.021377],[-16.416659,16.02134],[-16.416779,16.018757],[-16.414861,16.018983]]]}},{"type":"Feature","properties":{"categorie":"Plaine inondable"},"geometry":{"type":"Polygon","coordinates":[[[-16.405277,15.99811],[-16.405758,15.997336],[-16.406807,15.996958],[-16.40781,15.997072],[-16.408476,15.998009],[-16.40923,15.99825],[-16.410038,15.998138],[-16.411204,15.997275],[-16.411757,15.998839],[-16.411221,16.001012],[-16.40995,16.002358],[-16.407524,16.00288],[-16.406561,16.001642],[-16.406783,16.000629],[-16.405291,16.00023],[-16.405057,16.000037],[-16.405003,15.999412],[-16.405277,15.99811]]]}},{"type":"Feature","properties":{"categorie":"Plaine inondable"},"geometry":{"type":"MultiPolygon","coordinates":[[[[-16.334363,16.084761],[-16.336381,16.08213],[-16.341201,16.077391],[-16.344165,16.074778],[-16.344889,16.073906],[-16.345562,16.072546],[-16.346229,16.07021],[-16.34679,16.068968],[-16.349687,16.064639],[-16.352314,16.059154],[-16.353864,16.057545],[-16.35246,16.057246],[-16.351096,16.057372],[-16.349634,16.059506],[-16.348222,16.060915],[-16.340594,16.066314],[-16.337171,16.06892],[-16.335721,16.070158],[-16.334159,16.072035],[-16.334092,16.069446],[-16.335008,16.068256],[-16.336058,16.06599],[-16.336697,16.0651],[-16.337553,16.064435],[-16.338717,16.063831],[-16.340863,16.063302],[-16.341506,16.062973],[-16.346437,16.056787],[-16.347422,16.055832],[-16.349125,16.0547],[-16.35126,16.054],[-16.352457,16.053046],[-16.353537,16.052681],[-16.354181,16.052019],[-16.355895,16.049467],[-16.356535,16.048058],[-16.356774,16.046801],[-16.357394,16.04608],[-16.357734,16.044754],[-16.359962,16.040417],[-16.36104,16.039033],[-16.361906,16.038339],[-16.362068,16.03793],[-16.362999,16.037404],[-16.363975,16.036548],[-16.363895,16.035807],[-16.364041,16.035291],[-16.366978,16.031576],[-16.369264,16.029663],[-16.370912,16.02874],[-16.371775,16.027885],[-16.372602,16.02572],[-16.373484,16.022225],[-16.373923,16.021308],[-16.376176,16.020138],[-16.37725,16.020238],[-16.378566,16.017504],[-16.378745,16.015359],[-16.377669,16.014997],[-16.376998,16.015481],[-16.376656,16.01512],[-16.376369,16.014457],[-16.376262,16.013009],[-16.376544,16.008877],[-16.376836,16.008403],[-16.377613,16.00777],[-16.378228,16.007487],[-16.378904,16.007409],[-16.378877,16.005994],[-16.37938,16.004418],[-16.380888,16.002158],[-16.38277,16.000031],[-16.383103,15.999441],[-16.384652,15.999142],[-16.385285,15.998813],[-16.385618,15.998377],[-16.385765,15.997969],[-16.385612,15.997437],[-16.384459,15.996956],[-16.383791,15.996228],[-16.383402,15.995372],[-16.3835,15.994757],[-16.383945,15.994257],[-16.383995,15.994691],[-16.384336,15.99533],[-16.385577,15.996407],[-16.386177,15.996692],[-16.387944,15.996907],[-16.388454,15.997699],[-16.388656,15.998583],[-16.388919,15.998654],[-16.389216,15.998435],[-16.389315,15.997919],[-16.388306,15.996543],[-16.387978,15.996382],[-16.38681,15.996354],[-16.386144,15.996087],[-16.384808,15.994722],[-16.384711,15.99418],[-16.384977,15.993527],[-16.38599,15.992835],[-16.386817,15.994534],[-16.388374,15.995112],[-16.389706,15.996763],[-16.390366,15.997203],[-16.390929,15.996983],[-16.391331,15.996562],[-16.391029,15.995298],[-16.391172,15.994958],[-16.393726,15.99426],[-16.394467,15.993678],[-16.395266,15.993687],[-16.395476,15.992694],[-16.395845,15.992416],[-16.396717,15.992369],[-16.396972,15.993688],[-16.398137,15.993422],[-16.399158,15.993635],[-16.399415,15.994636],[-16.400044,15.995554],[-16.400433,15.99575],[-16.401637,15.995923],[-16.401726,15.996113],[-16.401547,15.996513],[-16.401114,15.996851],[-16.400484,15.996967],[-16.399944,15.996285],[-16.398949,15.996064],[-16.399499,15.997726],[-16.400058,15.998451],[-16.399723,15.99915],[-16.398025,15.999705],[-16.397224,16.001543],[-16.39654,16.00218],[-16.396022,16.002377],[-16.394956,16.002095],[-16.394415,16.00221],[-16.391717,16.003795],[-16.390513,16.004882],[-16.389182,16.005657],[-16.388928,16.006193],[-16.388666,16.008044],[-16.387261,16.009679],[-16.387447,16.011066],[-16.387331,16.01208],[-16.387047,16.012263],[-16.38596,16.012158],[-16.385603,16.012388],[-16.384319,16.014878],[-16.383929,16.016265],[-16.384386,16.016526],[-16.386089,16.016511],[-16.388129,16.016874],[-16.390941,16.016762],[-16.392481,16.017023],[-16.394024,16.016742],[-16.395392,16.01728],[-16.396941,16.016273],[-16.399196,16.015777],[-16.399869,16.017337],[-16.400849,16.018433],[-16.402679,16.019641],[-16.404685,16.020505],[-16.405502,16.021033],[-16.40558,16.02143],[-16.406246,16.021886],[-16.406606,16.022589],[-16.405879,16.024184],[-16.405948,16.024681],[-16.406872,16.025814],[-16.407412,16.026895],[-16.408506,16.028234],[-16.409598,16.030695],[-16.41204,16.03386],[-16.413495,16.038668],[-16.414414,16.040415],[-16.414817,16.041958],[-16.414783,16.042455],[-16.413995,16.04472],[-16.412396,16.047252],[-16.411218,16.048489],[-16.409348,16.051005],[-16.408985,16.051242],[-16.408647,16.051045],[-16.408437,16.050441],[-16.408799,16.048749],[-16.408711,16.048117],[-16.408185,16.047723],[-16.40755,16.047844],[-16.407598,16.04938],[-16.407406,16.049915],[-16.405041,16.05125],[-16.402859,16.053325],[-16.402574,16.054032],[-16.402164,16.056544],[-16.401597,16.056301],[-16.401858,16.055793],[-16.401799,16.055585],[-16.400962,16.055189],[-16.400191,16.055297],[-16.399137,16.056253],[-16.398008,16.056749],[-16.397475,16.056678],[-16.39744,16.056325],[-16.397063,16.055875],[-16.39697,16.055966],[-16.396454,16.055699],[-16.396128,16.055791],[-16.395899,16.05647],[-16.396276,16.056875],[-16.39581,16.057104],[-16.395532,16.057512],[-16.394971,16.057471],[-16.394878,16.057562],[-16.395067,16.057786],[-16.395442,16.057965],[-16.39493,16.058239],[-16.394746,16.058692],[-16.39405,16.059375],[-16.393072,16.059878],[-16.393122,16.06033],[-16.393683,16.060326],[-16.394247,16.060865],[-16.395274,16.060677],[-16.395478,16.060807],[-16.395113,16.061121],[-16.394183,16.060867],[-16.393586,16.060893],[-16.392751,16.061847],[-16.39244,16.062482],[-16.392487,16.063111],[-16.39281,16.063554],[-16.393674,16.064191],[-16.393795,16.064465],[-16.392926,16.065844],[-16.392508,16.066163],[-16.392182,16.066301],[-16.39115,16.065788],[-16.391302,16.065368],[-16.39068,16.065076],[-16.390372,16.064716],[-16.39039,16.064325],[-16.390983,16.06376],[-16.391125,16.063257],[-16.391128,16.062467],[-16.390519,16.061987],[-16.390847,16.061467],[-16.391179,16.060304],[-16.391301,16.060613],[-16.391441,16.060567],[-16.391905,16.060021],[-16.391693,16.059397],[-16.391818,16.059079],[-16.391551,16.059107],[-16.391429,16.058849],[-16.391522,16.058758],[-16.390628,16.057906],[-16.390118,16.058451],[-16.390822,16.059347],[-16.389601,16.059311],[-16.388623,16.060364],[-16.387442,16.062182],[-16.387168,16.064614],[-16.386825,16.065758],[-16.385927,16.065663],[-16.386167,16.064802],[-16.386451,16.062041],[-16.387602,16.059897],[-16.387867,16.05905],[-16.387642,16.058028],[-16.387257,16.057376],[-16.386959,16.057189],[-16.385854,16.058563],[-16.383568,16.059809],[-16.382857,16.06035],[-16.381297,16.062231],[-16.38047,16.062716],[-16.379407,16.063072],[-16.378991,16.063405],[-16.37785,16.065849],[-16.37752,16.067336],[-16.375849,16.068876],[-16.37551,16.069379],[-16.375094,16.069514],[-16.374451,16.068907],[-16.373484,16.069047],[-16.372809,16.069405],[-16.372189,16.070533],[-16.371759,16.070518],[-16.371589,16.070338],[-16.37151,16.069688],[-16.371613,16.068377],[-16.371321,16.06799],[-16.370985,16.067965],[-16.371325,16.067297],[-16.374513,16.065386],[-16.375678,16.063483],[-16.37658,16.062457],[-16.376821,16.061878],[-16.377098,16.060084],[-16.377511,16.059437],[-16.377574,16.058983],[-16.378958,16.05565],[-16.388055,16.04272],[-16.389265,16.04057],[-16.390229,16.038154],[-16.390749,16.037494],[-16.39149,16.035822],[-16.392083,16.03512],[-16.392678,16.0349],[-16.392316,16.033701],[-16.392002,16.033381],[-16.391574,16.033239],[-16.391149,16.033346],[-16.390369,16.034057],[-16.389238,16.034081],[-16.387842,16.034822],[-16.385855,16.03535],[-16.384461,16.035215],[-16.381958,16.034029],[-16.379591,16.03371],[-16.378092,16.035961],[-16.376075,16.037546],[-16.375454,16.038237],[-16.374433,16.04063],[-16.373362,16.04258],[-16.369771,16.047818],[-16.36876,16.048882],[-16.366703,16.05016],[-16.365775,16.051097],[-16.36523,16.052059],[-16.364266,16.054568],[-16.363257,16.055994],[-16.361957,16.057331],[-16.360516,16.058415],[-16.359482,16.059009],[-16.357403,16.059764],[-16.356408,16.060511],[-16.354299,16.063796],[-16.350948,16.067234],[-16.349733,16.068733],[-16.347481,16.072941],[-16.346017,16.074893],[-16.344893,16.075958],[-16.343403,16.076763],[-16.342622,16.077382],[-16.340491,16.080188],[-16.337639,16.082899],[-16.336852,16.084134],[-16.335742,16.087214],[-16.334396,16.089006],[-16.334363,16.084761]],[[-16.378213,16.060279],[-16.377423,16.060617],[-16.377109,16.061616],[-16.377165,16.062533],[-16.377469,16.06278],[-16.377741,16.062727],[-16.377811,16.062339],[-16.378026,16.062164],[-16.378657,16.062366],[-16.378666,16.061816],[-16.379474,16.060525],[-16.378212,16.06011],[-16.378213,16.060279]]],[[[-16.393328,16.067088],[-16.393317,16.067235],[-16.393286,16.067372],[-16.393328,16.067088]]],[[[-16.392843,16.067291],[-16.393362,16.068574],[-16.392996,16.069227],[-16.392845,16.070362],[-16.390812,16.071408],[-16.390488,16.071884],[-16.390577,16.072332],[-16.389381,16.073465],[-16.388643,16.073996],[-16.387266,16.073958],[-16.386915,16.073486],[-16.38646,16.073538],[-16.386157,16.073364],[-16.386776,16.069836],[-16.387068,16.069954],[-16.387965,16.071482],[-16.38762,16.07226],[-16.387868,16.07239],[-16.388232,16.072111],[-16.389185,16.07215],[-16.389692,16.071198],[-16.391592,16.068835],[-16.392289,16.068198],[-16.392843,16.067291]]],[[[-16.391081,16.059236],[-16.391057,16.059123],[-16.391149,16.058896],[-16.391337,16.059076],[-16.391081,16.059236]]]]}},{"type":"Feature","properties":{"categorie":"Plaine inondable"},"geometry":{"type":"Polygon","coordinates":[[[-16.333353,16.009748],[-16.334648,16.005888],[-16.335022,16.006244],[-16.335421,16.00633],[-16.338091,16.005957],[-16.338805,16.00686],[-16.340741,16.005865],[-16.342032,16.004673],[-16.343087,16.003148],[-16.343667,16.001789],[-16.343991,16.001407],[-16.34393,16.000585],[-16.343266,15.999116],[-16.344049,15.998831],[-16.345039,15.998797],[-16.345488,15.998822],[-16.346108,15.99927],[-16.346156,16.000969],[-16.345885,16.002389],[-16.344909,16.003137],[-16.34209,16.006408],[-16.33853,16.011989],[-16.338076,16.012525],[-16.337071,16.013281],[-16.336874,16.014557],[-16.335424,16.015705],[-16.334908,16.014735],[-16.334293,16.015097],[-16.333435,16.014748],[-16.333486,16.013932],[-16.332927,16.013643],[-16.332806,16.013411],[-16.332904,16.012749],[-16.333762,16.011862],[-16.334016,16.011336],[-16.333936,16.010474],[-16.333353,16.009748]]]}}]}