{"type":"FeatureCollection","name":"habitat-zapa.geojson","features":[{"type":"Feature","properties":{"categorie":"Culture maraichère"},"geometry":{"type":"MultiPolygon","coordinates":[[[[-16.424792,15.847608],[-16.424635,15.85384],[-16.425603,15.855111],[-16.422137,15.859974],[-16.420726,15.862448],[-16.420158,15.863095],[-16.418824,15.864115],[-16.418036,15.865058],[-16.417302,15.867904],[-16.417371,15.868274],[-16.417855,15.86855],[-16.418824,15.8667],[-16.419083,15.865903],[-16.419522,15.865301],[-16.420156,15.864918],[-16.420987,15.86499],[-16.420405,15.865885],[-16.419443,15.868969],[-16.418531,15.870865],[-16.41873,15.871842],[-16.419195,15.87233],[-16.419629,15.87185],[-16.420072,15.870891],[-16.420249,15.869086],[-16.422671,15.864986],[-16.423581,15.864201],[-16.424185,15.863909],[-16.425146,15.864016],[-16.425748,15.864423],[-16.425445,15.865592],[-16.424631,15.866908],[-16.424413,15.868316],[-16.424033,15.869321],[-16.423458,15.869409],[-16.422933,15.86984],[-16.421805,15.871934],[-16.421007,15.875141],[-16.419731,15.876574],[-16.418914,15.87809],[-16.417064,15.880662],[-16.418309,15.882096],[-16.418295,15.883688],[-16.41878,15.88399],[-16.419308,15.883207],[-16.419497,15.882582],[-16.419405,15.881047],[-16.420019,15.880098],[-16.420473,15.878488],[-16.421594,15.877275],[-16.421975,15.875643],[-16.423289,15.87368],[-16.423377,15.872111],[-16.424703,15.87257],[-16.42465,15.873982],[-16.424776,15.874245],[-16.424949,15.874315],[-16.425613,15.873809],[-16.42588,15.873257],[-16.425792,15.870659],[-16.425399,15.869972],[-16.424761,15.86949],[-16.425392,15.868254],[-16.42607,15.867736],[-16.426811,15.866696],[-16.426645,15.866587],[-16.427157,15.865522],[-16.42674,15.865295],[-16.427701,15.862792],[-16.429123,15.86054],[-16.429037,15.860327],[-16.427137,15.858756],[-16.427746,15.857922],[-16.42935,15.860027],[-16.437388,15.869445],[-16.437482,15.870012],[-16.43693,15.870842],[-16.435932,15.870683],[-16.434928,15.871548],[-16.434163,15.873351],[-16.431648,15.878163],[-16.429845,15.877751],[-16.428583,15.879034],[-16.428194,15.879874],[-16.428807,15.880187],[-16.428547,15.881331],[-16.427837,15.882576],[-16.426833,15.883781],[-16.426371,15.884589],[-16.425899,15.885842],[-16.425374,15.888028],[-16.424411,15.88874],[-16.424268,15.889307],[-16.424115,15.889285],[-16.423651,15.889112],[-16.42351,15.888782],[-16.423941,15.885912],[-16.425476,15.884287],[-16.426306,15.882736],[-16.427269,15.881495],[-16.427641,15.880535],[-16.427819,15.879561],[-16.426987,15.878653],[-16.429507,15.874427],[-16.430748,15.874253],[-16.430751,15.873808],[-16.43033,15.8735],[-16.428551,15.870092],[-16.42831,15.868557],[-16.427734,15.867935],[-16.427412,15.868157],[-16.427188,15.869049],[-16.428028,15.869831],[-16.427188,15.870701],[-16.427273,15.871228],[-16.42788,15.872332],[-16.427773,15.873445],[-16.427009,15.875227],[-16.425586,15.877059],[-16.425844,15.879009],[-16.425318,15.88097],[-16.423731,15.883824],[-16.421788,15.886306],[-16.421809,15.8866],[-16.422306,15.887373],[-16.422235,15.888513],[-16.421864,15.889393],[-16.420402,15.891761],[-16.419223,15.896471],[-16.419273,15.896764],[-16.419941,15.897271],[-16.420383,15.897877],[-16.421118,15.899704],[-16.421372,15.901135],[-16.421757,15.901758],[-16.420013,15.907563],[-16.419526,15.907955],[-16.419246,15.907867],[-16.41906,15.908094],[-16.419391,15.908589],[-16.419484,15.908498],[-16.419681,15.908686],[-16.419505,15.90928],[-16.419397,15.909493],[-16.419303,15.909403],[-16.419047,15.909563],[-16.418933,15.909948],[-16.418423,15.910358],[-16.418571,15.911133],[-16.417921,15.912423],[-16.417702,15.912543],[-16.417783,15.912441],[-16.416892,15.911859],[-16.415352,15.912005],[-16.414703,15.912732],[-16.414707,15.91332],[-16.414522,15.913547],[-16.413638,15.913959],[-16.413264,15.913962],[-16.412982,15.913692],[-16.412842,15.913738],[-16.412474,15.914509],[-16.412568,15.914644],[-16.41201,15.914919],[-16.410944,15.916056],[-16.410812,15.917231],[-16.411005,15.918179],[-16.410727,15.918543],[-16.411245,15.919127],[-16.411378,15.919503],[-16.409928,15.921853],[-16.408941,15.923838],[-16.405558,15.928256],[-16.406583,15.928936],[-16.406278,15.929536],[-16.404823,15.929962],[-16.403259,15.931586],[-16.400927,15.931079],[-16.40042,15.932053],[-16.399804,15.932296],[-16.399307,15.931941],[-16.39902,15.930687],[-16.400354,15.929098],[-16.399604,15.926478],[-16.400922,15.925521],[-16.401296,15.925586],[-16.401853,15.925063],[-16.402367,15.925104],[-16.402738,15.924741],[-16.402549,15.924516],[-16.402642,15.924334],[-16.403567,15.923063],[-16.404312,15.922787],[-16.404544,15.922514],[-16.405011,15.922511],[-16.405057,15.922376],[-16.404119,15.921885],[-16.404113,15.921071],[-16.404348,15.92116],[-16.404487,15.921024],[-16.404111,15.92071],[-16.404197,15.919715],[-16.405052,15.919215],[-16.405362,15.919255],[-16.4062,15.918979],[-16.406715,15.919111],[-16.407092,15.919651],[-16.407608,15.919964],[-16.408727,15.919685],[-16.409758,15.920131],[-16.410735,15.919582],[-16.410266,15.919404],[-16.410035,15.919677],[-16.409564,15.919138],[-16.409231,15.918281],[-16.409321,15.917783],[-16.408945,15.91747],[-16.409038,15.917333],[-16.40885,15.917154],[-16.409593,15.916562],[-16.408752,15.916567],[-16.408937,15.916295],[-16.408655,15.916025],[-16.408838,15.915527],[-16.408744,15.915392],[-16.409023,15.915255],[-16.408836,15.91512],[-16.40902,15.914848],[-16.408693,15.914715],[-16.408367,15.914897],[-16.408179,15.914673],[-16.408451,15.913496],[-16.40775,15.913546],[-16.407241,15.914091],[-16.40617,15.914641],[-16.40575,15.914598],[-16.405372,15.914058],[-16.404812,15.914062],[-16.404627,15.914289],[-16.404492,15.915013],[-16.404259,15.91515],[-16.40356,15.91529],[-16.403,15.914919],[-16.405385,15.912887],[-16.407269,15.910148],[-16.40843,15.910213],[-16.409041,15.9089],[-16.409764,15.906569],[-16.410167,15.90591],[-16.409938,15.905664],[-16.409462,15.905806],[-16.408972,15.906311],[-16.407844,15.908195],[-16.406677,15.90822],[-16.406139,15.907934],[-16.405849,15.907582],[-16.406708,15.906033],[-16.408131,15.904375],[-16.408014,15.904022],[-16.406754,15.903885],[-16.406089,15.904083],[-16.405635,15.90442],[-16.404167,15.908196],[-16.403447,15.909311],[-16.401922,15.912503],[-16.400582,15.911496],[-16.40304,15.907273],[-16.403394,15.906313],[-16.403129,15.905612],[-16.40155,15.905186],[-16.401405,15.904792],[-16.403038,15.90199],[-16.405009,15.899628],[-16.404794,15.899107],[-16.40444,15.898962],[-16.403682,15.899948],[-16.400062,15.903678],[-16.399346,15.902816],[-16.402191,15.898851],[-16.401656,15.895401],[-16.401858,15.894409],[-16.402791,15.893062],[-16.403738,15.893064],[-16.404662,15.893845],[-16.40584,15.892522],[-16.404657,15.891485],[-16.406154,15.886478],[-16.407435,15.880879],[-16.407611,15.880613],[-16.407888,15.880534],[-16.408851,15.880767],[-16.409555,15.8817],[-16.409648,15.882771],[-16.408768,15.88741],[-16.406977,15.891824],[-16.408073,15.8923],[-16.407817,15.892772],[-16.406184,15.894095],[-16.406162,15.894596],[-16.40639,15.89493],[-16.407253,15.894828],[-16.409797,15.893178],[-16.410274,15.893501],[-16.410242,15.894572],[-16.409399,15.895611],[-16.408634,15.895174],[-16.408072,15.895332],[-16.406656,15.896394],[-16.407234,15.897392],[-16.40674,15.898441],[-16.405992,15.899337],[-16.405846,15.899771],[-16.407059,15.900362],[-16.407314,15.899948],[-16.406877,15.899625],[-16.408152,15.898278],[-16.40915,15.89676],[-16.410455,15.896809],[-16.410872,15.89717],[-16.410781,15.898184],[-16.410348,15.898532],[-16.410237,15.899565],[-16.409805,15.900066],[-16.408777,15.899996],[-16.408073,15.900879],[-16.411239,15.903008],[-16.413636,15.898535],[-16.413377,15.897059],[-16.410995,15.896805],[-16.410491,15.895422],[-16.411042,15.892955],[-16.413548,15.890882],[-16.414714,15.891448],[-16.413887,15.893239],[-16.414166,15.893802],[-16.414534,15.894054],[-16.415748,15.892284],[-16.41612,15.892004],[-16.416778,15.889809],[-16.415534,15.888573],[-16.416236,15.886584],[-16.41343,15.884594],[-16.415118,15.879772],[-16.415595,15.879395],[-16.416208,15.879798],[-16.416819,15.879069],[-16.418878,15.87584],[-16.419329,15.874358],[-16.419248,15.873795],[-16.418626,15.873223],[-16.418127,15.873125],[-16.417526,15.873405],[-16.417018,15.873994],[-16.416638,15.875063],[-16.416853,15.876881],[-16.416207,15.877213],[-16.415495,15.876989],[-16.415317,15.875718],[-16.415481,15.873896],[-16.41607,15.872302],[-16.416857,15.870886],[-16.41697,15.870309],[-16.416684,15.869186],[-16.415652,15.868803],[-16.415068,15.868163],[-16.416786,15.865863],[-16.418371,15.863031],[-16.419887,15.861116],[-16.421577,15.858463],[-16.423811,15.855609],[-16.423801,15.854205],[-16.422759,15.852762],[-16.421689,15.854294],[-16.420045,15.857623],[-16.41927,15.857209],[-16.420174,15.854035],[-16.420963,15.852027],[-16.422151,15.849658],[-16.423029,15.847201],[-16.424792,15.847608]],[[-16.412138,15.906535],[-16.412604,15.906419],[-16.41367,15.905192],[-16.413756,15.904197],[-16.413425,15.903612],[-16.412817,15.90348],[-16.412024,15.903621],[-16.411327,15.904123],[-16.411239,15.904846],[-16.411522,15.905296],[-16.411786,15.906334],[-16.412138,15.906535]],[[-16.408543,15.913315],[-16.408823,15.913313],[-16.408729,15.913223],[-16.409288,15.912993],[-16.409617,15.913262],[-16.411762,15.912887],[-16.411903,15.912976],[-16.412368,15.912702],[-16.412642,15.911887],[-16.413108,15.911748],[-16.412257,15.910217],[-16.412625,15.909402],[-16.412387,15.908725],[-16.411506,15.90968],[-16.410668,15.909957],[-16.410297,15.910411],[-16.409036,15.910374],[-16.408804,15.910556],[-16.408387,15.911101],[-16.408394,15.912005],[-16.407974,15.912143],[-16.407882,15.912325],[-16.408119,15.91282],[-16.408541,15.913044],[-16.408543,15.913315]],[[-16.408972,15.914622],[-16.408973,15.914713],[-16.409019,15.914667],[-16.408972,15.914622]],[[-16.409603,15.918053],[-16.409604,15.918143],[-16.409697,15.918097],[-16.409603,15.918053]],[[-16.410258,15.918229],[-16.410352,15.918229],[-16.410304,15.918139],[-16.410258,15.918229]],[[-16.404532,15.920797],[-16.404532,15.920888],[-16.404579,15.920842],[-16.404532,15.920797]]],[[[-16.414051,15.916374],[-16.413747,15.916218],[-16.413834,15.915314],[-16.414624,15.914811],[-16.414437,15.914677],[-16.414529,15.914541],[-16.415089,15.914537],[-16.415464,15.914715],[-16.415279,15.914897],[-16.415587,15.915261],[-16.414394,15.915898],[-16.414051,15.916374]]],[[[-16.419576,15.908407],[-16.419577,15.908497],[-16.41953,15.908452],[-16.419576,15.908407]]],[[[-16.419669,15.908316],[-16.41967,15.908406],[-16.419623,15.908362],[-16.419669,15.908316]]],[[[-16.41289,15.913874],[-16.412889,15.913783],[-16.412936,15.913828],[-16.41289,15.913874]]]]}},{"type":"Feature","properties":{"categorie":"Culture irriguée"},"geometry":{"type":"Polygon","coordinates":[[[-16.345378,15.976631],[-16.350174,15.962771],[-16.352521,15.954667],[-16.359748,15.955654],[-16.363141,15.963986],[-16.36212,15.966527],[-16.361134,15.966964],[-16.359265,15.967313],[-16.357207,15.975575],[-16.35611,15.97679],[-16.355433,15.977273],[-16.355498,15.977631],[-16.355961,15.977568],[-16.356924,15.976713],[-16.356575,15.978239],[-16.345378,15.976631]]]}},{"type":"Feature","properties":{"categorie":"Culture maraichère"},"geometry":{"type":"MultiPolygon","coordinates":[[[[-16.475967,15.956653],[-16.476769,15.957687],[-16.476585,15.958095],[-16.476774,15.95841],[-16.476464,15.959136],[-16.475967,15.956653]]],[[[-16.475766,15.955736],[-16.475822,15.955886],[-16.475806,15.955931],[-16.475766,15.955736]]],[[[-16.47577,15.955209],[-16.475911,15.955388],[-16.475765,15.955585],[-16.47577,15.955209]]],[[[-16.475774,15.954918],[-16.47578,15.952546],[-16.475578,15.951449],[-16.475774,15.951136],[-16.476065,15.951042],[-16.476547,15.951734],[-16.477369,15.953496],[-16.478182,15.956737],[-16.477784,15.956008],[-16.477698,15.957003],[-16.477091,15.957007],[-16.477135,15.956645],[-16.476849,15.955924],[-16.476568,15.955745],[-16.476335,15.955837],[-16.476005,15.955478],[-16.476423,15.955113],[-16.476657,15.955112],[-16.476798,15.955292],[-16.47703,15.955064],[-16.476982,15.954929],[-16.476888,15.954839],[-16.476656,15.955021],[-16.475952,15.954574],[-16.475774,15.954918]],[[-16.477033,15.955425],[-16.477126,15.955425],[-16.477079,15.95538],[-16.477033,15.955425]],[[-16.476892,15.955381],[-16.476893,15.955472],[-16.476939,15.955426],[-16.476892,15.955381]],[[-16.476799,15.955472],[-16.4768,15.955563],[-16.476847,15.955517],[-16.476799,15.955472]],[[-16.47769,15.955873],[-16.477783,15.955872],[-16.477736,15.955827],[-16.47769,15.955873]],[[-16.477321,15.956553],[-16.477415,15.956553],[-16.477367,15.956463],[-16.477321,15.956553]]],[[[-16.479585,15.958205],[-16.47954,15.954923],[-16.479197,15.953988],[-16.478496,15.952826],[-16.47891,15.95269],[-16.479466,15.952954],[-16.480689,15.955279],[-16.481385,15.955791],[-16.481494,15.956384],[-16.480963,15.956393],[-16.479728,15.956785],[-16.479851,15.95762],[-16.479807,15.957982],[-16.479585,15.958205]]],[[[-16.476993,15.961131],[-16.477218,15.961615],[-16.477294,15.962106],[-16.477261,15.962047],[-16.476993,15.961131]]],[[[-16.47685,15.956059],[-16.476757,15.95606],[-16.476803,15.956015],[-16.47685,15.956059]]]]}},{"type":"Feature","properties":{"categorie":"Culture maraichère"},"geometry":{"type":"Polygon","coordinates":[]}},{"type":"Feature","properties":{"categorie":"Culture pluviale"},"geometry":{"type":"MultiPolygon","coordinates":[[[[-16.419695,15.9087],[-16.420045,15.908675],[-16.419994,15.908088],[-16.420273,15.907905],[-16.420179,15.907816],[-16.420365,15.907634],[-16.420013,15.907563],[-16.421757,15.901758],[-16.421636,15.901563],[-16.422851,15.900896],[-16.424763,15.898529],[-16.42565,15.898188],[-16.427435,15.899216],[-16.428153,15.899078],[-16.428945,15.899226],[-16.428734,15.899842],[-16.42887,15.9006],[-16.429133,15.900806],[-16.429824,15.900765],[-16.430218,15.900935],[-16.430595,15.901492],[-16.430721,15.90216],[-16.430726,15.90282],[-16.430373,15.904495],[-16.429238,15.906328],[-16.428466,15.906866],[-16.427821,15.906798],[-16.427621,15.906185],[-16.42791,15.904827],[-16.427684,15.904476],[-16.427414,15.904393],[-16.426487,15.902525],[-16.425987,15.902395],[-16.425142,15.902983],[-16.424639,15.904513],[-16.424663,15.904921],[-16.425227,15.905754],[-16.425129,15.906582],[-16.423764,15.907572],[-16.42269,15.907555],[-16.422711,15.908586],[-16.422368,15.909218],[-16.422037,15.909535],[-16.421046,15.909982],[-16.42066,15.911009],[-16.420232,15.911612],[-16.419107,15.911925],[-16.419924,15.911297],[-16.420105,15.910573],[-16.41982,15.909851],[-16.419397,15.909493],[-16.419695,15.9087]]],[[[-16.418571,15.911133],[-16.418805,15.911621],[-16.418595,15.911809],[-16.418309,15.911654],[-16.418571,15.911133]]],[[[-16.419949,15.908314],[-16.41995,15.908405],[-16.419903,15.90836],[-16.419949,15.908314]]]]}},{"type":"Feature","properties":{"categorie":"Culture pluviale"},"geometry":{"type":"MultiPolygon","coordinates":[[[[-16.47418,15.935878],[-16.473869,15.937602],[-16.474,15.939619],[-16.473786,15.939405],[-16.473507,15.939588],[-16.47332,15.939499],[-16.472901,15.939728],[-16.472903,15.939999],[-16.472436,15.940002],[-16.472201,15.939778],[-16.471542,15.940151],[-16.471391,15.939264],[-16.472272,15.93811],[-16.473136,15.937889],[-16.473762,15.937426],[-16.473841,15.936676],[-16.47418,15.935878]]],[[[-16.474067,15.940661],[-16.474029,15.940624],[-16.474063,15.940607],[-16.474067,15.940661]]],[[[-16.474376,15.943845],[-16.47399,15.944348],[-16.473822,15.944468],[-16.474257,15.943342],[-16.474376,15.943845]]],[[[-16.473277,15.943823],[-16.473866,15.943969],[-16.473543,15.944537],[-16.473277,15.943823]]],[[[-16.473088,15.939727],[-16.472994,15.939727],[-16.473041,15.939682],[-16.473088,15.939727]]]]}},{"type":"Feature","properties":{"categorie":"Culture pluviale"},"geometry":{"type":"Polygon","coordinates":[[[-16.41061,15.944537],[-16.409622,15.944488],[-16.408849,15.943816],[-16.409051,15.943336],[-16.408964,15.941574],[-16.409288,15.941165],[-16.410831,15.940025],[-16.412368,15.938145],[-16.412278,15.937232],[-16.412815,15.936497],[-16.412927,15.935258],[-16.41337,15.934423],[-16.413966,15.934139],[-16.415156,15.934773],[-16.41538,15.934726],[-16.415481,15.934437],[-16.415276,15.933227],[-16.415532,15.932439],[-16.416611,15.931673],[-16.417138,15.931],[-16.418088,15.930632],[-16.418329,15.930306],[-16.418344,15.929745],[-16.418145,15.929376],[-16.417706,15.929306],[-16.416839,15.929565],[-16.416911,15.929294],[-16.417504,15.928585],[-16.418267,15.928164],[-16.418989,15.927129],[-16.419492,15.927035],[-16.419662,15.927269],[-16.419399,15.928446],[-16.419533,15.928861],[-16.420471,15.928014],[-16.421041,15.928055],[-16.421286,15.928451],[-16.421181,15.929356],[-16.420392,15.931503],[-16.42049,15.933364],[-16.419513,15.934021],[-16.418273,15.935656],[-16.417037,15.936568],[-16.416762,15.937329],[-16.417008,15.937707],[-16.416481,15.938737],[-16.416147,15.93878],[-16.414896,15.93764],[-16.414457,15.937607],[-16.414095,15.937871],[-16.413963,15.93911],[-16.412867,15.940021],[-16.412982,15.9404],[-16.413631,15.941001],[-16.413812,15.941597],[-16.413061,15.943753],[-16.412984,15.94528],[-16.41061,15.944537]]]}},{"type":"Feature","properties":{"categorie":"Culture pluviale"},"geometry":{"type":"Polygon","coordinates":[[[-16.497194,15.947031],[-16.498418,15.946648],[-16.498671,15.946766],[-16.498735,15.946549],[-16.501226,15.945867],[-16.500425,15.947353],[-16.500458,15.950624],[-16.500196,15.951051],[-16.5004,15.951968],[-16.50013,15.952869],[-16.500077,15.953711],[-16.500246,15.955202],[-16.500151,15.955624],[-16.500504,15.956265],[-16.500979,15.958898],[-16.50144,15.958818],[-16.501062,15.959525],[-16.501426,15.960563],[-16.501399,15.961253],[-16.501574,15.961924],[-16.501229,15.962735],[-16.501124,15.962778],[-16.50116,15.962579],[-16.500842,15.962716],[-16.499933,15.963403],[-16.499771,15.963261],[-16.501061,15.96055],[-16.500901,15.959045],[-16.50059,15.958519],[-16.499476,15.960365],[-16.498617,15.963609],[-16.496878,15.963486],[-16.496578,15.963325],[-16.496464,15.963064],[-16.496646,15.962331],[-16.497597,15.960833],[-16.497908,15.960035],[-16.497628,15.9587],[-16.49781,15.958084],[-16.498541,15.957121],[-16.49884,15.953449],[-16.498586,15.95186],[-16.498604,15.95055],[-16.497842,15.949868],[-16.497789,15.949037],[-16.497496,15.948551],[-16.496407,15.947738],[-16.497194,15.947031]]]}},{"type":"Feature","properties":{"categorie":"Culture pluviale"},"geometry":{"type":"MultiPolygon","coordinates":[[[[-16.491933,15.947989],[-16.492399,15.948993],[-16.492306,15.949084],[-16.492589,15.949444],[-16.493432,15.949709],[-16.493762,15.950113],[-16.4939,15.949841],[-16.494605,15.950379],[-16.494643,15.950222],[-16.494887,15.950738],[-16.495119,15.951742],[-16.495093,15.952838],[-16.495583,15.954358],[-16.495331,15.956704],[-16.495007,15.957374],[-16.494592,15.957292],[-16.494945,15.955712],[-16.494744,15.95254],[-16.494528,15.951333],[-16.493975,15.951243],[-16.493732,15.951445],[-16.493407,15.952226],[-16.493226,15.953907],[-16.492761,15.954568],[-16.492817,15.955368],[-16.492604,15.956128],[-16.492821,15.956895],[-16.494393,15.959447],[-16.494423,15.960124],[-16.494116,15.96147],[-16.492033,15.962697],[-16.491737,15.963106],[-16.491469,15.964153],[-16.491006,15.964571],[-16.490039,15.964582],[-16.487699,15.965555],[-16.487681,15.965299],[-16.489163,15.963179],[-16.490138,15.962613],[-16.490458,15.961707],[-16.490695,15.96172],[-16.490812,15.96209],[-16.490395,15.962157],[-16.490073,15.962882],[-16.490451,15.963422],[-16.491102,15.963101],[-16.490913,15.962831],[-16.491098,15.962559],[-16.491028,15.96236],[-16.491767,15.962329],[-16.492198,15.961185],[-16.491102,15.959314],[-16.490719,15.956795],[-16.490956,15.953724],[-16.490811,15.951462],[-16.491011,15.950801],[-16.49176,15.949748],[-16.491637,15.948008],[-16.491933,15.947989]]],[[[-16.493898,15.947864],[-16.49391,15.94792],[-16.493888,15.948058],[-16.493898,15.947864]]],[[[-16.493936,15.948638],[-16.494012,15.948905],[-16.494167,15.949369],[-16.493936,15.948638]]],[[[-16.494401,15.94978],[-16.494272,15.949613],[-16.494266,15.949595],[-16.494401,15.94978]]],[[[-16.494542,15.949975],[-16.494531,15.949972],[-16.494508,15.949928],[-16.494542,15.949975]]],[[[-16.492539,15.948947],[-16.492539,15.949037],[-16.492492,15.948992],[-16.492539,15.948947]]]]}},{"type":"Feature","properties":{"categorie":"Culture pluviale"},"geometry":{"type":"Polygon","coordinates":[[[-16.438345,15.965849],[-16.437425,15.964981],[-16.436842,15.964128],[-16.436406,15.963008],[-16.436219,15.9616],[-16.435943,15.961165],[-16.435244,15.960787],[-16.433488,15.960356],[-16.432857,15.959664],[-16.431798,15.959238],[-16.431466,15.958436],[-16.430855,15.957961],[-16.427209,15.957623],[-16.42664,15.95769],[-16.426473,15.955233],[-16.426684,15.953325],[-16.427366,15.951991],[-16.42762,15.950968],[-16.429686,15.948569],[-16.430145,15.948699],[-16.429856,15.948875],[-16.429898,15.949345],[-16.430302,15.9494],[-16.429895,15.951667],[-16.429909,15.952363],[-16.430182,15.952705],[-16.430969,15.952908],[-16.431029,15.953549],[-16.431246,15.953782],[-16.43161,15.953726],[-16.432407,15.952817],[-16.432928,15.952551],[-16.435257,15.952996],[-16.436723,15.952887],[-16.437553,15.952611],[-16.438081,15.952011],[-16.438438,15.951077],[-16.438612,15.947859],[-16.438865,15.946655],[-16.439279,15.945766],[-16.440741,15.943886],[-16.440748,15.943551],[-16.440561,15.943444],[-16.440076,15.943574],[-16.439594,15.944074],[-16.439247,15.943968],[-16.43885,15.943356],[-16.438282,15.940892],[-16.437906,15.94066],[-16.437338,15.940872],[-16.437113,15.94081],[-16.436862,15.939619],[-16.436164,15.939994],[-16.435441,15.939429],[-16.434279,15.937566],[-16.434017,15.936293],[-16.433753,15.935843],[-16.431138,15.934577],[-16.429391,15.933233],[-16.429295,15.932954],[-16.429637,15.932409],[-16.429551,15.932111],[-16.427411,15.930725],[-16.42599,15.929225],[-16.425109,15.926176],[-16.425291,15.925451],[-16.426308,15.923999],[-16.426362,15.922353],[-16.427381,15.919879],[-16.427864,15.918186],[-16.429661,15.916014],[-16.429712,15.915227],[-16.429126,15.914336],[-16.430001,15.913906],[-16.433031,15.913181],[-16.4337,15.91258],[-16.434898,15.910321],[-16.437848,15.91071],[-16.439752,15.910397],[-16.440396,15.910524],[-16.440603,15.911277],[-16.441295,15.911499],[-16.441858,15.911974],[-16.442903,15.914434],[-16.444602,15.9168],[-16.445513,15.917616],[-16.447839,15.918911],[-16.448535,15.919603],[-16.448716,15.920098],[-16.448646,15.920677],[-16.448341,15.921213],[-16.447726,15.921801],[-16.449153,15.92318],[-16.451799,15.92421],[-16.452669,15.924839],[-16.452889,15.925463],[-16.453034,15.927902],[-16.45345,15.928742],[-16.453665,15.928985],[-16.454088,15.92867],[-16.455654,15.928927],[-16.456061,15.929693],[-16.45798,15.931478],[-16.458263,15.931919],[-16.45808,15.932417],[-16.45719,15.933391],[-16.456557,15.933594],[-16.455688,15.933618],[-16.45516,15.934218],[-16.455116,15.934643],[-16.455381,15.935048],[-16.456613,15.935122],[-16.456944,15.936142],[-16.456591,15.936469],[-16.454469,15.935642],[-16.453375,15.93594],[-16.454067,15.937911],[-16.454978,15.939294],[-16.455191,15.939888],[-16.455135,15.940522],[-16.454448,15.94274],[-16.455091,15.94556],[-16.455277,15.95106],[-16.455077,15.953632],[-16.453578,15.95341],[-16.452357,15.953433],[-16.452153,15.954969],[-16.45062,15.955949],[-16.450464,15.956718],[-16.449906,15.957011],[-16.449676,15.957555],[-16.449028,15.958282],[-16.448517,15.958737],[-16.44819,15.958694],[-16.447819,15.959064],[-16.445993,15.959235],[-16.443731,15.961798],[-16.443511,15.962529],[-16.443779,15.963212],[-16.44468,15.96382],[-16.445079,15.964586],[-16.446128,15.964886],[-16.446139,15.965803],[-16.445964,15.965922],[-16.445694,15.966814],[-16.445342,15.967215],[-16.443708,15.967784],[-16.441966,15.967761],[-16.440771,15.967362],[-16.438345,15.965849]],[[-16.450504,15.934862],[-16.45165,15.935049],[-16.452494,15.934717],[-16.452623,15.934522],[-16.452582,15.93288],[-16.452015,15.932589],[-16.451742,15.932063],[-16.451291,15.931787],[-16.449597,15.932407],[-16.449308,15.932296],[-16.449031,15.932795],[-16.449174,15.933155],[-16.449441,15.933329],[-16.449235,15.934269],[-16.450504,15.934862]]]}},{"type":"Feature","properties":{"categorie":"Culture pluviale"},"geometry":{"type":"Polygon","coordinates":[[[-16.450512,15.983761],[-16.449802,15.981908],[-16.448712,15.98059],[-16.4473,15.979945],[-16.446861,15.979996],[-16.446206,15.980417],[-16.445718,15.980395],[-16.445601,15.980244],[-16.446482,15.978685],[-16.448068,15.97767],[-16.448738,15.976754],[-16.449326,15.976559],[-16.451011,15.976444],[-16.451284,15.976685],[-16.451196,15.977343],[-16.449863,15.977554],[-16.449537,15.978415],[-16.449024,15.978856],[-16.449004,15.979039],[-16.449603,15.979568],[-16.450456,15.980922],[-16.451749,15.982094],[-16.452046,15.983515],[-16.453216,15.983271],[-16.4532,15.984284],[-16.453312,15.984385],[-16.454399,15.983376],[-16.454832,15.983229],[-16.455268,15.983666],[-16.455488,15.984463],[-16.455388,15.98707],[-16.455172,15.987349],[-16.454451,15.98756],[-16.454138,15.98781],[-16.453422,15.99006],[-16.452922,15.990525],[-16.452121,15.990627],[-16.451732,15.990427],[-16.451936,15.989404],[-16.451548,15.987658],[-16.451566,15.986868],[-16.450991,15.985726],[-16.450512,15.983761]]]}},{"type":"Feature","properties":{"categorie":"Culture pluviale"},"geometry":{"type":"Polygon","coordinates":[[[-16.447326,15.982768],[-16.447946,15.982923],[-16.448451,15.983303],[-16.448772,15.984178],[-16.449586,15.985193],[-16.449872,15.986005],[-16.449479,15.988047],[-16.449159,15.98883],[-16.449934,15.989729],[-16.450092,15.990496],[-16.449973,15.991468],[-16.449257,15.992913],[-16.448859,15.993171],[-16.44817,15.993313],[-16.447489,15.993261],[-16.4471,15.993051],[-16.446847,15.991751],[-16.44598,15.990879],[-16.446816,15.989821],[-16.447095,15.988611],[-16.446375,15.983264],[-16.446634,15.982941],[-16.447326,15.982768]]]}},{"type":"Feature","properties":{"categorie":"Culture pluviale"},"geometry":{"type":"Polygon","coordinates":[[[-16.347458,15.990493],[-16.347104,15.990023],[-16.345655,15.989429],[-16.345207,15.988811],[-16.345058,15.988235],[-16.345422,15.987641],[-16.346302,15.987021],[-16.347126,15.986711],[-16.348009,15.986637],[-16.349049,15.987034],[-16.349641,15.987657],[-16.349803,15.988615],[-16.349739,15.990215],[-16.349863,15.990474],[-16.350846,15.990468],[-16.351861,15.990068],[-16.352196,15.98973],[-16.352509,15.988749],[-16.352867,15.988211],[-16.353323,15.987781],[-16.353773,15.987695],[-16.354661,15.988074],[-16.355249,15.988697],[-16.355474,15.991143],[-16.355026,15.992163],[-16.35277,15.994429],[-16.351482,15.994969],[-16.350144,15.99506],[-16.348942,15.994751],[-16.348065,15.993785],[-16.347724,15.992879],[-16.347458,15.990493]]]}},{"type":"Feature","properties":{"categorie":"Culture irriguée"},"geometry":{"type":"Polygon","coordinates":[[[-16.339407,16.03746],[-16.33981,16.03564],[-16.341679,16.034079],[-16.342605,16.034921],[-16.34336,16.034893],[-16.346498,16.030837],[-16.349916,16.032547],[-16.352931,16.033518],[-16.356963,16.037331],[-16.356895,16.038336],[-16.35376,16.040938],[-16.352462,16.040946],[-16.348361,16.037851],[-16.344029,16.044586],[-16.341543,16.044458],[-16.336092,16.041785],[-16.335943,16.04016],[-16.337693,16.039262],[-16.33833,16.039093],[-16.339407,16.03746]]]}},{"type":"Feature","properties":{"categorie":"Culture irriguée"},"geometry":{"type":"MultiPolygon","coordinates":[[[[-16.448306,16.064612],[-16.448072,16.065478],[-16.447652,16.065617],[-16.44719,16.066252],[-16.446344,16.066843],[-16.445791,16.066759],[-16.445507,16.066219],[-16.445225,16.06604],[-16.444573,16.066361],[-16.444156,16.06677],[-16.443926,16.067314],[-16.444494,16.068304],[-16.44431,16.068757],[-16.444452,16.069028],[-16.44446,16.070112],[-16.443417,16.06804],[-16.443279,16.068358],[-16.443285,16.069171],[-16.443712,16.070117],[-16.444133,16.070159],[-16.444227,16.070249],[-16.444042,16.070431],[-16.444737,16.070825],[-16.443402,16.071828],[-16.44349,16.071655],[-16.443208,16.071431],[-16.442317,16.071121],[-16.441851,16.071305],[-16.440776,16.071176],[-16.440077,16.071588],[-16.439274,16.070283],[-16.438245,16.070289],[-16.437922,16.070789],[-16.437689,16.070881],[-16.436191,16.070529],[-16.435586,16.070985],[-16.434824,16.072486],[-16.434773,16.072202],[-16.433043,16.072141],[-16.431921,16.071804],[-16.431325,16.073743],[-16.428402,16.074124],[-16.42819,16.073249],[-16.426788,16.073177],[-16.426444,16.07214],[-16.424993,16.07186],[-16.423414,16.071943],[-16.41928,16.073028],[-16.419407,16.073705],[-16.417224,16.074397],[-16.416017,16.074953],[-16.414891,16.076284],[-16.413084,16.077091],[-16.410951,16.079117],[-16.409957,16.077753],[-16.405307,16.079772],[-16.404193,16.079662],[-16.403162,16.079154],[-16.401786,16.07768],[-16.401123,16.07641],[-16.401133,16.072425],[-16.400716,16.071713],[-16.401694,16.069872],[-16.402608,16.066225],[-16.40191,16.06593],[-16.405679,16.058214],[-16.406087,16.057877],[-16.408721,16.058553],[-16.40858,16.058782],[-16.408586,16.059596],[-16.408776,16.060047],[-16.408963,16.060136],[-16.409113,16.0614],[-16.409021,16.061672],[-16.409258,16.062122],[-16.409588,16.062527],[-16.410618,16.062791],[-16.410526,16.063063],[-16.410812,16.063739],[-16.411139,16.063737],[-16.411749,16.064184],[-16.412168,16.063911],[-16.412352,16.063548],[-16.412532,16.062552],[-16.412157,16.062374],[-16.41155,16.062423],[-16.410892,16.061885],[-16.410985,16.061794],[-16.410511,16.060894],[-16.410644,16.059853],[-16.411246,16.059263],[-16.414277,16.059756],[-16.415214,16.060105],[-16.414482,16.060642],[-16.414159,16.061231],[-16.414393,16.061365],[-16.414486,16.061274],[-16.414534,16.061409],[-16.414256,16.061728],[-16.41435,16.061817],[-16.414582,16.061635],[-16.415052,16.061994],[-16.415245,16.062806],[-16.415599,16.063278],[-16.415626,16.063888],[-16.415394,16.064025],[-16.415495,16.065109],[-16.414375,16.065432],[-16.413636,16.066567],[-16.413309,16.066705],[-16.413122,16.066616],[-16.412703,16.06689],[-16.41248,16.068337],[-16.411972,16.069199],[-16.41202,16.069425],[-16.412255,16.069559],[-16.411929,16.069787],[-16.411793,16.07042],[-16.411936,16.070781],[-16.412358,16.070959],[-16.412689,16.071499],[-16.412829,16.071408],[-16.413484,16.071584],[-16.413913,16.072756],[-16.414617,16.073158],[-16.416114,16.073374],[-16.417795,16.073137],[-16.418633,16.07268],[-16.421808,16.072297],[-16.423113,16.071746],[-16.42587,16.071592],[-16.426666,16.071903],[-16.428069,16.071984],[-16.429473,16.072291],[-16.430453,16.072014],[-16.430874,16.072056],[-16.431198,16.071647],[-16.431149,16.071331],[-16.431288,16.071104],[-16.431894,16.070919],[-16.432218,16.070465],[-16.432719,16.0687],[-16.432434,16.068069],[-16.432572,16.067752],[-16.433083,16.067342],[-16.432334,16.067121],[-16.432004,16.066671],[-16.431998,16.065948],[-16.4326,16.06513],[-16.433529,16.064266],[-16.433346,16.063337],[-16.43393,16.063883],[-16.434328,16.063153],[-16.433803,16.061799],[-16.434134,16.058776],[-16.434507,16.058773],[-16.434729,16.055626],[-16.436131,16.055144],[-16.43713,16.054895],[-16.43962,16.054726],[-16.440658,16.054909],[-16.441975,16.056075],[-16.443102,16.05679],[-16.443528,16.057465],[-16.443713,16.057193],[-16.443948,16.057372],[-16.444795,16.05827],[-16.445358,16.058537],[-16.446067,16.059617],[-16.446307,16.060519],[-16.446129,16.061831],[-16.446419,16.063049],[-16.44633,16.063682],[-16.446475,16.064314],[-16.446944,16.064582],[-16.447224,16.06449],[-16.447873,16.063763],[-16.448306,16.064612]],[[-16.443762,16.070569],[-16.443718,16.07084],[-16.443856,16.070658],[-16.443762,16.070569]],[[-16.415656,16.074643],[-16.415749,16.074642],[-16.415702,16.074552],[-16.415656,16.074643]],[[-16.413796,16.075966],[-16.414215,16.075827],[-16.414072,16.075421],[-16.413698,16.075424],[-16.413513,16.075741],[-16.413796,16.075966]],[[-16.413562,16.075922],[-16.413562,16.076012],[-16.413609,16.075967],[-16.413562,16.075922]],[[-16.408549,16.061042],[-16.408643,16.061042],[-16.408595,16.060952],[-16.408549,16.061042]],[[-16.407338,16.061547],[-16.407895,16.061046],[-16.407706,16.060731],[-16.407239,16.060734],[-16.406447,16.061146],[-16.406401,16.061327],[-16.40659,16.061552],[-16.407338,16.061547]],[[-16.409405,16.076311],[-16.409405,16.076401],[-16.409498,16.076355],[-16.409405,16.076311]],[[-16.411798,16.077741],[-16.411799,16.077832],[-16.411845,16.077786],[-16.411798,16.077741]],[[-16.403442,16.079107],[-16.403722,16.079105],[-16.403907,16.078878],[-16.403764,16.078427],[-16.403341,16.078068],[-16.402876,16.078478],[-16.403019,16.078793],[-16.403442,16.079107]]],[[[-16.430679,16.053758],[-16.429885,16.055019],[-16.431224,16.056445],[-16.43009,16.057768],[-16.430246,16.058036],[-16.431584,16.057898],[-16.431483,16.059173],[-16.432065,16.06028],[-16.432508,16.062126],[-16.432297,16.061969],[-16.432065,16.062152],[-16.431877,16.062062],[-16.431599,16.062335],[-16.431365,16.062292],[-16.431135,16.062881],[-16.430717,16.063245],[-16.429942,16.062731],[-16.429353,16.061989],[-16.429301,16.061221],[-16.42944,16.061085],[-16.429581,16.061264],[-16.430186,16.060899],[-16.430421,16.060988],[-16.431397,16.060258],[-16.431296,16.059174],[-16.43106,16.05895],[-16.431245,16.058632],[-16.431102,16.058181],[-16.430586,16.058004],[-16.42984,16.058145],[-16.429515,16.058463],[-16.429332,16.059007],[-16.428769,16.058739],[-16.428489,16.058809],[-16.428018,16.058292],[-16.427686,16.057571],[-16.428335,16.056844],[-16.42721,16.056354],[-16.42762,16.054951],[-16.428361,16.053952],[-16.429253,16.053113],[-16.430679,16.053758]]],[[[-16.444556,16.070473],[-16.444508,16.070338],[-16.444554,16.070202],[-16.444556,16.070473]]],[[[-16.429439,16.060972],[-16.429531,16.060813],[-16.429673,16.060993],[-16.429627,16.061083],[-16.429439,16.060972]]],[[[-16.429005,16.059099],[-16.428912,16.0591],[-16.428958,16.059009],[-16.429005,16.059099]]],[[[-16.43059,16.058478],[-16.430967,16.05895],[-16.430874,16.059041],[-16.430407,16.059045],[-16.430593,16.058953],[-16.430124,16.05873],[-16.430216,16.058549],[-16.43059,16.058478]]]]}},{"type":"Feature","properties":{"categorie":"Culture irriguée"},"geometry":{"type":"Polygon","coordinates":[[[-16.378253,16.083429],[-16.378783,16.081321],[-16.378429,16.080833],[-16.38006,16.078725],[-16.381045,16.079489],[-16.379869,16.081075],[-16.384011,16.082245],[-16.384114,16.082396],[-16.383539,16.083584],[-16.382869,16.083337],[-16.382588,16.084696],[-16.382369,16.084932],[-16.381607,16.084789],[-16.381142,16.08628],[-16.380493,16.087327],[-16.378665,16.087019],[-16.379444,16.083899],[-16.378253,16.083429]]]}},{"type":"Feature","properties":{"categorie":"Culture irriguée"},"geometry":{"type":"Polygon","coordinates":[[[-16.351197,16.068263],[-16.351931,16.067237],[-16.354297,16.064737],[-16.35765,16.067546],[-16.364893,16.058859],[-16.36708,16.060399],[-16.3673,16.060063],[-16.36508,16.058175],[-16.366365,16.056158],[-16.370766,16.059681],[-16.369332,16.061555],[-16.368418,16.060869],[-16.363736,16.066853],[-16.36406,16.067258],[-16.365619,16.068037],[-16.365613,16.068183],[-16.365403,16.068935],[-16.364462,16.070157],[-16.363034,16.073471],[-16.360213,16.073059],[-16.35946,16.07225],[-16.35885,16.071938],[-16.358375,16.070856],[-16.358369,16.069953],[-16.359342,16.068681],[-16.358307,16.067648],[-16.357794,16.067787],[-16.35744,16.070772],[-16.356884,16.071408],[-16.356805,16.073668],[-16.3561,16.074461],[-16.355173,16.075186],[-16.354371,16.080708],[-16.352143,16.082041],[-16.354678,16.085323],[-16.355139,16.086147],[-16.351619,16.089138],[-16.349215,16.086532],[-16.349068,16.085087],[-16.34914,16.083852],[-16.348828,16.083315],[-16.347807,16.08296],[-16.344645,16.082696],[-16.342293,16.081702],[-16.342566,16.081013],[-16.347086,16.075493],[-16.351197,16.068263]]]}},{"type":"Feature","properties":{"categorie":"Culture irriguée"},"geometry":{"type":"Polygon","coordinates":[[[-16.346879,16.093235],[-16.347449,16.094588],[-16.349421,16.095931],[-16.349058,16.097247],[-16.340771,16.102493],[-16.338793,16.100336],[-16.339067,16.09925],[-16.346036,16.09297],[-16.346879,16.093235]],[[-16.344409,16.099912],[-16.344503,16.099912],[-16.344456,16.099867],[-16.344409,16.099912]],[[-16.344503,16.100002],[-16.344597,16.100001],[-16.34455,16.099956],[-16.344503,16.100002]]]}},{"type":"Feature","properties":{"categorie":"Culture irriguée"},"geometry":{"type":"Polygon","coordinates":[[[-16.366776,16.105032],[-16.36598,16.103777],[-16.365908,16.103405],[-16.366067,16.103099],[-16.368073,16.101674],[-16.369588,16.101136],[-16.369799,16.100864],[-16.368687,16.097373],[-16.369339,16.096618],[-16.371096,16.095187],[-16.373373,16.093831],[-16.373621,16.093241],[-16.374359,16.092518],[-16.375191,16.091157],[-16.376584,16.089792],[-16.3791,16.088692],[-16.380493,16.087327],[-16.382447,16.085959],[-16.383557,16.084325],[-16.384395,16.08334],[-16.384449,16.083433],[-16.386059,16.081055],[-16.38801,16.079415],[-16.390095,16.077233],[-16.391347,16.080309],[-16.397392,16.092531],[-16.398479,16.093952],[-16.396669,16.095577],[-16.395703,16.096243],[-16.394216,16.096937],[-16.391998,16.097623],[-16.389157,16.097648],[-16.384319,16.097206],[-16.381601,16.097845],[-16.378075,16.100072],[-16.373402,16.103304],[-16.369419,16.104985],[-16.367571,16.10514],[-16.366776,16.105032]]]}},{"type":"Feature","properties":{"categorie":"Culture irriguée"},"geometry":{"type":"MultiPolygon","coordinates":[[[[-16.350027,16.113894],[-16.350017,16.11359],[-16.350034,16.11333],[-16.350027,16.113894]]],[[[-16.349282,16.121179],[-16.349016,16.121955],[-16.348246,16.127359],[-16.347822,16.129041],[-16.346432,16.131534],[-16.344008,16.133924],[-16.340921,16.136343],[-16.338267,16.138693],[-16.334808,16.141148],[-16.334727,16.130934],[-16.335119,16.130229],[-16.335512,16.130555],[-16.337635,16.126952],[-16.344448,16.119367],[-16.345679,16.117114],[-16.345907,16.116105],[-16.347052,16.114494],[-16.347915,16.113764],[-16.348178,16.11334],[-16.347745,16.114431],[-16.347057,16.115451],[-16.346619,16.116621],[-16.346111,16.117387],[-16.349227,16.119084],[-16.349477,16.118891],[-16.349282,16.121179]]],[[[-16.350655,16.10461],[-16.352656,16.10124],[-16.352969,16.100103],[-16.353431,16.0999],[-16.353815,16.099371],[-16.353846,16.099021],[-16.354405,16.098523],[-16.355363,16.096867],[-16.358351,16.093112],[-16.358434,16.093271],[-16.359504,16.092496],[-16.36006,16.091814],[-16.360294,16.091813],[-16.360898,16.091312],[-16.361365,16.091219],[-16.361737,16.090855],[-16.362809,16.090441],[-16.363559,16.090455],[-16.361863,16.091093],[-16.360405,16.092116],[-16.359067,16.093196],[-16.356654,16.09587],[-16.355048,16.098114],[-16.354077,16.099706],[-16.353869,16.100355],[-16.353429,16.10079],[-16.351958,16.103129],[-16.351056,16.105119],[-16.350462,16.106929],[-16.350353,16.108089],[-16.350018,16.109074],[-16.349717,16.109307],[-16.35057,16.105432],[-16.350801,16.104933],[-16.350655,16.10461]],[[-16.358341,16.093271],[-16.358341,16.093362],[-16.358388,16.093316],[-16.358341,16.093271]]],[[[-16.362485,16.086073],[-16.363698,16.084593],[-16.364209,16.08472],[-16.364716,16.085106],[-16.365625,16.085317],[-16.366984,16.085319],[-16.367857,16.084968],[-16.368945,16.085521],[-16.368951,16.086425],[-16.36821,16.087334],[-16.367196,16.089509],[-16.366969,16.09046],[-16.367086,16.090807],[-16.365935,16.090531],[-16.364394,16.090407],[-16.365565,16.090243],[-16.365888,16.089518],[-16.366352,16.089153],[-16.366998,16.087884],[-16.367136,16.087476],[-16.366994,16.087251],[-16.366531,16.087887],[-16.366348,16.08843],[-16.366253,16.08834],[-16.366161,16.088522],[-16.366111,16.08798],[-16.365693,16.088344],[-16.365462,16.088752],[-16.365652,16.089293],[-16.365423,16.089973],[-16.364954,16.089704],[-16.364488,16.089888],[-16.364439,16.089572],[-16.364718,16.08939],[-16.364294,16.088895],[-16.364062,16.089077],[-16.363638,16.088628],[-16.363266,16.088992],[-16.362841,16.088362],[-16.362694,16.087369],[-16.362269,16.086694],[-16.362485,16.086073]],[[-16.366296,16.087707],[-16.366251,16.087979],[-16.366484,16.087842],[-16.366296,16.087707]],[[-16.364245,16.088534],[-16.364245,16.088624],[-16.364339,16.088579],[-16.364245,16.088534]],[[-16.365046,16.089433],[-16.365046,16.089523],[-16.365093,16.089478],[-16.365046,16.089433]]]]}},{"type":"Feature","properties":{"categorie":"Culture maraichère"},"geometry":{"type":"Polygon","coordinates":[[[-16.408202,16.018843],[-16.405586,16.017425],[-16.405715,16.016046],[-16.40804,16.016051],[-16.408002,16.015409],[-16.408951,16.01523],[-16.409784,16.015254],[-16.409823,16.015639],[-16.409969,16.015707],[-16.41195,16.015694],[-16.413287,16.018388],[-16.413253,16.018948],[-16.414861,16.018983],[-16.416779,16.018757],[-16.416659,16.02134],[-16.415063,16.021377],[-16.415126,16.022126],[-16.412032,16.022101],[-16.40834,16.021203],[-16.408202,16.018843]]]}},{"type":"Feature","properties":{"categorie":"Culture maraichère"},"geometry":{"type":"Polygon","coordinates":[[[-16.364147,16.020513],[-16.364537,16.019745],[-16.364188,16.019269],[-16.366332,16.014664],[-16.368636,16.011519],[-16.367821,16.010901],[-16.368824,16.009316],[-16.367259,16.008298],[-16.368579,16.006042],[-16.371583,16.00784],[-16.371467,16.012647],[-16.376194,16.016212],[-16.377554,16.015016],[-16.378161,16.015071],[-16.378745,16.015359],[-16.378566,16.017504],[-16.37725,16.020238],[-16.376176,16.020138],[-16.373923,16.021308],[-16.372359,16.021035],[-16.37065,16.02425],[-16.369133,16.026508],[-16.364912,16.023952],[-16.364797,16.021657],[-16.364147,16.020513]]]}},{"type":"Feature","properties":{"categorie":"Culture maraichère"},"geometry":{"type":"Polygon","coordinates":[[[-16.421107,16.032594],[-16.420234,16.031504],[-16.423363,16.0266],[-16.423385,16.025841],[-16.423125,16.024685],[-16.423155,16.023637],[-16.423012,16.023267],[-16.424214,16.02338],[-16.424782,16.024954],[-16.425872,16.027063],[-16.426253,16.028424],[-16.425404,16.029075],[-16.424867,16.031769],[-16.422947,16.032893],[-16.42277,16.034249],[-16.422177,16.034244],[-16.421043,16.036164],[-16.42044,16.037603],[-16.41854,16.040198],[-16.417911,16.040834],[-16.416755,16.041128],[-16.416987,16.039566],[-16.417685,16.037745],[-16.417956,16.036514],[-16.418252,16.03635],[-16.421107,16.032594]],[[-16.425505,16.026992],[-16.425691,16.026765],[-16.425503,16.026586],[-16.425316,16.026632],[-16.425271,16.026949],[-16.425505,16.026992]]]}},{"type":"Feature","properties":{"categorie":"Culture maraichère"},"geometry":{"type":"Polygon","coordinates":[[[-16.342028,16.045529],[-16.346931,16.050246],[-16.350439,16.05332],[-16.348835,16.053904],[-16.346029,16.055859],[-16.341804,16.060094],[-16.341383,16.060073],[-16.336712,16.057061],[-16.33726,16.055394],[-16.338328,16.053604],[-16.338363,16.052937],[-16.339076,16.050797],[-16.342028,16.045529]]]}},{"type":"Feature","properties":{"categorie":"Culture pluviale"},"geometry":{"type":"MultiPolygon","coordinates":[[[[-16.386694,16.067781],[-16.386533,16.066815],[-16.38713,16.064817],[-16.387317,16.062747],[-16.387554,16.061899],[-16.389504,16.059379],[-16.389901,16.059245],[-16.390822,16.059347],[-16.391179,16.060304],[-16.390775,16.06163],[-16.389519,16.062956],[-16.389134,16.063743],[-16.389033,16.06438],[-16.387827,16.065154],[-16.387833,16.066013],[-16.387467,16.067055],[-16.386694,16.067781]]],[[[-16.391128,16.059303],[-16.391105,16.059349],[-16.391093,16.059293],[-16.391128,16.059303]]],[[[-16.391551,16.059107],[-16.391822,16.059098],[-16.391693,16.059397],[-16.391551,16.059107]]]]}},{"type":"Feature","properties":{"categorie":"Culture pluviale"},"geometry":{"type":"Polygon","coordinates":[[[-16.37785,16.065849],[-16.37875,16.06375],[-16.379132,16.063267],[-16.381213,16.062293],[-16.383033,16.060196],[-16.385854,16.058563],[-16.386902,16.057214],[-16.387218,16.057331],[-16.387762,16.058328],[-16.387842,16.059222],[-16.386494,16.061899],[-16.386136,16.064975],[-16.385738,16.066075],[-16.385168,16.06625],[-16.38371,16.065886],[-16.382747,16.065851],[-16.381667,16.066676],[-16.380633,16.06699],[-16.378219,16.070721],[-16.377492,16.070987],[-16.376668,16.072149],[-16.375314,16.071612],[-16.375155,16.071266],[-16.375201,16.070571],[-16.375649,16.069114],[-16.377551,16.067281],[-16.37785,16.065849]]]}},{"type":"Feature","properties":{"categorie":"Culture pluviale"},"geometry":{"type":"Polygon","coordinates":[[[-16.380374,16.076871],[-16.379661,16.077369],[-16.378969,16.077072],[-16.377343,16.076853],[-16.376779,16.076523],[-16.376103,16.07566],[-16.376378,16.074872],[-16.377044,16.073837],[-16.378354,16.073919],[-16.379538,16.073529],[-16.381076,16.071251],[-16.382263,16.07013],[-16.38406,16.069387],[-16.385682,16.069486],[-16.385289,16.06978],[-16.384689,16.070869],[-16.38357,16.071283],[-16.383013,16.071828],[-16.382361,16.072149],[-16.382268,16.072285],[-16.382457,16.072465],[-16.382182,16.07328],[-16.381248,16.073467],[-16.380365,16.07415],[-16.380368,16.074602],[-16.380701,16.075368],[-16.380333,16.076365],[-16.380633,16.076921],[-16.380374,16.076871]],[[-16.384871,16.070235],[-16.384917,16.070054],[-16.384778,16.07019],[-16.384871,16.070235]]]}},{"type":"Feature","properties":{"categorie":"Culture pluviale"},"geometry":{"type":"MultiPolygon","coordinates":[[[[-16.382369,16.084932],[-16.382588,16.084696],[-16.382869,16.083337],[-16.383539,16.083584],[-16.384057,16.08254],[-16.384024,16.082848],[-16.384395,16.08334],[-16.382447,16.085959],[-16.380493,16.087327],[-16.381142,16.08628],[-16.381607,16.084789],[-16.382369,16.084932]]],[[[-16.38365,16.082147],[-16.383949,16.081597],[-16.384109,16.081582],[-16.384021,16.08146],[-16.384758,16.079737],[-16.383099,16.078027],[-16.383744,16.076516],[-16.384006,16.076472],[-16.385395,16.077684],[-16.386499,16.073544],[-16.386915,16.073486],[-16.387266,16.073958],[-16.388643,16.073996],[-16.390577,16.072332],[-16.390505,16.071827],[-16.390882,16.071346],[-16.391447,16.070974],[-16.392321,16.070731],[-16.392876,16.070304],[-16.392996,16.069227],[-16.393362,16.068574],[-16.393206,16.067907],[-16.393362,16.06801],[-16.393455,16.067874],[-16.393328,16.067088],[-16.393494,16.066744],[-16.39433,16.066016],[-16.394467,16.065653],[-16.393763,16.065116],[-16.393392,16.06557],[-16.393298,16.06548],[-16.392946,16.065806],[-16.393796,16.064426],[-16.392487,16.063111],[-16.39244,16.062482],[-16.393005,16.061434],[-16.393755,16.060851],[-16.395113,16.061121],[-16.395478,16.060807],[-16.395604,16.061037],[-16.396393,16.060308],[-16.396856,16.059628],[-16.397697,16.059712],[-16.397508,16.059352],[-16.398148,16.05736],[-16.397914,16.057226],[-16.397541,16.057318],[-16.397306,16.057139],[-16.397475,16.056678],[-16.398008,16.056749],[-16.398786,16.056444],[-16.400084,16.055365],[-16.400614,16.055184],[-16.401255,16.055263],[-16.401799,16.055585],[-16.401858,16.055793],[-16.401588,16.056258],[-16.401767,16.056441],[-16.402433,16.056545],[-16.403037,16.056294],[-16.403252,16.056659],[-16.403216,16.056938],[-16.402379,16.057407],[-16.401322,16.058679],[-16.401015,16.058716],[-16.400455,16.058452],[-16.400219,16.058527],[-16.399373,16.06009],[-16.397341,16.061822],[-16.396242,16.063983],[-16.394729,16.065994],[-16.393812,16.066905],[-16.393497,16.067848],[-16.393843,16.06849],[-16.393835,16.069562],[-16.394315,16.069559],[-16.394246,16.070147],[-16.393537,16.073016],[-16.392938,16.07415],[-16.389403,16.07805],[-16.386059,16.081055],[-16.384948,16.082689],[-16.384588,16.083113],[-16.384911,16.082707],[-16.384908,16.082255],[-16.384532,16.081986],[-16.384439,16.082077],[-16.384064,16.081922],[-16.383925,16.082081],[-16.384011,16.082245],[-16.38365,16.082147]],[[-16.396395,16.060534],[-16.396535,16.060579],[-16.396675,16.060533],[-16.396395,16.060534]],[[-16.39528,16.061581],[-16.395282,16.061762],[-16.395374,16.061671],[-16.39528,16.061581]],[[-16.384341,16.081355],[-16.384341,16.081445],[-16.384388,16.0814],[-16.384341,16.081355]],[[-16.384248,16.081446],[-16.384249,16.081536],[-16.384295,16.081491],[-16.384248,16.081446]]]]}},{"type":"Feature","properties":{"categorie":"Culture pluviale"},"geometry":{"type":"MultiPolygon","coordinates":[[[[-16.33968,16.109551],[-16.3389,16.110176],[-16.336475,16.110029],[-16.336348,16.109587],[-16.336435,16.108903],[-16.337116,16.106883],[-16.337474,16.106558],[-16.338272,16.106305],[-16.338675,16.105946],[-16.339754,16.104137],[-16.341018,16.102825],[-16.341089,16.102301],[-16.345347,16.09964],[-16.345624,16.099859],[-16.345811,16.099768],[-16.345809,16.099542],[-16.34538,16.099617],[-16.349058,16.097247],[-16.348836,16.097851],[-16.348511,16.098169],[-16.347765,16.09849],[-16.347023,16.099353],[-16.346184,16.099675],[-16.345256,16.10072],[-16.345634,16.101351],[-16.345317,16.102753],[-16.345086,16.103162],[-16.344109,16.103936],[-16.343745,16.105384],[-16.343376,16.10611],[-16.342449,16.107291],[-16.34125,16.109829],[-16.341065,16.111376],[-16.340853,16.111954],[-16.340184,16.112835],[-16.339753,16.112656],[-16.339475,16.112296],[-16.340328,16.110294],[-16.340112,16.109825],[-16.33968,16.109551]]],[[[-16.349421,16.095931],[-16.349432,16.096039],[-16.349422,16.096075],[-16.349421,16.095931]]],[[[-16.351709,16.0935],[-16.351542,16.092469],[-16.352434,16.092284],[-16.35303,16.091479],[-16.352484,16.090155],[-16.352534,16.089764],[-16.354584,16.08825],[-16.35549,16.08675],[-16.355489,16.086939],[-16.355608,16.086932],[-16.355853,16.086605],[-16.356714,16.085107],[-16.357992,16.084009],[-16.359216,16.082059],[-16.359213,16.081354],[-16.358755,16.081356],[-16.358467,16.081539],[-16.358953,16.080425],[-16.360331,16.078533],[-16.361735,16.077198],[-16.362017,16.076502],[-16.362637,16.075789],[-16.364098,16.074389],[-16.364775,16.074539],[-16.365287,16.075033],[-16.365513,16.075642],[-16.365287,16.076774],[-16.364912,16.077537],[-16.365764,16.078284],[-16.365561,16.078692],[-16.365817,16.079178],[-16.366268,16.079528],[-16.366769,16.079526],[-16.366662,16.079751],[-16.366246,16.080387],[-16.366011,16.080298],[-16.365639,16.080571],[-16.365782,16.080932],[-16.36569,16.081204],[-16.364532,16.082657],[-16.364019,16.082841],[-16.363315,16.082484],[-16.36299,16.082667],[-16.363085,16.082892],[-16.362525,16.083122],[-16.362383,16.082852],[-16.362056,16.082899],[-16.362149,16.082763],[-16.361914,16.082584],[-16.361495,16.082812],[-16.361121,16.082815],[-16.360792,16.082591],[-16.360696,16.082139],[-16.360507,16.08196],[-16.360415,16.082141],[-16.360321,16.082051],[-16.359905,16.082687],[-16.359999,16.082822],[-16.359813,16.083004],[-16.359908,16.083093],[-16.359722,16.083366],[-16.359771,16.083682],[-16.359445,16.083819],[-16.358982,16.084455],[-16.358423,16.084685],[-16.358238,16.085002],[-16.358286,16.085228],[-16.357822,16.085773],[-16.357686,16.086407],[-16.356846,16.086593],[-16.356544,16.08682],[-16.35653,16.088131],[-16.356769,16.088988],[-16.356632,16.089396],[-16.355841,16.089898],[-16.355421,16.090036],[-16.354345,16.089998],[-16.353833,16.090317],[-16.353419,16.091179],[-16.353467,16.091495],[-16.352959,16.092266],[-16.3531,16.092491],[-16.353333,16.092309],[-16.353427,16.092399],[-16.353055,16.092763],[-16.354879,16.092932],[-16.355579,16.092747],[-16.355908,16.092925],[-16.356421,16.092832],[-16.356937,16.093009],[-16.357588,16.092553],[-16.358351,16.093112],[-16.355363,16.096867],[-16.354405,16.098523],[-16.353846,16.099021],[-16.353815,16.099371],[-16.353431,16.0999],[-16.352969,16.100103],[-16.352656,16.10124],[-16.351421,16.101341],[-16.350932,16.102086],[-16.350537,16.102393],[-16.349783,16.102679],[-16.34918,16.102662],[-16.34882,16.10246],[-16.349472,16.101959],[-16.348907,16.101375],[-16.348438,16.101152],[-16.348715,16.100744],[-16.34815,16.100115],[-16.348564,16.099118],[-16.348936,16.098754],[-16.349211,16.097939],[-16.350788,16.096121],[-16.351299,16.095756],[-16.35162,16.09485],[-16.352686,16.093488],[-16.352357,16.093129],[-16.351709,16.0935]]],[[[-16.374211,16.077876],[-16.375102,16.078143],[-16.375531,16.07845],[-16.375255,16.07863],[-16.374811,16.079446],[-16.373568,16.08344],[-16.372993,16.084176],[-16.372857,16.084719],[-16.371847,16.086108],[-16.371377,16.08706],[-16.370888,16.088848],[-16.370864,16.08958],[-16.37074,16.088312],[-16.371338,16.086907],[-16.371244,16.086727],[-16.37166,16.086046],[-16.371607,16.085233],[-16.371791,16.084735],[-16.371266,16.083157],[-16.370984,16.082978],[-16.370382,16.08375],[-16.369915,16.083843],[-16.369031,16.084346],[-16.368615,16.085162],[-16.368846,16.085427],[-16.367857,16.084968],[-16.367067,16.085305],[-16.366145,16.08532],[-16.368052,16.084804],[-16.367299,16.083995],[-16.366737,16.083818],[-16.365619,16.084458],[-16.36557,16.085248],[-16.364768,16.085124],[-16.364209,16.08472],[-16.363591,16.084634],[-16.362329,16.086274],[-16.362402,16.085653],[-16.363331,16.084744],[-16.365184,16.082382],[-16.366069,16.081834],[-16.366532,16.081244],[-16.367138,16.080923],[-16.367607,16.081282],[-16.367844,16.081778],[-16.369764,16.082172],[-16.371303,16.081755],[-16.371765,16.080939],[-16.372232,16.080936],[-16.372043,16.080576],[-16.372223,16.079535],[-16.372966,16.078807],[-16.373103,16.078355],[-16.373712,16.078622],[-16.373945,16.07853],[-16.37404,16.07871],[-16.374179,16.078574],[-16.374211,16.077876]]],[[[-16.3712,16.090905],[-16.371803,16.088638],[-16.372441,16.087627],[-16.372488,16.08635],[-16.372927,16.085438],[-16.374128,16.083876],[-16.374217,16.082441],[-16.375023,16.080953],[-16.37692,16.079769],[-16.377718,16.079409],[-16.378039,16.079498],[-16.377605,16.080461],[-16.377845,16.081938],[-16.378011,16.082017],[-16.378166,16.081885],[-16.378457,16.080871],[-16.378783,16.081321],[-16.378253,16.083429],[-16.379444,16.083899],[-16.378665,16.087019],[-16.380493,16.087327],[-16.3791,16.088692],[-16.376584,16.089792],[-16.375191,16.091157],[-16.374359,16.092518],[-16.373621,16.093241],[-16.373715,16.092721],[-16.373569,16.091818],[-16.373334,16.091594],[-16.3712,16.090905]]],[[[-16.370901,16.095342],[-16.371022,16.095224],[-16.371096,16.095187],[-16.371012,16.095251],[-16.370901,16.095342]]],[[[-16.368687,16.097373],[-16.367951,16.096127],[-16.366407,16.094834],[-16.366006,16.09427],[-16.366149,16.093818],[-16.367298,16.092994],[-16.367561,16.091844],[-16.367918,16.092578],[-16.368433,16.092574],[-16.368579,16.093522],[-16.368954,16.09361],[-16.369233,16.093428],[-16.369113,16.092999],[-16.369463,16.092839],[-16.369604,16.092974],[-16.369328,16.093698],[-16.369616,16.094781],[-16.370462,16.095408],[-16.370817,16.095411],[-16.369339,16.096618],[-16.368687,16.097373]],[[-16.369349,16.093269],[-16.369324,16.093111],[-16.369231,16.093157],[-16.369255,16.093179],[-16.369349,16.093269]],[[-16.369373,16.093382],[-16.369374,16.093472],[-16.36942,16.093427],[-16.369373,16.093382]]],[[[-16.348313,16.102429],[-16.348203,16.102433],[-16.348141,16.102443],[-16.348313,16.102429]]],[[[-16.348106,16.102452],[-16.347363,16.10281],[-16.347233,16.102696],[-16.3477,16.102603],[-16.347932,16.102375],[-16.348106,16.102452]]]]}},{"type":"Feature","properties":{"categorie":"Culture maraichère"},"geometry":{"type":"Polygon","coordinates":[[[-16.334638,16.119787],[-16.337635,16.117018],[-16.339152,16.117278],[-16.339032,16.117876],[-16.33717,16.121445],[-16.338105,16.122635],[-16.336851,16.124586],[-16.335434,16.125432],[-16.334678,16.124831],[-16.334638,16.119787]]]}},{"type":"Feature","properties":{"categorie":"Culture pluviale"},"geometry":{"type":"Polygon","coordinates":[[[-16.333405,16.034169],[-16.334224,16.033052],[-16.335105,16.03347],[-16.335405,16.033827],[-16.333412,16.036137],[-16.333405,16.034169]]]}},{"type":"Feature","properties":{"categorie":"Culture pluviale"},"geometry":{"type":"MultiPolygon","coordinates":[[[[-16.333633,16.051926],[-16.335288,16.052993],[-16.335946,16.053011],[-16.336511,16.052628],[-16.336924,16.052573],[-16.338139,16.052792],[-16.338433,16.053136],[-16.338135,16.054017],[-16.33722,16.055483],[-16.336758,16.056968],[-16.336249,16.057763],[-16.335375,16.058509],[-16.333822,16.059144],[-16.333633,16.051926]]],[[[-16.333507,16.047118],[-16.335391,16.044374],[-16.336323,16.042579],[-16.336536,16.042113],[-16.336092,16.041785],[-16.340454,16.043947],[-16.339765,16.045507],[-16.338552,16.047088],[-16.338416,16.047844],[-16.338721,16.048522],[-16.338676,16.048777],[-16.3372,16.049534],[-16.336495,16.050188],[-16.334344,16.050085],[-16.333594,16.050435],[-16.333507,16.047118]]]]}},{"type":"Feature","properties":{"categorie":"Culture pluviale"},"geometry":{"type":"Polygon","coordinates":[[[-16.451415,16.015728],[-16.447402,16.017333],[-16.447091,16.016224],[-16.446351,16.015859],[-16.445928,16.016136],[-16.445584,16.016137],[-16.445264,16.016428],[-16.444591,16.016401],[-16.443975,16.016641],[-16.443651,16.017428],[-16.443707,16.018256],[-16.443108,16.018312],[-16.442955,16.018459],[-16.442893,16.018952],[-16.443062,16.019598],[-16.443913,16.020168],[-16.444238,16.020768],[-16.443412,16.022662],[-16.443976,16.022829],[-16.44479,16.022654],[-16.444612,16.023366],[-16.444217,16.023388],[-16.444412,16.024162],[-16.443993,16.025609],[-16.443395,16.026104],[-16.443594,16.026846],[-16.443395,16.027755],[-16.442897,16.028322],[-16.443154,16.028854],[-16.442931,16.02987],[-16.442441,16.029862],[-16.441925,16.029549],[-16.442014,16.028916],[-16.44271,16.028323],[-16.442333,16.027874],[-16.441445,16.027744],[-16.441212,16.027882],[-16.44112,16.028063],[-16.441401,16.028242],[-16.440843,16.029242],[-16.440938,16.028606],[-16.440761,16.027532],[-16.439727,16.026744],[-16.438883,16.026406],[-16.438438,16.026409],[-16.437998,16.030002],[-16.437489,16.02994],[-16.437078,16.030304],[-16.436322,16.030129],[-16.435436,16.030361],[-16.435156,16.030498],[-16.434835,16.031314],[-16.434644,16.030773],[-16.434154,16.031025],[-16.433779,16.029974],[-16.431295,16.029033],[-16.431676,16.027412],[-16.432707,16.027731],[-16.433872,16.026006],[-16.433567,16.023956],[-16.432758,16.023829],[-16.432659,16.023014],[-16.432268,16.021965],[-16.431401,16.020868],[-16.43024,16.020853],[-16.429723,16.020103],[-16.429444,16.019946],[-16.427777,16.020256],[-16.427451,16.020161],[-16.427407,16.019776],[-16.427667,16.019296],[-16.427664,16.01897],[-16.427375,16.01839],[-16.42685,16.017922],[-16.426792,16.017534],[-16.426895,16.017243],[-16.427669,16.016743],[-16.42681,16.015477],[-16.427375,16.015167],[-16.428724,16.015084],[-16.429739,16.014712],[-16.430479,16.013997],[-16.430422,16.012724],[-16.431578,16.012676],[-16.430999,16.010863],[-16.430982,16.009992],[-16.43071,16.009079],[-16.432119,16.007491],[-16.432543,16.00599],[-16.433235,16.005836],[-16.433128,16.005238],[-16.432356,16.004587],[-16.432322,16.003773],[-16.433344,16.003793],[-16.433472,16.003668],[-16.433174,16.002927],[-16.433169,16.002111],[-16.432405,16.001217],[-16.432343,16.000123],[-16.432082,15.999477],[-16.430275,15.999491],[-16.429445,15.998871],[-16.428591,15.99863],[-16.426737,15.999489],[-16.426032,15.997209],[-16.42506,15.995814],[-16.424907,15.995336],[-16.425113,15.994078],[-16.4262,15.993149],[-16.426521,15.99237],[-16.426439,15.990057],[-16.426165,15.989643],[-16.425753,15.989429],[-16.424859,15.989814],[-16.423674,15.990048],[-16.423144,15.990431],[-16.421174,15.993345],[-16.420411,15.995104],[-16.419881,15.995523],[-16.418744,15.995883],[-16.418113,15.996574],[-16.41751,15.998413],[-16.41667,16.0],[-16.412839,16.002808],[-16.41055,16.006439],[-16.409442,16.009086],[-16.407082,16.011053],[-16.406439,16.012492],[-16.401772,16.015507],[-16.402493,16.01665],[-16.402498,16.017453],[-16.402193,16.01818],[-16.401273,16.017698],[-16.400481,16.016628],[-16.400156,16.015581],[-16.400061,16.014073],[-16.400194,16.012987],[-16.401139,16.009212],[-16.401472,16.008595],[-16.403553,16.006901],[-16.404628,16.005701],[-16.405744,16.004862],[-16.407764,16.003809],[-16.410514,16.002897],[-16.412186,16.001421],[-16.412896,16.000106],[-16.412912,15.998371],[-16.413319,15.997772],[-16.418152,15.992724],[-16.419407,15.990591],[-16.419754,15.989459],[-16.42179,15.987882],[-16.423909,15.984994],[-16.425081,15.982953],[-16.426149,15.982105],[-16.427398,15.980335],[-16.429539,15.978714],[-16.429946,15.977621],[-16.431161,15.976025],[-16.432049,15.972622],[-16.433244,15.973373],[-16.435969,15.973464],[-16.437239,15.973941],[-16.437836,15.974612],[-16.438085,15.975248],[-16.437723,15.977893],[-16.437909,15.977993],[-16.438613,15.977874],[-16.439568,15.97578],[-16.439631,15.974107],[-16.44022,15.972919],[-16.44005,15.971303],[-16.438843,15.969801],[-16.440462,15.968851],[-16.441497,15.968636],[-16.441675,15.968671],[-16.441674,15.969837],[-16.44145,15.971131],[-16.441571,15.972398],[-16.443068,15.971381],[-16.443815,15.971119],[-16.444228,15.971165],[-16.444453,15.971591],[-16.444714,15.973248],[-16.445797,15.974763],[-16.445951,15.975213],[-16.44601,15.975817],[-16.445878,15.976271],[-16.444373,15.976487],[-16.444079,15.977045],[-16.444005,15.977768],[-16.444589,15.979345],[-16.444977,15.982848],[-16.4458,15.985562],[-16.445764,15.986439],[-16.446051,15.98735],[-16.445955,15.987876],[-16.446262,15.988725],[-16.446008,15.989249],[-16.445289,15.990034],[-16.445049,15.989625],[-16.445234,15.989443],[-16.445186,15.989218],[-16.445603,15.988808],[-16.44456,15.98829],[-16.444751,15.987187],[-16.444477,15.986511],[-16.44465,15.986148],[-16.44443,15.985879],[-16.444257,15.984747],[-16.443287,15.983734],[-16.442628,15.983336],[-16.442443,15.983474],[-16.441934,15.984813],[-16.441003,15.985676],[-16.439861,15.986067],[-16.439374,15.986636],[-16.439286,15.987269],[-16.438587,15.987635],[-16.438126,15.988497],[-16.438462,15.989715],[-16.439071,15.989891],[-16.439259,15.990161],[-16.439168,15.990433],[-16.439357,15.990793],[-16.439265,15.990929],[-16.439547,15.991153],[-16.439502,15.991425],[-16.440107,15.991059],[-16.440765,15.991597],[-16.441233,15.99173],[-16.443197,15.991988],[-16.444586,15.991985],[-16.444878,15.992689],[-16.44548,15.993389],[-16.447136,15.993881],[-16.447394,15.994093],[-16.447257,15.994632],[-16.446533,15.995704],[-16.44607,15.996217],[-16.445742,15.996336],[-16.445342,15.996094],[-16.444877,15.995496],[-16.444697,15.994373],[-16.444369,15.993854],[-16.44404,15.993636],[-16.443533,15.993746],[-16.443381,15.994402],[-16.443601,15.99689],[-16.443116,15.998421],[-16.443236,15.998793],[-16.443545,15.999062],[-16.444188,15.999366],[-16.445055,15.9995],[-16.445477,15.999959],[-16.44495,16.000642],[-16.444868,16.001077],[-16.444978,16.001987],[-16.445484,16.003456],[-16.445542,16.004419],[-16.445274,16.004614],[-16.444212,16.004689],[-16.44407,16.004996],[-16.445458,16.008011],[-16.445858,16.009665],[-16.446863,16.010814],[-16.447308,16.011575],[-16.4478,16.015058],[-16.448591,16.015387],[-16.44996,16.015006],[-16.451415,16.015728]],[[-16.429774,15.9937],[-16.429795,15.993497],[-16.430179,15.993357],[-16.430511,15.992841],[-16.431164,15.9909],[-16.431021,15.989993],[-16.430609,15.989037],[-16.4305,15.987873],[-16.430247,15.987472],[-16.42995,15.987392],[-16.429613,15.987541],[-16.429319,15.988241],[-16.42907,15.991148],[-16.429316,15.992232],[-16.42897,15.993599],[-16.429241,15.993843],[-16.429774,15.9937]],[[-16.404077,16.009645],[-16.404357,16.009688],[-16.40417,16.009554],[-16.404077,16.009645]]]}},{"type":"Feature","properties":{"categorie":"Culture maraichère"},"geometry":{"type":"Polygon","coordinates":[[[-16.399499,15.997726],[-16.398983,15.996047],[-16.399873,15.996244],[-16.400314,15.99689],[-16.400617,15.996976],[-16.401402,15.996677],[-16.401725,15.996021],[-16.400075,15.995586],[-16.399429,15.994665],[-16.39928,15.993797],[-16.399039,15.993565],[-16.398137,15.993422],[-16.396925,15.99366],[-16.39677,15.992482],[-16.396558,15.992294],[-16.395539,15.9926],[-16.395266,15.993687],[-16.394467,15.993678],[-16.393726,15.99426],[-16.391172,15.994958],[-16.391029,15.995298],[-16.391331,15.996562],[-16.390996,15.996934],[-16.390472,15.997193],[-16.389803,15.996863],[-16.388374,15.995112],[-16.386817,15.994534],[-16.38599,15.992835],[-16.386721,15.991609],[-16.387158,15.991299],[-16.389098,15.990817],[-16.389377,15.990625],[-16.389523,15.990154],[-16.389247,15.989324],[-16.387889,15.987625],[-16.387255,15.986472],[-16.386911,15.985263],[-16.386809,15.984143],[-16.386966,15.983799],[-16.387283,15.983652],[-16.390093,15.98339],[-16.390955,15.983728],[-16.391382,15.984656],[-16.391292,15.985226],[-16.390868,15.985952],[-16.390922,15.986991],[-16.391347,15.987657],[-16.392106,15.988022],[-16.392854,15.988099],[-16.393461,15.987977],[-16.395537,15.987015],[-16.397527,15.985511],[-16.398515,15.985179],[-16.399355,15.98511],[-16.400142,15.98543],[-16.401291,15.986779],[-16.402221,15.987414],[-16.405514,15.988025],[-16.406619,15.988425],[-16.407626,15.989413],[-16.408177,15.990647],[-16.409376,15.992438],[-16.410079,15.994087],[-16.410332,15.995487],[-16.411204,15.997275],[-16.41008,15.998116],[-16.409518,15.998253],[-16.408578,15.998078],[-16.407946,15.997164],[-16.407444,15.996959],[-16.40622,15.997098],[-16.405492,15.997632],[-16.405054,15.999081],[-16.40504,15.999999],[-16.405291,16.00023],[-16.406783,16.000629],[-16.406561,16.001642],[-16.407524,16.00288],[-16.406267,16.003431],[-16.404006,16.004855],[-16.402845,16.005956],[-16.401525,16.006923],[-16.40059,16.008167],[-16.400046,16.009228],[-16.399047,16.011946],[-16.39885,16.014533],[-16.399196,16.015777],[-16.396941,16.016273],[-16.395392,16.01728],[-16.394024,16.016742],[-16.392394,16.017022],[-16.390941,16.016762],[-16.388129,16.016874],[-16.386089,16.016511],[-16.38447,16.016534],[-16.38402,16.016404],[-16.383929,16.016013],[-16.384256,16.015031],[-16.385563,16.01244],[-16.38596,16.012158],[-16.387047,16.012263],[-16.387331,16.01208],[-16.387447,16.011066],[-16.387261,16.009679],[-16.388666,16.008044],[-16.388912,16.006271],[-16.389138,16.005709],[-16.390578,16.004834],[-16.391717,16.003795],[-16.394415,16.00221],[-16.394915,16.002091],[-16.396097,16.002372],[-16.397004,16.00181],[-16.397985,15.999746],[-16.398356,15.999513],[-16.399598,15.999237],[-16.400019,15.998712],[-16.400038,15.998393],[-16.399499,15.997726]]]}},{"type":"Feature","properties":{"categorie":"Culture pluviale"},"geometry":{"type":"MultiPolygon","coordinates":[[[[-16.370747,15.999042],[-16.372911,15.995747],[-16.374376,15.994084],[-16.374863,15.992888],[-16.375695,15.993969],[-16.376067,15.995625],[-16.374411,15.998317],[-16.375525,15.998315],[-16.375747,15.998532],[-16.373443,16.001156],[-16.371431,16.004028],[-16.371137,16.004675],[-16.371273,16.00499],[-16.372203,16.005333],[-16.373997,16.006533],[-16.372601,16.008431],[-16.368579,16.006042],[-16.367259,16.008298],[-16.368824,16.009316],[-16.367821,16.010901],[-16.368636,16.011519],[-16.366332,16.014664],[-16.364188,16.019269],[-16.364537,16.019745],[-16.364147,16.020513],[-16.364797,16.021657],[-16.364912,16.023952],[-16.369133,16.026508],[-16.37065,16.02425],[-16.372359,16.021035],[-16.373923,16.021308],[-16.373484,16.022225],[-16.372602,16.02572],[-16.371775,16.027885],[-16.370912,16.02874],[-16.369078,16.0298],[-16.368175,16.028902],[-16.367614,16.028879],[-16.367298,16.029188],[-16.366885,16.030293],[-16.365674,16.032154],[-16.364782,16.032955],[-16.363702,16.033576],[-16.362029,16.033569],[-16.361371,16.033013],[-16.361466,16.031837],[-16.360857,16.030169],[-16.358106,16.029789],[-16.357206,16.029315],[-16.355068,16.0296],[-16.353025,16.030119],[-16.351291,16.030781],[-16.348893,16.032044],[-16.346498,16.030837],[-16.347487,16.029367],[-16.348335,16.027627],[-16.350647,16.02406],[-16.350755,16.023318],[-16.350399,16.021875],[-16.350812,16.020769],[-16.351428,16.020567],[-16.353022,16.021415],[-16.353601,16.021402],[-16.354029,16.021011],[-16.35433,16.020042],[-16.35506,16.01879],[-16.355441,16.018471],[-16.35627,16.018216],[-16.355828,16.018948],[-16.356016,16.019218],[-16.356297,16.019307],[-16.356111,16.019443],[-16.356299,16.019578],[-16.356206,16.019669],[-16.356674,16.019756],[-16.357097,16.02016],[-16.357422,16.019842],[-16.357796,16.019839],[-16.358034,16.020516],[-16.358363,16.020694],[-16.358688,16.020512],[-16.358965,16.019877],[-16.359715,16.020324],[-16.359616,16.019512],[-16.359194,16.019243],[-16.359376,16.018474],[-16.358529,16.017666],[-16.359086,16.01712],[-16.358428,16.016536],[-16.357961,16.016585],[-16.356753,16.017314],[-16.356888,16.016899],[-16.357416,16.016109],[-16.358224,16.015363],[-16.359675,16.014378],[-16.361119,16.013681],[-16.362318,16.012806],[-16.362884,16.012188],[-16.363521,16.011009],[-16.36395,16.009596],[-16.364219,16.007796],[-16.364917,16.00602],[-16.36591,16.00501],[-16.367698,16.004168],[-16.368997,16.002795],[-16.369635,16.001778],[-16.370629,15.999639],[-16.370747,15.999042]],[[-16.359978,16.026536],[-16.36028,16.026342],[-16.36074,16.025616],[-16.361771,16.025186],[-16.361818,16.02481],[-16.361328,16.023554],[-16.360445,16.022716],[-16.359718,16.022355],[-16.358793,16.022376],[-16.358069,16.022758],[-16.357736,16.023264],[-16.357607,16.02427],[-16.357767,16.025473],[-16.358027,16.026027],[-16.358443,16.026338],[-16.359279,16.026574],[-16.359978,16.026536]],[[-16.359212,16.021954],[-16.359399,16.021953],[-16.359305,16.021863],[-16.359212,16.021954]]],[[[-16.358665,16.016987],[-16.358665,16.017077],[-16.358618,16.017032],[-16.358665,16.016987]]]]}},{"type":"Feature","properties":{"categorie":"Culture pluviale"},"geometry":{"type":"Polygon","coordinates":[[[-16.377551,15.983906],[-16.377175,15.98327],[-16.376793,15.98316],[-16.375861,15.983178],[-16.375426,15.98379],[-16.376188,15.984615],[-16.374809,15.985173],[-16.375845,15.986341],[-16.375967,15.986279],[-16.375616,15.98689],[-16.374703,15.987312],[-16.373193,15.989138],[-16.373047,15.98969],[-16.373125,15.99147],[-16.37268,15.993471],[-16.372217,15.994088],[-16.371455,15.994572],[-16.371095,15.995352],[-16.370444,15.995699],[-16.370147,15.996072],[-16.369521,15.997395],[-16.368426,16.001244],[-16.36776,16.002305],[-16.366664,16.003198],[-16.364873,16.003752],[-16.364018,16.004336],[-16.362994,16.006385],[-16.362204,16.009734],[-16.361893,16.010703],[-16.361495,16.011338],[-16.360947,16.011857],[-16.358685,16.013091],[-16.35756,16.01393],[-16.353822,16.018039],[-16.352853,16.018488],[-16.351951,16.019262],[-16.350152,16.019833],[-16.349844,16.018606],[-16.349979,16.017738],[-16.349648,16.017152],[-16.349803,16.016627],[-16.350602,16.015971],[-16.354047,16.014115],[-16.356193,16.012212],[-16.357543,16.010116],[-16.358093,16.008531],[-16.358352,16.00673],[-16.358903,16.0052],[-16.359364,16.004401],[-16.359967,16.003765],[-16.361717,16.002669],[-16.36302,16.000591],[-16.363562,16.000615],[-16.365857,15.998693],[-16.365963,15.997752],[-16.36572,15.997772],[-16.365134,15.996718],[-16.36413,15.996119],[-16.363857,15.995796],[-16.363787,15.995181],[-16.364044,15.99452],[-16.364388,15.994183],[-16.364845,15.994108],[-16.36571,15.994826],[-16.366345,15.994849],[-16.369499,15.992804],[-16.369777,15.992432],[-16.369858,15.991997],[-16.369705,15.991483],[-16.369026,15.99062],[-16.369031,15.989951],[-16.369241,15.989299],[-16.370197,15.988353],[-16.373183,15.986373],[-16.373953,15.985527],[-16.37408,15.985038],[-16.37391,15.98466],[-16.371508,15.984594],[-16.370897,15.984055],[-16.370602,15.983289],[-16.370626,15.982656],[-16.370901,15.981922],[-16.372488,15.980339],[-16.373179,15.978952],[-16.373637,15.978931],[-16.374032,15.979372],[-16.374509,15.979432],[-16.374788,15.979222],[-16.375361,15.97826],[-16.375733,15.978005],[-16.376499,15.977964],[-16.377343,15.978401],[-16.377556,15.979593],[-16.378433,15.979819],[-16.377443,15.982455],[-16.377551,15.983906]]]}},{"type":"Feature","properties":{"categorie":"Culture pluviale"},"geometry":{"type":"MultiPolygon","coordinates":[[[[-16.333353,16.009748],[-16.333887,16.010377],[-16.334044,16.01103],[-16.333883,16.011683],[-16.332932,16.012706],[-16.332805,16.013074],[-16.332887,16.013605],[-16.3335,16.013966],[-16.333435,16.014748],[-16.333096,16.015231],[-16.332341,16.015778],[-16.331836,16.016039],[-16.331271,16.016062],[-16.333353,16.009748]]],[[[-16.334648,16.005888],[-16.337331,15.998332],[-16.338086,15.997726],[-16.339207,15.997337],[-16.339545,15.997456],[-16.341005,15.999225],[-16.341182,15.999807],[-16.340925,16.000317],[-16.341119,16.000574],[-16.341852,16.00091],[-16.343477,16.000648],[-16.343777,16.000965],[-16.343724,16.001698],[-16.343244,16.002885],[-16.341754,16.005009],[-16.340341,16.006121],[-16.338805,16.00686],[-16.338091,16.005957],[-16.335421,16.00633],[-16.335022,16.006244],[-16.334648,16.005888]]]]}},{"type":"Feature","properties":{"categorie":"Culture pluviale"},"geometry":{"type":"Polygon","coordinates":[[[-16.40331,15.851307],[-16.402544,15.851629],[-16.402413,15.851111],[-16.401946,15.85108],[-16.400527,15.850554],[-16.400905,15.849526],[-16.401499,15.849714],[-16.402053,15.84945],[-16.402405,15.848885],[-16.402605,15.847405],[-16.403854,15.847477],[-16.403414,15.849141],[-16.40331,15.851307]]]}},{"type":"Feature","properties":{"categorie":"Culture pluviale"},"geometry":{"type":"Polygon","coordinates":[[[-16.453337,15.972894],[-16.453711,15.972892],[-16.45418,15.97316],[-16.454459,15.973068],[-16.454554,15.973248],[-16.455254,15.973153],[-16.456143,15.973327],[-16.456795,15.973052],[-16.457365,15.97259],[-16.457276,15.973654],[-16.456751,15.974697],[-16.456027,15.975344],[-16.454993,15.975848],[-16.455119,15.977473],[-16.455611,15.979077],[-16.45663,15.979739],[-16.457505,15.980752],[-16.457802,15.98073],[-16.458515,15.97971],[-16.45926,15.979913],[-16.459778,15.980471],[-16.460021,15.981368],[-16.459648,15.983032],[-16.459783,15.984299],[-16.459347,15.984883],[-16.458564,15.984948],[-16.458047,15.984665],[-16.457511,15.981845],[-16.456877,15.980981],[-16.456396,15.980793],[-16.455121,15.981077],[-16.454343,15.980854],[-16.454238,15.979811],[-16.453227,15.978733],[-16.452695,15.977164],[-16.451682,15.976087],[-16.451008,15.975079],[-16.450627,15.97407],[-16.450959,15.973099],[-16.452311,15.973172],[-16.452963,15.972897],[-16.452869,15.972762],[-16.453148,15.972624],[-16.453337,15.972894]],[[-16.4565,15.974296],[-16.456616,15.974137],[-16.456474,15.973958],[-16.456336,15.974185],[-16.4565,15.974296]]]}},{"type":"Feature","properties":{"categorie":"Culture pluviale"},"geometry":{"type":"MultiPolygon","coordinates":[[[[-16.41746,15.91294],[-16.417705,15.913775],[-16.417337,15.914062],[-16.41746,15.91294]]],[[[-16.418329,15.914563],[-16.418579,15.914711],[-16.41857,15.915366],[-16.418501,15.914922],[-16.418329,15.914563]]],[[[-16.418693,15.91582],[-16.419163,15.915138],[-16.419927,15.914647],[-16.419823,15.913801],[-16.42059,15.912572],[-16.421491,15.912395],[-16.422033,15.91204],[-16.422397,15.911456],[-16.422569,15.910551],[-16.424062,15.909492],[-16.424755,15.907935],[-16.42549,15.907265],[-16.425953,15.907063],[-16.425281,15.908098],[-16.425046,15.909293],[-16.424145,15.909913],[-16.423731,15.910901],[-16.422509,15.912428],[-16.422189,15.913343],[-16.422032,15.914989],[-16.420763,15.916506],[-16.419928,15.918554],[-16.419529,15.919143],[-16.419224,15.91808],[-16.418991,15.918172],[-16.418427,15.917724],[-16.418379,15.917498],[-16.418693,15.91582]],[[-16.421856,15.913815],[-16.421855,15.913724],[-16.421809,15.91377],[-16.421856,15.913815]]]]}},{"type":"Feature","properties":{"categorie":"Culture pluviale"},"geometry":{"type":"Polygon","coordinates":[[[-16.354093,15.940214],[-16.353499,15.934573],[-16.356182,15.934284],[-16.362065,15.933976],[-16.367413,15.932944],[-16.370615,15.932095],[-16.375751,15.930366],[-16.379037,15.929623],[-16.389015,15.925886],[-16.388924,15.926231],[-16.389113,15.926636],[-16.388928,15.926863],[-16.389116,15.926998],[-16.389119,15.927405],[-16.38856,15.927589],[-16.388279,15.9275],[-16.388001,15.927818],[-16.388096,15.928089],[-16.387821,15.928814],[-16.388058,15.929309],[-16.388433,15.929578],[-16.388992,15.929303],[-16.389179,15.929393],[-16.389318,15.929211],[-16.388941,15.928761],[-16.389358,15.928307],[-16.389686,15.92844],[-16.389969,15.928845],[-16.390247,15.928527],[-16.390855,15.928568],[-16.391598,15.927931],[-16.392385,15.92863],[-16.393286,15.929005],[-16.393706,15.928957],[-16.393336,15.929366],[-16.393338,15.929637],[-16.393197,15.929547],[-16.392871,15.929775],[-16.393152,15.929864],[-16.393109,15.930361],[-16.392828,15.930273],[-16.392689,15.930454],[-16.393111,15.930633],[-16.393528,15.930223],[-16.394042,15.930265],[-16.394278,15.93058],[-16.394187,15.930897],[-16.394047,15.930988],[-16.393812,15.930718],[-16.393535,15.931127],[-16.394285,15.931529],[-16.394937,15.931344],[-16.395262,15.93098],[-16.395445,15.930437],[-16.395577,15.929351],[-16.395482,15.929126],[-16.395855,15.928943],[-16.395541,15.927521],[-16.396401,15.926906],[-16.397522,15.926944],[-16.397804,15.927213],[-16.398646,15.927298],[-16.399945,15.926114],[-16.400376,15.925857],[-16.399604,15.926478],[-16.400354,15.929098],[-16.39902,15.930687],[-16.399307,15.931941],[-16.399804,15.932296],[-16.40042,15.932053],[-16.400927,15.931079],[-16.403259,15.931586],[-16.404823,15.929962],[-16.406278,15.929536],[-16.406583,15.928936],[-16.405558,15.928256],[-16.408941,15.923838],[-16.409928,15.921853],[-16.411378,15.919503],[-16.411483,15.919713],[-16.411856,15.91971],[-16.412226,15.919165],[-16.413345,15.918797],[-16.413343,15.918525],[-16.413529,15.918434],[-16.413435,15.918344],[-16.413807,15.918161],[-16.414131,15.917752],[-16.414638,15.916754],[-16.414542,15.916439],[-16.414051,15.916374],[-16.414394,15.915898],[-16.415587,15.915261],[-16.416221,15.916066],[-16.416877,15.916378],[-16.416741,15.916921],[-16.416229,15.917241],[-16.416277,15.917467],[-16.41609,15.917378],[-16.414836,15.91838],[-16.414467,15.919015],[-16.414655,15.91924],[-16.414472,15.919738],[-16.414567,15.919963],[-16.41494,15.919825],[-16.416483,15.920086],[-16.417319,15.919539],[-16.4176,15.919537],[-16.417788,15.919807],[-16.417973,15.919534],[-16.418061,15.91872],[-16.418293,15.918538],[-16.418434,15.918628],[-16.418673,15.919439],[-16.41849,15.920028],[-16.418585,15.920253],[-16.418077,15.92107],[-16.417944,15.921975],[-16.41804,15.922381],[-16.418369,15.922695],[-16.419254,15.922373],[-16.419904,15.921781],[-16.420794,15.922137],[-16.420883,15.921504],[-16.420409,15.920603],[-16.420011,15.920223],[-16.42049,15.920169],[-16.420712,15.919896],[-16.420921,15.919018],[-16.421777,15.918497],[-16.423084,15.915858],[-16.423762,15.915276],[-16.42423,15.91539],[-16.423866,15.916811],[-16.422822,15.918328],[-16.422492,15.919215],[-16.422208,15.921396],[-16.4224,15.922072],[-16.42289,15.922674],[-16.422873,15.922964],[-16.422205,15.923601],[-16.421494,15.924708],[-16.419697,15.925533],[-16.416965,15.927612],[-16.415485,15.928399],[-16.414622,15.929191],[-16.412532,15.932214],[-16.412482,15.933046],[-16.412955,15.933947],[-16.412093,15.934784],[-16.412015,15.935734],[-16.409841,15.936055],[-16.408934,15.935971],[-16.408618,15.936181],[-16.408529,15.936724],[-16.408886,15.93711],[-16.410099,15.936894],[-16.411015,15.936951],[-16.411259,15.937149],[-16.410164,15.939533],[-16.409635,15.940033],[-16.409456,15.939809],[-16.409591,15.939121],[-16.409934,15.938621],[-16.409867,15.938414],[-16.409286,15.93821],[-16.408212,15.938226],[-16.407195,15.938359],[-16.406336,15.939739],[-16.406331,15.940309],[-16.404625,15.940074],[-16.40302,15.94016],[-16.402797,15.939621],[-16.401682,15.939198],[-16.400977,15.939167],[-16.398201,15.939794],[-16.397203,15.940303],[-16.396658,15.940348],[-16.396479,15.938445],[-16.397705,15.936351],[-16.397572,15.936108],[-16.397029,15.935954],[-16.396033,15.935956],[-16.395316,15.936177],[-16.394243,15.937672],[-16.393582,15.938197],[-16.393052,15.938386],[-16.392383,15.938205],[-16.390613,15.93712],[-16.386743,15.936828],[-16.385879,15.938867],[-16.385895,15.941357],[-16.385749,15.941901],[-16.385273,15.941848],[-16.383472,15.940429],[-16.383067,15.940353],[-16.382557,15.940502],[-16.381757,15.941067],[-16.380561,15.94233],[-16.379385,15.944792],[-16.378735,15.94536],[-16.378109,15.945414],[-16.377332,15.945214],[-16.369791,15.941518],[-16.368789,15.941154],[-16.367883,15.941051],[-16.3673,15.941192],[-16.366906,15.941472],[-16.365691,15.94356],[-16.365023,15.944049],[-16.364183,15.943985],[-16.362265,15.943351],[-16.359405,15.942876],[-16.35787,15.942825],[-16.356706,15.943125],[-16.356157,15.943528],[-16.355651,15.944193],[-16.354048,15.947561],[-16.354285,15.944382],[-16.354093,15.940214]],[[-16.40266,15.9338],[-16.399397,15.933946],[-16.398635,15.935637],[-16.398758,15.936543],[-16.399599,15.937341],[-16.40109,15.937713],[-16.401729,15.937494],[-16.402503,15.93689],[-16.402746,15.936098],[-16.403435,15.935162],[-16.403566,15.934235],[-16.40266,15.9338]],[[-16.416312,15.925736],[-16.416757,15.925959],[-16.417131,15.925912],[-16.417315,15.925639],[-16.417127,15.92537],[-16.416425,15.925148],[-16.416286,15.925285],[-16.416312,15.925736]],[[-16.393073,15.931898],[-16.393497,15.932438],[-16.393821,15.931984],[-16.393727,15.931894],[-16.393494,15.932076],[-16.393166,15.931807],[-16.393073,15.931898]],[[-16.392798,15.932623],[-16.392796,15.932442],[-16.392704,15.932533],[-16.392798,15.932623]]]}},{"type":"Feature","properties":{"categorie":"Culture pluviale"},"geometry":{"type":"Polygon","coordinates":[[[-16.360397,15.840752],[-16.360256,15.840703],[-16.36028,15.84064],[-16.360397,15.840752]]]}},{"type":"Feature","properties":{"categorie":"Culture pluviale"},"geometry":{"type":"Polygon","coordinates":[[[-16.376125,15.986198],[-16.376748,15.985881],[-16.377544,15.98567],[-16.376942,15.986233],[-16.376125,15.986198]]]}},{"type":"Feature","properties":{"categorie":"Culture maraichère"},"geometry":{"type":"Polygon","coordinates":[[[-16.378668,15.985164],[-16.378535,15.984568],[-16.377959,15.984596],[-16.377548,15.983865],[-16.377443,15.982455],[-16.379725,15.976318],[-16.381044,15.974014],[-16.385865,15.977713],[-16.387339,15.976317],[-16.388379,15.976549],[-16.389283,15.978648],[-16.390417,15.978114],[-16.395623,15.973107],[-16.397315,15.974722],[-16.396332,15.975589],[-16.394428,15.979045],[-16.394629,15.979474],[-16.398197,15.980695],[-16.399484,15.980925],[-16.400744,15.977282],[-16.401578,15.97632],[-16.402359,15.974833],[-16.403295,15.974348],[-16.404482,15.974436],[-16.405473,15.974717],[-16.406659,15.974757],[-16.407997,15.975131],[-16.408558,15.977662],[-16.409355,15.978422],[-16.41113,15.977693],[-16.412703,15.976534],[-16.413892,15.976814],[-16.41311,15.978158],[-16.41396,15.979444],[-16.412734,15.980934],[-16.410982,15.98482],[-16.40932,15.987557],[-16.41056,15.988075],[-16.4124,15.989689],[-16.411244,15.991713],[-16.410011,15.991078],[-16.408717,15.989143],[-16.407136,15.987427],[-16.406321,15.987144],[-16.405481,15.987312],[-16.405038,15.98679],[-16.404513,15.986523],[-16.403112,15.986604],[-16.402485,15.986473],[-16.399442,15.984224],[-16.398406,15.984276],[-16.39682,15.984612],[-16.396252,15.98495],[-16.394962,15.986169],[-16.392185,15.987245],[-16.391941,15.987056],[-16.391871,15.986433],[-16.392221,15.984388],[-16.39187,15.983568],[-16.391351,15.982912],[-16.390535,15.982474],[-16.389843,15.982379],[-16.387306,15.982965],[-16.386525,15.983548],[-16.385758,15.98481],[-16.385623,15.985561],[-16.385788,15.986481],[-16.385718,15.987087],[-16.386895,15.988463],[-16.388248,15.989457],[-16.388324,15.989683],[-16.388184,15.989774],[-16.387408,15.989662],[-16.386827,15.989358],[-16.385305,15.988148],[-16.382667,15.98642],[-16.380532,15.985684],[-16.379678,15.985165],[-16.378668,15.985164]]]}},{"type":"Feature","properties":{"categorie":"Culture pluviale"},"geometry":{"type":"Polygon","coordinates":[[[-16.353067,15.928571],[-16.353193,15.925166],[-16.354074,15.920725],[-16.355407,15.91692],[-16.355824,15.911513],[-16.355348,15.908012],[-16.354272,15.905098],[-16.352787,15.903211],[-16.35158,15.900582],[-16.349617,15.89486],[-16.348896,15.891111],[-16.348727,15.888337],[-16.349013,15.885999],[-16.350041,15.881757],[-16.351673,15.877512],[-16.354961,15.872818],[-16.356908,15.870615],[-16.359795,15.868155],[-16.363495,15.865563],[-16.367505,15.861836],[-16.368664,15.860391],[-16.369394,15.858536],[-16.369587,15.855553],[-16.36946,15.85247],[-16.368692,15.848775],[-16.367084,15.846524],[-16.365532,15.845537],[-16.35697,15.842689],[-16.353614,15.841342],[-16.350834,15.841632],[-16.349651,15.841419],[-16.343241,15.842229],[-16.34218,15.839348],[-16.355944,15.832131],[-16.428288,15.83184],[-16.42743,15.835436],[-16.427147,15.835714],[-16.424908,15.846622],[-16.42485,15.848152],[-16.424792,15.847608],[-16.423029,15.847201],[-16.422151,15.849658],[-16.420963,15.852027],[-16.420174,15.854035],[-16.41927,15.857209],[-16.420045,15.857623],[-16.421689,15.854294],[-16.422759,15.852762],[-16.423801,15.854205],[-16.423811,15.855609],[-16.421577,15.858463],[-16.419887,15.861116],[-16.418371,15.863031],[-16.416786,15.865863],[-16.415144,15.868088],[-16.413792,15.869049],[-16.412797,15.869392],[-16.412242,15.869244],[-16.411161,15.868381],[-16.410658,15.868364],[-16.409825,15.869086],[-16.408983,15.870498],[-16.408657,15.871467],[-16.408439,15.872942],[-16.408568,15.875263],[-16.408368,15.876146],[-16.407892,15.876816],[-16.406291,15.878281],[-16.404831,15.879991],[-16.403781,15.881765],[-16.40366,15.882593],[-16.403718,15.885337],[-16.403212,15.889634],[-16.402796,15.891103],[-16.402128,15.891942],[-16.401656,15.895401],[-16.402191,15.898851],[-16.399346,15.902816],[-16.400062,15.903678],[-16.403682,15.899948],[-16.40444,15.898962],[-16.404835,15.899162],[-16.404989,15.899721],[-16.402801,15.902344],[-16.401475,15.904632],[-16.400865,15.906312],[-16.399904,15.906619],[-16.398984,15.906366],[-16.398389,15.906418],[-16.396875,15.906986],[-16.396156,15.907543],[-16.396078,15.908542],[-16.394976,15.913],[-16.39557,15.9148],[-16.394825,15.915121],[-16.39464,15.915348],[-16.391372,15.915505],[-16.391657,15.916136],[-16.391379,15.916589],[-16.391475,15.916905],[-16.391197,15.917223],[-16.391481,15.917764],[-16.391016,15.917993],[-16.390831,15.91831],[-16.39102,15.918716],[-16.391298,15.918307],[-16.391671,15.918305],[-16.391813,15.918439],[-16.391816,15.918982],[-16.391584,15.919209],[-16.390977,15.919168],[-16.390651,15.919305],[-16.390374,15.919781],[-16.389492,15.920533],[-16.389076,15.921214],[-16.388377,15.921444],[-16.387629,15.921359],[-16.387773,15.921855],[-16.387589,15.922217],[-16.387963,15.922305],[-16.388194,15.921897],[-16.38871,15.922255],[-16.388618,15.922482],[-16.388807,15.922887],[-16.388342,15.923162],[-16.388692,15.92326],[-16.383956,15.923952],[-16.381369,15.924533],[-16.374269,15.925348],[-16.353067,15.928571]],[[-16.368997,15.837521],[-16.369054,15.837174],[-16.369199,15.837207],[-16.369337,15.836931],[-16.369223,15.836834],[-16.369341,15.83609],[-16.369601,15.835576],[-16.368974,15.835149],[-16.36866,15.835334],[-16.368266,15.835077],[-16.367965,15.835091],[-16.367602,15.83545],[-16.367215,15.835316],[-16.367108,15.835664],[-16.367201,15.836448],[-16.367591,15.836387],[-16.367716,15.83669],[-16.367462,15.837001],[-16.367641,15.837194],[-16.36753,15.837664],[-16.368385,15.837751],[-16.368425,15.837331],[-16.368997,15.837521]],[[-16.355893,15.898587],[-16.356387,15.898384],[-16.356612,15.897845],[-16.356515,15.897015],[-16.356115,15.896834],[-16.355612,15.896875],[-16.355346,15.898152],[-16.355533,15.898523],[-16.355893,15.898587]],[[-16.392959,15.863632],[-16.393889,15.862842],[-16.394098,15.861189],[-16.39243,15.85883],[-16.39111,15.859001],[-16.389274,15.861099],[-16.389195,15.86251],[-16.390677,15.863769],[-16.391643,15.864067],[-16.392959,15.863632]],[[-16.360884,15.879202],[-16.360882,15.878791],[-16.361244,15.878577],[-16.361255,15.878176],[-16.361521,15.878183],[-16.361656,15.877447],[-16.361454,15.877263],[-16.360587,15.87726],[-16.360632,15.876989],[-16.360254,15.876955],[-16.360144,15.877217],[-16.359775,15.877075],[-16.359421,15.878444],[-16.360299,15.878546],[-16.3602,15.878905],[-16.360355,15.879098],[-16.360884,15.879202]],[[-16.361852,15.840566],[-16.36192,15.840138],[-16.361614,15.840076],[-16.361747,15.83955],[-16.361648,15.839198],[-16.361997,15.839182],[-16.361968,15.838855],[-16.361466,15.838816],[-16.361544,15.83808],[-16.360946,15.838066],[-16.360874,15.83775],[-16.360632,15.837755],[-16.360613,15.838039],[-16.360495,15.837882],[-16.360028,15.837839],[-16.359237,15.838296],[-16.359278,15.838909],[-16.359103,15.839282],[-16.359571,15.839379],[-16.359356,15.84009],[-16.359804,15.840666],[-16.359999,15.840484],[-16.360904,15.841265],[-16.36131,15.841024],[-16.361676,15.841133],[-16.361721,15.840586],[-16.361852,15.840566]],[[-16.383379,15.884342],[-16.382891,15.884156],[-16.383225,15.883712],[-16.382953,15.883372],[-16.382471,15.883175],[-16.38257,15.882945],[-16.382136,15.882846],[-16.381258,15.883659],[-16.38115,15.883612],[-16.381427,15.883172],[-16.381039,15.882974],[-16.381594,15.882068],[-16.38122,15.88179],[-16.381256,15.881599],[-16.381002,15.881567],[-16.380096,15.883077],[-16.380491,15.883593],[-16.380282,15.88382],[-16.380528,15.883972],[-16.380468,15.884201],[-16.379491,15.884302],[-16.379421,15.884943],[-16.379911,15.885825],[-16.381086,15.886397],[-16.381286,15.886157],[-16.381639,15.886269],[-16.38176,15.885007],[-16.382217,15.885297],[-16.382841,15.884503],[-16.38316,15.884704],[-16.383379,15.884342]],[[-16.40331,15.851307],[-16.403414,15.849141],[-16.403854,15.847477],[-16.402605,15.847405],[-16.402405,15.848885],[-16.402053,15.84945],[-16.401499,15.849714],[-16.400905,15.849526],[-16.400527,15.850554],[-16.401946,15.85108],[-16.402413,15.851111],[-16.402544,15.851629],[-16.40331,15.851307]],[[-16.390976,15.919077],[-16.390999,15.918942],[-16.390975,15.918897],[-16.390976,15.919077]],[[-16.387803,15.922826],[-16.387967,15.922983],[-16.388153,15.922801],[-16.388012,15.922712],[-16.387803,15.922826]],[[-16.384046,15.923234],[-16.384842,15.923455],[-16.385168,15.923363],[-16.3854,15.92309],[-16.385397,15.922729],[-16.384602,15.922598],[-16.384466,15.923186],[-16.384325,15.923007],[-16.384046,15.923234]],[[-16.382088,15.923699],[-16.382276,15.923833],[-16.382741,15.923559],[-16.383256,15.923737],[-16.383489,15.923645],[-16.383581,15.923463],[-16.383437,15.923012],[-16.383203,15.922923],[-16.382084,15.923157],[-16.382088,15.923699]]]}}]}