{"type":"FeatureCollection","name":"risques-erosion.geojson","features":[{"type":"Feature","properties":{"id":1,"risque":"Fort"},"geometry":{"type":"MultiLineString","coordinates":[[[-16.512933984180535,15.991623001869035],[-16.51304402249251,15.990515408500322]],[[-16.513159984064625,15.989348194409231],[-16.513796964847273,15.98293664848324]],[[-16.514593524556098,15.965790585724358],[-16.514659515539837,15.963054534051093],[-16.515757933792006,15.957532650250421]],[[-16.516323251732462,15.953458826517535],[-16.516393880222385,15.944783195659548],[-16.516457481510333,15.944374181849616]]]}}]}