{"type":"FeatureCollection","name":"transport-chemin-fer.geojson","features":[{"type":"Feature","properties":{"full_id":"w25779076","osm_id":"25779076","osm_type":"way","railway":"disused","ref":null,"name":null,"lit":null,"surface":null,"oneway":null,"highway":null,"layer":null,"bridge":null,"usage":"main","gauge":"1000","electrifie":"no"},"geometry":{"type":"LineString","coordinates":[[-16.4824483,15.9825525],[-16.4798849,15.9773193],[-16.4785634,15.9757931],[-16.4764367,15.9743155],[-16.4456899,15.9613378],[-16.4433132,15.959948],[-16.4391096,15.9563539],[-16.4368491,15.9537136],[-16.4359323,15.9521622],[-16.4251737,15.9300452],[-16.4241535,15.9280729],[-16.4219603,15.9244891]]}},{"type":"Feature","properties":{"full_id":"w25779078","osm_id":"25779078","osm_type":"way","railway":"disused","ref":null,"name":null,"lit":null,"surface":null,"oneway":null,"highway":null,"layer":"1","bridge":"yes","usage":"main","gauge":"1000","electrifie":"no"},"geometry":{"type":"LineString","coordinates":[[-16.4825727555442,15.982816325620409],[-16.4824483,15.9825525]]}},{"type":"Feature","properties":{"full_id":null,"osm_id":null,"osm_type":null,"railway":null,"ref":null,"name":null,"lit":null,"surface":null,"oneway":null,"highway":null,"layer":null,"bridge":null,"usage":null,"gauge":null,"electrifie":null},"geometry":{"type":"LineString","coordinates":[[-16.421957815900797,15.924492548789546],[-16.41687664394452,15.916315814296276],[-16.416253522598762,15.915762837207623],[-16.41540957579363,15.915384372923713],[-16.413712936620623,15.915207756013942],[-16.41228631669744,15.915667169914286],[-16.410485823966813,15.916949212988815],[-16.409111677420125,15.917691942688005],[-16.380157134742255,15.929092144151127],[-16.37741627196098,15.930038091120975],[-16.36995188291255,15.932217676997983],[-16.3681587692505,15.932632770175605],[-16.353515123564524,15.93450371849912]]}}]}