{"type":"FeatureCollection","name":"transport-route-construction.geojson","features":[{"type":"Feature","properties":{"full_id":"w396504174","Type de vo":"en construction","En constru":"résidentielle"},"geometry":{"type":"LineString","coordinates":[[-16.443263401080962,16.028354574957426],[-16.4411206,16.0280108]]}},{"type":"Feature","properties":{"full_id":"w396504179","Type de vo":"en construction","En constru":"résidentielle"},"geometry":{"type":"LineString","coordinates":[[-16.4412111,16.0317606],[-16.4417428,16.026397]]}},{"type":"Feature","properties":{"full_id":"w396504181","Type de vo":"en construction","En constru":"résidentielle"},"geometry":{"type":"LineString","coordinates":[[-16.44366469000558,16.02658155097304],[-16.4412332,16.0263506]]}},{"type":"Feature","properties":{"full_id":"w396504183","Type de vo":"en construction","En constru":"résidentielle"},"geometry":{"type":"LineString","coordinates":[[-16.442792322131815,16.030501193437868],[-16.440906,16.0297741]]}},{"type":"Feature","properties":{"full_id":"w397461303","Type de vo":"en construction","En constru":"résidentielle"},"geometry":{"type":"LineString","coordinates":[[-16.4692893,15.9749655],[-16.4720015,15.9764693]]}},{"type":"Feature","properties":{"full_id":"w397461304","Type de vo":"en construction","En constru":"résidentielle"},"geometry":{"type":"LineString","coordinates":[[-16.4716711,15.9744446],[-16.4698641,15.9736973]]}},{"type":"Feature","properties":{"full_id":"w397461305","Type de vo":"en construction","En constru":"résidentielle"},"geometry":{"type":"LineString","coordinates":[[-16.4686488,15.9763456],[-16.4704373,15.9723507]]}},{"type":"Feature","properties":{"full_id":"w397461306","Type de vo":"en construction","En constru":"résidentielle"},"geometry":{"type":"LineString","coordinates":[[-16.4704373,15.9723507],[-16.4723202,15.973047]]}},{"type":"Feature","properties":{"full_id":"w397461307","Type de vo":"en construction","En constru":"résidentielle"},"geometry":{"type":"LineString","coordinates":[[-16.4701476,15.977967],[-16.4723202,15.973047],[-16.4728762,15.9723767]]}},{"type":"Feature","properties":{"full_id":"w397461369","Type de vo":"en construction","En constru":"résidentielle"},"geometry":{"type":"LineString","coordinates":[[-16.4701633,15.9754337],[-16.4713449,15.9726863]]}},{"type":"Feature","properties":{"full_id":"w397461370","Type de vo":"en construction","En constru":"résidentielle"},"geometry":{"type":"LineString","coordinates":[[-16.4717155,15.974349],[-16.4698922,15.9735996]]}}]}