{"type":"FeatureCollection","name":"urbanisation-lotissements.geojson","features":[{"type":"Feature","properties":{"Id":0},"geometry":{"type":"Polygon","coordinates":[[[-16.441380379951667,16.03128526309431],[-16.442148476550983,16.025790426147584],[-16.443852690451696,16.026025150744196],[-16.443629896049583,16.026684526074852],[-16.44258731736963,16.03143536171663],[-16.441380379951667,16.03128526309431]]]}},{"type":"Feature","properties":{"Id":0},"geometry":{"type":"Polygon","coordinates":[[[-16.45283518396979,16.006424224934346],[-16.459843310152692,15.999145463751246],[-16.46223867328741,16.00217088671272],[-16.458882171320646,16.005694546678182],[-16.463324173787846,16.01110040908838],[-16.459304606391093,16.012550384177153],[-16.45821550086548,16.01298817505758],[-16.45283518396979,16.006424224934346]]]}},{"type":"Feature","properties":{"Id":0},"geometry":{"type":"Polygon","coordinates":[[[-16.463421853732207,15.965499004395657],[-16.460679644884994,15.965708931746677],[-16.459193499922293,15.965288578045213],[-16.459062122273387,15.96421338695455],[-16.459600871955285,15.963516260336657],[-16.458881312884955,15.9631385305318],[-16.45856259042486,15.96349938393041],[-16.457468821534047,15.962645925175133],[-16.457559905795797,15.96156922615756],[-16.458639995972167,15.960533655807204],[-16.459135191647857,15.96064986548876],[-16.45947568176615,15.959882344239796],[-16.46346769657569,15.961600892320112],[-16.46531461401607,15.963606052766458],[-16.463421853732207,15.965499004395657]]]}}]}