{"type":"FeatureCollection","name":"urbain-zone-habitation-empreinte.geojson","features":[{"type":"Feature","properties":{"nature":"Empreinte urbaine","superficie_m2":35724.6},"geometry":{"type":"Polygon","coordinates":[[[-16.348918,16.103002],[-16.348917,16.102912],[-16.349011,16.102956],[-16.348918,16.103002]]]}},{"type":"Feature","properties":{"nature":"Empreinte urbaine","superficie_m2":35724.6},"geometry":{"type":"Polygon","coordinates":[[[-16.348683,16.102913],[-16.348683,16.102823],[-16.34873,16.102868],[-16.348683,16.102913]]]}},{"type":"Feature","properties":{"nature":"Empreinte urbaine","superficie_m2":35724.6},"geometry":{"type":"Polygon","coordinates":[[[-16.34455,16.100047],[-16.34455,16.099956],[-16.344597,16.100001],[-16.34455,16.100047]]]}},{"type":"Feature","properties":{"nature":"Empreinte urbaine","superficie_m2":35724.6},"geometry":{"type":"Polygon","coordinates":[[[-16.344456,16.099957],[-16.344456,16.099867],[-16.344503,16.099912],[-16.344456,16.099957]]]}},{"type":"Feature","properties":{"nature":"Empreinte urbaine","superficie_m2":35724.6},"geometry":{"type":"Polygon","coordinates":[[[-16.34553,16.099815],[-16.345342,16.099635],[-16.345809,16.099542],[-16.345811,16.099768],[-16.34553,16.099815]]]}},{"type":"Feature","properties":{"nature":"Empreinte urbaine","superficie_m2":35724.6},"geometry":{"type":"Polygon","coordinates":[[[-16.369374,16.093472],[-16.369373,16.093382],[-16.36942,16.093427],[-16.369374,16.093472]]]}},{"type":"Feature","properties":{"nature":"Empreinte urbaine","superficie_m2":35724.6},"geometry":{"type":"Polygon","coordinates":[[[-16.358062,16.093544],[-16.358062,16.093454],[-16.358109,16.093499],[-16.358062,16.093544]]]}},{"type":"Feature","properties":{"nature":"Empreinte urbaine","superficie_m2":35724.6},"geometry":{"type":"Polygon","coordinates":[[[-16.358341,16.093362],[-16.358341,16.093271],[-16.358388,16.093316],[-16.358341,16.093362]]]}},{"type":"Feature","properties":{"nature":"Empreinte urbaine","superficie_m2":35724.6},"geometry":{"type":"Polygon","coordinates":[[[-16.369349,16.093269],[-16.369255,16.093179],[-16.369231,16.093157],[-16.369324,16.093111],[-16.369349,16.093269]]]}},{"type":"Feature","properties":{"nature":"Empreinte urbaine","superficie_m2":35724.6},"geometry":{"type":"Polygon","coordinates":[[[-16.365046,16.089523],[-16.365046,16.089433],[-16.365093,16.089478],[-16.365046,16.089523]]]}},{"type":"Feature","properties":{"nature":"Empreinte urbaine","superficie_m2":35724.6},"geometry":{"type":"Polygon","coordinates":[[[-16.364245,16.088624],[-16.364245,16.088534],[-16.364339,16.088579],[-16.364245,16.088624]]]}},{"type":"Feature","properties":{"nature":"Empreinte urbaine","superficie_m2":35724.6},"geometry":{"type":"Polygon","coordinates":[[[-16.366251,16.087979],[-16.366296,16.087707],[-16.366484,16.087842],[-16.366251,16.087979]]]}},{"type":"Feature","properties":{"nature":"Empreinte urbaine","superficie_m2":35724.6},"geometry":{"type":"Polygon","coordinates":[[[-16.365765,16.085338],[-16.36553,16.085136],[-16.365619,16.084458],[-16.366737,16.083818],[-16.367299,16.083995],[-16.368052,16.084804],[-16.365765,16.085338]]]}},{"type":"Feature","properties":{"nature":"Empreinte urbaine","superficie_m2":35724.6},"geometry":{"type":"Polygon","coordinates":[[[-16.384425,16.083388],[-16.384024,16.082848],[-16.384114,16.082396],[-16.383925,16.082081],[-16.384111,16.081899],[-16.384767,16.082121],[-16.384956,16.082481],[-16.384425,16.083388]]]}},{"type":"Feature","properties":{"nature":"Empreinte urbaine","superficie_m2":35724.6},"geometry":{"type":"Polygon","coordinates":[[[-16.384249,16.081536],[-16.384248,16.081446],[-16.384295,16.081491],[-16.384249,16.081536]]]}},{"type":"Feature","properties":{"nature":"Empreinte urbaine","superficie_m2":35724.6},"geometry":{"type":"Polygon","coordinates":[[[-16.384109,16.081582],[-16.383827,16.081449],[-16.38392,16.081358],[-16.384109,16.081582]]]}},{"type":"Feature","properties":{"nature":"Empreinte urbaine","superficie_m2":35724.6},"geometry":{"type":"Polygon","coordinates":[[[-16.384341,16.081445],[-16.384341,16.081355],[-16.384388,16.0814],[-16.384341,16.081445]]]}},{"type":"Feature","properties":{"nature":"Empreinte urbaine","superficie_m2":35724.6},"geometry":{"type":"Polygon","coordinates":[[[-16.383843,16.080274],[-16.38391,16.079912],[-16.384331,16.079909],[-16.384193,16.080226],[-16.383843,16.080274]]]}},{"type":"Feature","properties":{"nature":"Empreinte urbaine","superficie_m2":35724.6},"geometry":{"type":"Polygon","coordinates":[[[-16.35893,16.080275],[-16.358952,16.080027],[-16.359233,16.08007],[-16.35914,16.080251],[-16.35893,16.080275]]]}},{"type":"Feature","properties":{"nature":"Empreinte urbaine","superficie_m2":35724.6},"geometry":{"type":"Polygon","coordinates":[[[-16.403512,16.079129],[-16.403019,16.078793],[-16.402876,16.078478],[-16.403341,16.078068],[-16.403764,16.078427],[-16.403907,16.078878],[-16.403512,16.079129]]]}},{"type":"Feature","properties":{"nature":"Empreinte urbaine","superficie_m2":35724.6},"geometry":{"type":"Polygon","coordinates":[[[-16.357398,16.078274],[-16.357397,16.078184],[-16.357444,16.078228],[-16.357398,16.078274]]]}},{"type":"Feature","properties":{"nature":"Empreinte urbaine","superficie_m2":35724.6},"geometry":{"type":"Polygon","coordinates":[[[-16.411799,16.077832],[-16.411798,16.077741],[-16.411845,16.077786],[-16.411799,16.077832]]]}},{"type":"Feature","properties":{"nature":"Empreinte urbaine","superficie_m2":35724.6},"geometry":{"type":"Polygon","coordinates":[[[-16.359161,16.079844],[-16.359043,16.079664],[-16.359227,16.079302],[-16.358853,16.079214],[-16.358946,16.079123],[-16.358757,16.078898],[-16.35913,16.07876],[-16.359036,16.07867],[-16.359222,16.078534],[-16.359503,16.078622],[-16.35978,16.078123],[-16.360341,16.07812],[-16.360109,16.078347],[-16.359742,16.079344],[-16.359161,16.079844]],[[-16.359321,16.079256],[-16.359319,16.079075],[-16.359226,16.079166],[-16.359321,16.079256]]]}},{"type":"Feature","properties":{"nature":"Empreinte urbaine","superficie_m2":35724.6},"geometry":{"type":"Polygon","coordinates":[[[-16.357864,16.078181],[-16.357537,16.078138],[-16.357816,16.078],[-16.357864,16.078181]]]}},{"type":"Feature","properties":{"nature":"Empreinte urbaine","superficie_m2":35724.6},"geometry":{"type":"Polygon","coordinates":[[[-16.357489,16.078002],[-16.357489,16.077912],[-16.357536,16.077957],[-16.357489,16.078002]]]}},{"type":"Feature","properties":{"nature":"Empreinte urbaine","superficie_m2":35724.6},"geometry":{"type":"Polygon","coordinates":[[[-16.356827,16.076831],[-16.356826,16.076741],[-16.356873,16.076786],[-16.356827,16.076831]]]}},{"type":"Feature","properties":{"nature":"Empreinte urbaine","superficie_m2":35724.6},"geometry":{"type":"Polygon","coordinates":[[[-16.409405,16.076401],[-16.409405,16.076311],[-16.409498,16.076355],[-16.409405,16.076401]]]}},{"type":"Feature","properties":{"nature":"Empreinte urbaine","superficie_m2":35724.6},"geometry":{"type":"Polygon","coordinates":[[[-16.413562,16.076012],[-16.413562,16.075922],[-16.413609,16.075967],[-16.413562,16.076012]]]}},{"type":"Feature","properties":{"nature":"Empreinte urbaine","superficie_m2":35724.6},"geometry":{"type":"Polygon","coordinates":[[[-16.414076,16.075964],[-16.413513,16.075741],[-16.413885,16.075377],[-16.414261,16.075691],[-16.414076,16.075964]]]}},{"type":"Feature","properties":{"nature":"Empreinte urbaine","superficie_m2":35724.6},"geometry":{"type":"Polygon","coordinates":[[[-16.415749,16.074642],[-16.415656,16.074643],[-16.415702,16.074552],[-16.415749,16.074642]]]}},{"type":"Feature","properties":{"nature":"Empreinte urbaine","superficie_m2":35724.6},"geometry":{"type":"Polygon","coordinates":[[[-16.356436,16.074303],[-16.356435,16.074213],[-16.356482,16.074258],[-16.356436,16.074303]]]}},{"type":"Feature","properties":{"nature":"Empreinte urbaine","superficie_m2":35724.6},"geometry":{"type":"Polygon","coordinates":[[[-16.363145,16.0746],[-16.362932,16.074262],[-16.363071,16.07408],[-16.363214,16.074441],[-16.363145,16.0746]]]}},{"type":"Feature","properties":{"nature":"Empreinte urbaine","superficie_m2":35724.6},"geometry":{"type":"Polygon","coordinates":[[[-16.362676,16.074422],[-16.362559,16.07431],[-16.362184,16.074131],[-16.36279,16.073992],[-16.362676,16.074422]]]}},{"type":"Feature","properties":{"nature":"Empreinte urbaine","superficie_m2":35724.6},"geometry":{"type":"Polygon","coordinates":[[[-16.362136,16.074086],[-16.362136,16.073996],[-16.362183,16.074041],[-16.362136,16.074086]]]}},{"type":"Feature","properties":{"nature":"Empreinte urbaine","superficie_m2":35724.6},"geometry":{"type":"Polygon","coordinates":[[[-16.362414,16.073723],[-16.362414,16.073633],[-16.362461,16.073678],[-16.362414,16.073723]]]}},{"type":"Feature","properties":{"nature":"Empreinte urbaine","superficie_m2":35724.6},"geometry":{"type":"Polygon","coordinates":[[[-16.434431,16.0728],[-16.434244,16.072847],[-16.434384,16.07271],[-16.434431,16.0728]]]}},{"type":"Feature","properties":{"nature":"Empreinte urbaine","superficie_m2":35724.6},"geometry":{"type":"Polygon","coordinates":[[[-16.443856,16.070658],[-16.44367,16.070705],[-16.443762,16.070569],[-16.443856,16.070658]]]}},{"type":"Feature","properties":{"nature":"Empreinte urbaine","superficie_m2":35724.6},"geometry":{"type":"Polygon","coordinates":[[[-16.384964,16.070144],[-16.384778,16.07019],[-16.384917,16.070054],[-16.384964,16.070144]]]}},{"type":"Feature","properties":{"nature":"Empreinte urbaine","superficie_m2":35724.6},"geometry":{"type":"Polygon","coordinates":[[[-16.355298,16.064956],[-16.354829,16.064823],[-16.355014,16.064506],[-16.355575,16.064593],[-16.355298,16.064956]]]}},{"type":"Feature","properties":{"nature":"Empreinte urbaine","superficie_m2":35724.6},"geometry":{"type":"Polygon","coordinates":[[[-16.395282,16.061762],[-16.39528,16.061581],[-16.395374,16.061671],[-16.395282,16.061762]]]}},{"type":"Feature","properties":{"nature":"Empreinte urbaine","superficie_m2":35724.6},"geometry":{"type":"Polygon","coordinates":[[[-16.408643,16.061042],[-16.408549,16.061042],[-16.408595,16.060952],[-16.408643,16.061042]]]}},{"type":"Feature","properties":{"nature":"Empreinte urbaine","superficie_m2":35724.6},"geometry":{"type":"Polygon","coordinates":[[[-16.407361,16.06157],[-16.40659,16.061552],[-16.406401,16.061327],[-16.406447,16.061146],[-16.407239,16.060734],[-16.407706,16.060731],[-16.407895,16.061046],[-16.407361,16.06157]]]}},{"type":"Feature","properties":{"nature":"Empreinte urbaine","superficie_m2":35724.6},"geometry":{"type":"Polygon","coordinates":[[[-16.396535,16.060579],[-16.396395,16.060534],[-16.396675,16.060533],[-16.396535,16.060579]]]}},{"type":"Feature","properties":{"nature":"Empreinte urbaine","superficie_m2":35724.6},"geometry":{"type":"Polygon","coordinates":[[[-16.411702,16.064162],[-16.411139,16.063737],[-16.410812,16.063739],[-16.410526,16.063063],[-16.410618,16.062791],[-16.409588,16.062527],[-16.409021,16.061672],[-16.409113,16.0614],[-16.408963,16.060136],[-16.408634,16.059822],[-16.408536,16.059189],[-16.40858,16.058782],[-16.408812,16.058465],[-16.409887,16.058503],[-16.410586,16.058317],[-16.411383,16.058583],[-16.41134,16.059216],[-16.410552,16.060035],[-16.410511,16.060894],[-16.41108,16.062065],[-16.41155,16.062423],[-16.412157,16.062374],[-16.412532,16.062552],[-16.412536,16.063004],[-16.412168,16.063911],[-16.411702,16.064162]]]}},{"type":"Feature","properties":{"nature":"Empreinte urbaine","superficie_m2":35724.6},"geometry":{"type":"Polygon","coordinates":[[[-16.391301,16.060613],[-16.390967,16.059575],[-16.390118,16.058451],[-16.390628,16.057906],[-16.391522,16.058758],[-16.391429,16.058849],[-16.391905,16.060021],[-16.391627,16.060475],[-16.391301,16.060613]],[[-16.391105,16.059349],[-16.391337,16.059076],[-16.391149,16.058896],[-16.391105,16.059349]]]}},{"type":"Feature","properties":{"nature":"Empreinte urbaine","superficie_m2":35724.6},"geometry":{"type":"Polygon","coordinates":[[[-16.39558,16.060946],[-16.395274,16.060677],[-16.394247,16.060865],[-16.393683,16.060326],[-16.393122,16.06033],[-16.393026,16.060059],[-16.393118,16.059787],[-16.394421,16.059056],[-16.39493,16.058239],[-16.395442,16.057965],[-16.394878,16.057562],[-16.395205,16.057424],[-16.395532,16.057512],[-16.39581,16.057104],[-16.396276,16.056875],[-16.395899,16.05647],[-16.396128,16.055791],[-16.396454,16.055699],[-16.39697,16.055966],[-16.397063,16.055875],[-16.397393,16.056235],[-16.397489,16.056596],[-16.397306,16.057139],[-16.397541,16.057318],[-16.398054,16.05727],[-16.39815,16.05754],[-16.397553,16.059126],[-16.397556,16.059578],[-16.397697,16.059712],[-16.396856,16.059628],[-16.396393,16.060308],[-16.39558,16.060946]]]}},{"type":"Feature","properties":{"nature":"Empreinte urbaine","superficie_m2":35724.6},"geometry":{"type":"Polygon","coordinates":[[[-16.414632,16.055489],[-16.414632,16.055399],[-16.414679,16.055443],[-16.414632,16.055489]]]}},{"type":"Feature","properties":{"nature":"Empreinte urbaine","superficie_m2":35724.6},"geometry":{"type":"Polygon","coordinates":[[[-16.410022,16.057756],[-16.40974,16.057645],[-16.409551,16.05733],[-16.409918,16.056288],[-16.409727,16.055747],[-16.410325,16.054342],[-16.410649,16.053934],[-16.411208,16.053614],[-16.411771,16.054062],[-16.411124,16.055015],[-16.411921,16.055326],[-16.412063,16.055641],[-16.411785,16.055914],[-16.412113,16.056048],[-16.412391,16.055775],[-16.413187,16.05595],[-16.413837,16.055313],[-16.414492,16.055445],[-16.414493,16.055625],[-16.414681,16.055715],[-16.414263,16.056124],[-16.413168,16.056651],[-16.412963,16.057398],[-16.412685,16.057671],[-16.411653,16.057135],[-16.410861,16.057547],[-16.410022,16.057756]],[[-16.41184,16.057134],[-16.411839,16.057044],[-16.411793,16.057089],[-16.41184,16.057134]],[[-16.412026,16.057043],[-16.412026,16.056952],[-16.411979,16.056998],[-16.412026,16.057043]],[[-16.412303,16.056589],[-16.412303,16.056498],[-16.412256,16.056544],[-16.412303,16.056589]]]}},{"type":"Feature","properties":{"nature":"Empreinte urbaine","superficie_m2":35724.6},"geometry":{"type":"Polygon","coordinates":[[[-16.418703,16.049587],[-16.418702,16.049497],[-16.418749,16.049542],[-16.418703,16.049587]]]}},{"type":"Feature","properties":{"nature":"Empreinte urbaine","superficie_m2":35724.6},"geometry":{"type":"Polygon","coordinates":[[[-16.423508,16.035275],[-16.423509,16.035411],[-16.423415,16.035321],[-16.423508,16.035275]]]}},{"type":"Feature","properties":{"nature":"Empreinte urbaine","superficie_m2":35724.6},"geometry":{"type":"Polygon","coordinates":[[[-16.431169,16.034953],[-16.431075,16.034773],[-16.43112,16.034592],[-16.431262,16.034817],[-16.431169,16.034953]]]}},{"type":"Feature","properties":{"nature":"Empreinte urbaine","superficie_m2":35724.6},"geometry":{"type":"Polygon","coordinates":[[[-16.425365,16.027016],[-16.425224,16.026813],[-16.425503,16.026586],[-16.425691,16.026765],[-16.425365,16.027016]]]}},{"type":"Feature","properties":{"nature":"Empreinte urbaine","superficie_m2":35724.6},"geometry":{"type":"Polygon","coordinates":[[[-16.359306,16.022044],[-16.359305,16.021863],[-16.359399,16.021953],[-16.359306,16.022044]]]}},{"type":"Feature","properties":{"nature":"Empreinte urbaine","superficie_m2":35724.6},"geometry":{"type":"Polygon","coordinates":[[[-16.404217,16.009734],[-16.40417,16.009554],[-16.404357,16.009688],[-16.404217,16.009734]]]}},{"type":"Feature","properties":{"nature":"Empreinte urbaine","superficie_m2":35724.6},"geometry":{"type":"Polygon","coordinates":[[[-16.469076,15.98526],[-16.469076,15.985169],[-16.469123,15.985214],[-16.469076,15.98526]]]}},{"type":"Feature","properties":{"nature":"Empreinte urbaine","superficie_m2":35724.6},"geometry":{"type":"Polygon","coordinates":[[[-16.512936,15.978268],[-16.512889,15.978132],[-16.512934,15.977997],[-16.512936,15.978268]]]}},{"type":"Feature","properties":{"nature":"Empreinte urbaine","superficie_m2":35724.6},"geometry":{"type":"Polygon","coordinates":[[[-16.512417,15.977548],[-16.512324,15.977549],[-16.51237,15.977458],[-16.512417,15.977548]]]}},{"type":"Feature","properties":{"nature":"Empreinte urbaine","superficie_m2":35724.6},"geometry":{"type":"Polygon","coordinates":[[[-16.512276,15.977459],[-16.512276,15.977369],[-16.512323,15.977413],[-16.512276,15.977459]]]}},{"type":"Feature","properties":{"nature":"Empreinte urbaine","superficie_m2":35724.6},"geometry":{"type":"Polygon","coordinates":[[[-16.458019,15.974309],[-16.458017,15.974128],[-16.458111,15.974218],[-16.458019,15.974309]]]}},{"type":"Feature","properties":{"nature":"Empreinte urbaine","superficie_m2":35724.6},"geometry":{"type":"Polygon","coordinates":[[[-16.456454,15.974297],[-16.456336,15.974185],[-16.456474,15.973958],[-16.456616,15.974137],[-16.456454,15.974297]]]}},{"type":"Feature","properties":{"nature":"Empreinte urbaine","superficie_m2":35724.6},"geometry":{"type":"Polygon","coordinates":[[[-16.482078,15.974574],[-16.481937,15.974462],[-16.482076,15.974325],[-16.482073,15.973873],[-16.481649,15.973379],[-16.481924,15.972654],[-16.482855,15.972286],[-16.483273,15.971877],[-16.483091,15.972601],[-16.482765,15.972784],[-16.482815,15.973145],[-16.482444,15.973509],[-16.482356,15.974323],[-16.482078,15.974574]]]}},{"type":"Feature","properties":{"nature":"Empreinte urbaine","superficie_m2":35724.6},"geometry":{"type":"Polygon","coordinates":[[[-16.504615,15.971231],[-16.504429,15.971323],[-16.504567,15.971006],[-16.504615,15.971231]]]}},{"type":"Feature","properties":{"nature":"Empreinte urbaine","superficie_m2":35724.6},"geometry":{"type":"Polygon","coordinates":[[[-16.462893,15.970118],[-16.462892,15.970028],[-16.462939,15.970073],[-16.462893,15.970118]]]}},{"type":"Feature","properties":{"nature":"Empreinte urbaine","superficie_m2":35724.6},"geometry":{"type":"Polygon","coordinates":[[[-16.512625,15.977253],[-16.512275,15.977278],[-16.511993,15.977009],[-16.511513,15.975295],[-16.511371,15.97507],[-16.510997,15.975028],[-16.510712,15.974442],[-16.510707,15.973719],[-16.510892,15.973537],[-16.510798,15.973402],[-16.511393,15.971771],[-16.511383,15.970416],[-16.51114,15.969152],[-16.511274,15.968338],[-16.51151,15.968653],[-16.511469,15.969511],[-16.511563,15.969601],[-16.511655,15.96942],[-16.511797,15.969554],[-16.512451,15.969595],[-16.51273,15.969412],[-16.512965,15.969682],[-16.513058,15.969591],[-16.513391,15.970447],[-16.513161,15.970855],[-16.513118,15.971353],[-16.513313,15.972436],[-16.513283,15.97465],[-16.513099,15.975103],[-16.512948,15.976641],[-16.512625,15.977253]],[[-16.511037,15.974124],[-16.511269,15.973987],[-16.511082,15.973897],[-16.511267,15.97367],[-16.511125,15.9734],[-16.510988,15.973808],[-16.511037,15.974124]]]}},{"type":"Feature","properties":{"nature":"Empreinte urbaine","superficie_m2":35724.6},"geometry":{"type":"Polygon","coordinates":[[[-16.445681,15.967071],[-16.44568,15.966981],[-16.445727,15.967026],[-16.445681,15.967071]]]}},{"type":"Feature","properties":{"nature":"Empreinte urbaine","superficie_m2":35724.6},"geometry":{"type":"Polygon","coordinates":[[[-16.457679,15.966177],[-16.457679,15.966087],[-16.457773,15.966131],[-16.457679,15.966177]]]}},{"type":"Feature","properties":{"nature":"Empreinte urbaine","superficie_m2":35724.6},"geometry":{"type":"Polygon","coordinates":[[[-16.490404,15.963377],[-16.490121,15.963063],[-16.490118,15.962701],[-16.490441,15.962111],[-16.490908,15.962108],[-16.491098,15.962559],[-16.490913,15.962831],[-16.491102,15.963101],[-16.490404,15.963377]]]}},{"type":"Feature","properties":{"nature":"Empreinte urbaine","superficie_m2":35724.6},"geometry":{"type":"Polygon","coordinates":[[[-16.487459,15.95994],[-16.487433,15.959602],[-16.487619,15.959465],[-16.487809,15.95987],[-16.487459,15.95994]],[[-16.487575,15.959827],[-16.487574,15.959736],[-16.487528,15.959782],[-16.487575,15.959827]]]}},{"type":"Feature","properties":{"nature":"Empreinte urbaine","superficie_m2":35724.6},"geometry":{"type":"Polygon","coordinates":[[[-16.487385,15.959466],[-16.48743,15.959195],[-16.487618,15.959329],[-16.487385,15.959466]]]}},{"type":"Feature","properties":{"nature":"Empreinte urbaine","superficie_m2":35724.6},"geometry":{"type":"Polygon","coordinates":[[[-16.487758,15.959283],[-16.487617,15.959239],[-16.487897,15.959237],[-16.487758,15.959283]]]}},{"type":"Feature","properties":{"nature":"Empreinte urbaine","superficie_m2":35724.6},"geometry":{"type":"Polygon","coordinates":[[[-16.487663,15.959103],[-16.487662,15.959013],[-16.487709,15.959058],[-16.487663,15.959103]]]}},{"type":"Feature","properties":{"nature":"Empreinte urbaine","superficie_m2":35724.6},"geometry":{"type":"Polygon","coordinates":[[[-16.487569,15.959013],[-16.487568,15.958923],[-16.487615,15.958968],[-16.487569,15.959013]]]}},{"type":"Feature","properties":{"nature":"Empreinte urbaine","superficie_m2":35724.6},"geometry":{"type":"Polygon","coordinates":[[[-16.488247,15.959167],[-16.487613,15.958697],[-16.487799,15.958515],[-16.488313,15.958556],[-16.48855,15.959052],[-16.488247,15.959167]]]}},{"type":"Feature","properties":{"nature":"Empreinte urbaine","superficie_m2":35724.6},"geometry":{"type":"Polygon","coordinates":[[[-16.477415,15.956553],[-16.477321,15.956553],[-16.477367,15.956463],[-16.477415,15.956553]]]}},{"type":"Feature","properties":{"nature":"Empreinte urbaine","superficie_m2":35724.6},"geometry":{"type":"Polygon","coordinates":[[[-16.477737,15.955918],[-16.477736,15.955827],[-16.477783,15.955872],[-16.477737,15.955918]]]}},{"type":"Feature","properties":{"nature":"Empreinte urbaine","superficie_m2":35724.6},"geometry":{"type":"Polygon","coordinates":[[[-16.4768,15.955563],[-16.476799,15.955472],[-16.476847,15.955517],[-16.4768,15.955563]]]}},{"type":"Feature","properties":{"nature":"Empreinte urbaine","superficie_m2":35724.6},"geometry":{"type":"Polygon","coordinates":[[[-16.47708,15.95547],[-16.477079,15.95538],[-16.477126,15.955425],[-16.47708,15.95547]]]}},{"type":"Feature","properties":{"nature":"Empreinte urbaine","superficie_m2":35724.6},"geometry":{"type":"Polygon","coordinates":[[[-16.476893,15.955472],[-16.476892,15.955381],[-16.476939,15.955426],[-16.476893,15.955472]]]}},{"type":"Feature","properties":{"nature":"Empreinte urbaine","superficie_m2":35724.6},"geometry":{"type":"Polygon","coordinates":[[[-16.512175,15.954662],[-16.51126,15.954058],[-16.511397,15.953651],[-16.511912,15.953783],[-16.512051,15.953691],[-16.512662,15.954139],[-16.512571,15.954501],[-16.512616,15.954275],[-16.512382,15.954141],[-16.511963,15.95437],[-16.512197,15.954504],[-16.512175,15.954662]]]}},{"type":"Feature","properties":{"nature":"Empreinte urbaine","superficie_m2":35724.6},"geometry":{"type":"Polygon","coordinates":[[[-16.503146,15.955877],[-16.502722,15.955293],[-16.503223,15.953663],[-16.503592,15.953027],[-16.503831,15.953749],[-16.503966,15.953115],[-16.504061,15.953205],[-16.504069,15.954289],[-16.503705,15.955648],[-16.503146,15.955877]]]}},{"type":"Feature","properties":{"nature":"Empreinte urbaine","superficie_m2":35724.6},"geometry":{"type":"Polygon","coordinates":[[[-16.504058,15.952843],[-16.504057,15.952753],[-16.504104,15.952798],[-16.504058,15.952843]]]}},{"type":"Feature","properties":{"nature":"Empreinte urbaine","superficie_m2":35724.6},"geometry":{"type":"Polygon","coordinates":[[[-16.503832,15.950699],[-16.503755,15.949773],[-16.503663,15.950044],[-16.503427,15.949639],[-16.503518,15.949322],[-16.503797,15.94914],[-16.503832,15.950699]]]}},{"type":"Feature","properties":{"nature":"Empreinte urbaine","superficie_m2":35724.6},"geometry":{"type":"Polygon","coordinates":[[[-16.514899,15.947345],[-16.514806,15.947345],[-16.514852,15.947255],[-16.514899,15.947345]]]}},{"type":"Feature","properties":{"nature":"Empreinte urbaine","superficie_m2":35724.6},"geometry":{"type":"Polygon","coordinates":[[[-16.470314,15.943587],[-16.470312,15.943406],[-16.470406,15.943496],[-16.470314,15.943587]]]}},{"type":"Feature","properties":{"nature":"Empreinte urbaine","superficie_m2":35724.6},"geometry":{"type":"Polygon","coordinates":[[[-16.470241,15.943293],[-16.470124,15.943136],[-16.470216,15.943045],[-16.470404,15.943179],[-16.470241,15.943293]]]}},{"type":"Feature","properties":{"nature":"Empreinte urbaine","superficie_m2":35724.6},"geometry":{"type":"Polygon","coordinates":[[[-16.474,15.939619],[-16.474257,15.943342],[-16.473868,15.94424],[-16.473962,15.94433],[-16.473592,15.944739],[-16.473497,15.944604],[-16.473866,15.943969],[-16.473772,15.943879],[-16.472135,15.943574],[-16.47195,15.943756],[-16.470965,15.943221],[-16.470867,15.942634],[-16.470212,15.942412],[-16.470537,15.942229],[-16.471046,15.941548],[-16.470952,15.941458],[-16.471136,15.94105],[-16.470947,15.940826],[-16.471642,15.940053],[-16.471736,15.940142],[-16.472201,15.939778],[-16.472436,15.940002],[-16.472903,15.939999],[-16.472901,15.939728],[-16.47304,15.939591],[-16.473507,15.939588],[-16.473786,15.939405],[-16.474,15.939619]],[[-16.473042,15.939772],[-16.473041,15.939682],[-16.472994,15.939727],[-16.473042,15.939772]]]}},{"type":"Feature","properties":{"nature":"Empreinte urbaine","superficie_m2":35724.6},"geometry":{"type":"Polygon","coordinates":[[[-16.392798,15.932623],[-16.392796,15.932442],[-16.39289,15.932532],[-16.392798,15.932623]]]}},{"type":"Feature","properties":{"nature":"Empreinte urbaine","superficie_m2":35724.6},"geometry":{"type":"Polygon","coordinates":[[[-16.393473,15.932415],[-16.393073,15.931898],[-16.393166,15.931807],[-16.393494,15.932076],[-16.393727,15.931894],[-16.393821,15.931984],[-16.393473,15.932415]]]}},{"type":"Feature","properties":{"nature":"Empreinte urbaine","superficie_m2":35724.6},"geometry":{"type":"Polygon","coordinates":[[[-16.41657,15.925916],[-16.416288,15.925691],[-16.416286,15.925285],[-16.416425,15.925148],[-16.417268,15.925504],[-16.417131,15.925912],[-16.41657,15.925916]]]}},{"type":"Feature","properties":{"nature":"Empreinte urbaine","superficie_m2":35724.6},"geometry":{"type":"Polygon","coordinates":[[[-16.422636,15.925107],[-16.422588,15.924927],[-16.422729,15.925062],[-16.422636,15.925107]]]}},{"type":"Feature","properties":{"nature":"Empreinte urbaine","superficie_m2":35724.6},"geometry":{"type":"Polygon","coordinates":[[[-16.382229,15.923811],[-16.382041,15.923654],[-16.382084,15.923157],[-16.383203,15.922923],[-16.383437,15.923012],[-16.383581,15.923463],[-16.383489,15.923645],[-16.383256,15.923737],[-16.382741,15.923559],[-16.382229,15.923811]]]}},{"type":"Feature","properties":{"nature":"Empreinte urbaine","superficie_m2":35724.6},"geometry":{"type":"Polygon","coordinates":[[[-16.387921,15.922961],[-16.38778,15.922849],[-16.387873,15.922758],[-16.388153,15.922801],[-16.387921,15.922961]]]}},{"type":"Feature","properties":{"nature":"Empreinte urbaine","superficie_m2":35724.6},"geometry":{"type":"Polygon","coordinates":[[[-16.384678,15.923411],[-16.384046,15.923234],[-16.384325,15.923007],[-16.384466,15.923186],[-16.384695,15.922552],[-16.385397,15.922729],[-16.3854,15.92309],[-16.385168,15.923363],[-16.384678,15.923411]]]}},{"type":"Feature","properties":{"nature":"Empreinte urbaine","superficie_m2":35724.6},"geometry":{"type":"Polygon","coordinates":[[[-16.404532,15.920888],[-16.404532,15.920797],[-16.404579,15.920842],[-16.404532,15.920888]]]}},{"type":"Feature","properties":{"nature":"Empreinte urbaine","superficie_m2":35724.6},"geometry":{"type":"Polygon","coordinates":[[[-16.391022,15.918987],[-16.390929,15.918987],[-16.390975,15.918897],[-16.391022,15.918987]]]}},{"type":"Feature","properties":{"nature":"Empreinte urbaine","superficie_m2":35724.6},"geometry":{"type":"Polygon","coordinates":[[[-16.410352,15.918229],[-16.410258,15.918229],[-16.410304,15.918139],[-16.410352,15.918229]]]}},{"type":"Feature","properties":{"nature":"Empreinte urbaine","superficie_m2":35724.6},"geometry":{"type":"Polygon","coordinates":[[[-16.409604,15.918143],[-16.409603,15.918053],[-16.409697,15.918097],[-16.409604,15.918143]]]}},{"type":"Feature","properties":{"nature":"Empreinte urbaine","superficie_m2":35724.6},"geometry":{"type":"Polygon","coordinates":[[[-16.408973,15.914713],[-16.408972,15.914622],[-16.409019,15.914667],[-16.408973,15.914713]]]}},{"type":"Feature","properties":{"nature":"Empreinte urbaine","superficie_m2":35724.6},"geometry":{"type":"Polygon","coordinates":[[[-16.421856,15.913815],[-16.421855,15.913724],[-16.421902,15.913769],[-16.421856,15.913815]]]}},{"type":"Feature","properties":{"nature":"Empreinte urbaine","superficie_m2":35724.6},"geometry":{"type":"Polygon","coordinates":[[[-16.417925,15.912666],[-16.417924,15.912575],[-16.417971,15.91262],[-16.417925,15.912666]]]}},{"type":"Feature","properties":{"nature":"Empreinte urbaine","superficie_m2":35724.6},"geometry":{"type":"Polygon","coordinates":[[[-16.398826,15.912881],[-16.398546,15.912928],[-16.398684,15.912611],[-16.398826,15.912881]]]}},{"type":"Feature","properties":{"nature":"Empreinte urbaine","superficie_m2":35724.6},"geometry":{"type":"Polygon","coordinates":[[[-16.404667,15.91334],[-16.404335,15.912619],[-16.404566,15.912301],[-16.404894,15.912389],[-16.40527,15.912794],[-16.404667,15.91334]]]}},{"type":"Feature","properties":{"nature":"Empreinte urbaine","superficie_m2":35724.6},"geometry":{"type":"Polygon","coordinates":[[[-16.418367,15.912369],[-16.418109,15.912303],[-16.418153,15.911941],[-16.418805,15.911621],[-16.418425,15.910719],[-16.418423,15.910358],[-16.419303,15.909403],[-16.41982,15.909851],[-16.420105,15.910573],[-16.419924,15.911297],[-16.418367,15.912369]]]}},{"type":"Feature","properties":{"nature":"Empreinte urbaine","superficie_m2":35724.6},"geometry":{"type":"Polygon","coordinates":[[[-16.408613,15.913337],[-16.408448,15.913135],[-16.408541,15.913044],[-16.408119,15.91282],[-16.407882,15.912325],[-16.407974,15.912143],[-16.408394,15.912005],[-16.408387,15.911101],[-16.408804,15.910556],[-16.409036,15.910374],[-16.410297,15.910411],[-16.410668,15.909957],[-16.411506,15.90968],[-16.412387,15.908725],[-16.412625,15.909402],[-16.412257,15.910217],[-16.413108,15.911748],[-16.412642,15.911887],[-16.412368,15.912702],[-16.411903,15.912976],[-16.411762,15.912887],[-16.409617,15.913262],[-16.409288,15.912993],[-16.408613,15.913337]]]}},{"type":"Feature","properties":{"nature":"Empreinte urbaine","superficie_m2":35724.6},"geometry":{"type":"Polygon","coordinates":[[[-16.419789,15.908745],[-16.419484,15.908498],[-16.419391,15.908589],[-16.41906,15.908094],[-16.419246,15.907867],[-16.419526,15.907955],[-16.419711,15.907683],[-16.420177,15.907499],[-16.420365,15.907634],[-16.420179,15.907816],[-16.420273,15.907905],[-16.419994,15.908088],[-16.420045,15.908675],[-16.419789,15.908745]],[[-16.419577,15.908497],[-16.419576,15.908407],[-16.41953,15.908452],[-16.419577,15.908497]],[[-16.41995,15.908405],[-16.419949,15.908314],[-16.419903,15.90836],[-16.41995,15.908405]],[[-16.41967,15.908406],[-16.419669,15.908316],[-16.419623,15.908362],[-16.41967,15.908406]]]}},{"type":"Feature","properties":{"nature":"Empreinte urbaine","superficie_m2":35724.6},"geometry":{"type":"Polygon","coordinates":[[[-16.412138,15.906535],[-16.411786,15.906334],[-16.411522,15.905296],[-16.411239,15.904846],[-16.411327,15.904123],[-16.412024,15.903621],[-16.412817,15.90348],[-16.413425,15.903612],[-16.413756,15.904197],[-16.41367,15.905192],[-16.412604,15.906419],[-16.412138,15.906535]]]}},{"type":"Feature","properties":{"nature":"Empreinte urbaine","superficie_m2":35724.6},"geometry":{"type":"Polygon","coordinates":[[[-16.425224,15.894767],[-16.424524,15.894727],[-16.42424,15.894186],[-16.423713,15.892382],[-16.424264,15.891023],[-16.424296,15.888944],[-16.425271,15.888079],[-16.426202,15.887756],[-16.42667,15.887889],[-16.426999,15.888203],[-16.427904,15.890683],[-16.427534,15.891273],[-16.42656,15.892183],[-16.426657,15.892724],[-16.426751,15.892814],[-16.42703,15.892632],[-16.427078,15.892812],[-16.426707,15.893176],[-16.426478,15.89381],[-16.425224,15.894767]]]}},{"type":"Feature","properties":{"nature":"Empreinte urbaine","superficie_m2":35724.6},"geometry":{"type":"Polygon","coordinates":[[[-16.446445,16.01772],[-16.445832,16.018501],[-16.44479,16.022654],[-16.444157,16.02282],[-16.443493,16.022743],[-16.44345,16.022365],[-16.444238,16.020768],[-16.443913,16.020168],[-16.443095,16.019654],[-16.442893,16.018715],[-16.443072,16.018328],[-16.443707,16.018256],[-16.443644,16.017491],[-16.443827,16.016815],[-16.4443,16.016478],[-16.445264,16.016428],[-16.445584,16.016138],[-16.446599,16.015883],[-16.447153,16.016319],[-16.447402,16.017333],[-16.446445,16.01772]]]}},{"type":"Feature","properties":{"nature":"Empreinte urbaine","superficie_m2":35724.6},"geometry":{"type":"Polygon","coordinates":[[[-16.359279,16.022315],[-16.360143,16.02251],[-16.361189,16.023383],[-16.361844,16.024947],[-16.361701,16.02524],[-16.360698,16.025653],[-16.360182,16.026437],[-16.359707,16.026586],[-16.35881,16.026476],[-16.358108,16.026117],[-16.357798,16.025574],[-16.357635,16.02467],[-16.357653,16.023652],[-16.357881,16.022961],[-16.358483,16.022493],[-16.359279,16.022315]]]}},{"type":"Feature","properties":{"nature":"Empreinte urbaine","superficie_m2":35724.6},"geometry":{"type":"Polygon","coordinates":[[[-16.370438,16.095386],[-16.369711,16.094916],[-16.369474,16.094466],[-16.369328,16.093698],[-16.369604,16.092974],[-16.369463,16.092839],[-16.369113,16.092999],[-16.369233,16.093428],[-16.368954,16.09361],[-16.368579,16.093522],[-16.368433,16.092574],[-16.367918,16.092578],[-16.366969,16.09046],[-16.367196,16.089509],[-16.368025,16.087696],[-16.368951,16.086425],[-16.368945,16.085521],[-16.368615,16.085162],[-16.369031,16.084346],[-16.369915,16.083843],[-16.370382,16.08375],[-16.370984,16.082978],[-16.371266,16.083157],[-16.371791,16.084735],[-16.371607,16.085233],[-16.37166,16.086046],[-16.371244,16.086727],[-16.371338,16.086907],[-16.37074,16.088312],[-16.370942,16.090479],[-16.371273,16.090974],[-16.373334,16.091594],[-16.373616,16.091908],[-16.373524,16.09209],[-16.373715,16.092721],[-16.373349,16.093853],[-16.372231,16.094403],[-16.370836,16.095406],[-16.370438,16.095386]]]}},{"type":"Feature","properties":{"nature":"Empreinte urbaine","superficie_m2":35724.6},"geometry":{"type":"Polygon","coordinates":[[[-16.493898,15.947864],[-16.494035,15.949208],[-16.494603,15.950108],[-16.494605,15.950379],[-16.4939,15.949841],[-16.493762,15.950113],[-16.493432,15.949709],[-16.492589,15.949444],[-16.492306,15.949084],[-16.492399,15.948993],[-16.491933,15.947989],[-16.493898,15.947864]],[[-16.492539,15.948947],[-16.492539,15.949037],[-16.492586,15.948992],[-16.492539,15.948947]]]}},{"type":"Feature","properties":{"nature":"Empreinte urbaine","superficie_m2":35724.6},"geometry":{"type":"Polygon","coordinates":[[[-16.509491,15.991539],[-16.508791,15.990985],[-16.509662,15.99013],[-16.509839,15.988773],[-16.510506,15.98739],[-16.510429,15.986555],[-16.510563,15.985695],[-16.511302,15.984515],[-16.511571,15.983067],[-16.511988,15.982613],[-16.512123,15.981889],[-16.512447,15.981525],[-16.512829,15.982561],[-16.512645,15.98306],[-16.512838,15.983827],[-16.512441,15.986947],[-16.511715,15.989754],[-16.511497,15.991588],[-16.509491,15.991539]]]}},{"type":"Feature","properties":{"nature":"Empreinte urbaine","superficie_m2":35724.6},"geometry":{"type":"Polygon","coordinates":[[[-16.482966,15.968354],[-16.482636,15.967904],[-16.48231,15.967997],[-16.480344,15.967468],[-16.479551,15.967564],[-16.47875,15.966666],[-16.478557,15.965763],[-16.477413,15.962698],[-16.477218,15.961615],[-16.476412,15.959903],[-16.476407,15.959226],[-16.476774,15.95841],[-16.476585,15.958095],[-16.476769,15.957687],[-16.476296,15.956922],[-16.475637,15.956248],[-16.475911,15.955388],[-16.475722,15.955073],[-16.475952,15.954574],[-16.476656,15.955021],[-16.476888,15.954839],[-16.476982,15.954929],[-16.47703,15.955064],[-16.476798,15.955292],[-16.476657,15.955112],[-16.476423,15.955113],[-16.476005,15.955478],[-16.476335,15.955837],[-16.476568,15.955745],[-16.476849,15.955924],[-16.477135,15.956645],[-16.477091,15.957007],[-16.477698,15.957003],[-16.477691,15.956054],[-16.477878,15.956052],[-16.478688,15.958171],[-16.479157,15.958439],[-16.479807,15.957982],[-16.479752,15.956763],[-16.480963,15.956393],[-16.481524,15.956389],[-16.482137,15.957243],[-16.482473,15.958416],[-16.482381,15.958642],[-16.482622,15.95968],[-16.483238,15.96076],[-16.483009,15.961395],[-16.483339,15.961799],[-16.485261,15.962735],[-16.485173,15.963458],[-16.48443,15.964096],[-16.484246,15.964549],[-16.483844,15.966947],[-16.483895,15.967534],[-16.483293,15.968352],[-16.482966,15.968354]],[[-16.476757,15.95606],[-16.47685,15.956059],[-16.476803,15.956015],[-16.476757,15.95606]]]}},{"type":"Feature","properties":{"nature":"Empreinte urbaine","superficie_m2":35724.6},"geometry":{"type":"Polygon","coordinates":[[[-16.446128,15.964886],[-16.445033,15.96455],[-16.44468,15.96382],[-16.444124,15.963548],[-16.443704,15.963105],[-16.443512,15.962354],[-16.443825,15.961681],[-16.445615,15.959724],[-16.446906,15.959175],[-16.447819,15.959064],[-16.44819,15.958694],[-16.448517,15.958737],[-16.449028,15.958282],[-16.449676,15.957555],[-16.449906,15.957011],[-16.450464,15.956718],[-16.450632,15.955937],[-16.452153,15.954969],[-16.452267,15.954194],[-16.452845,15.953418],[-16.455075,15.953659],[-16.454985,15.957428],[-16.455347,15.958748],[-16.455115,15.959607],[-16.455204,15.959777],[-16.45502,15.960094],[-16.455117,15.960591],[-16.455213,15.961042],[-16.455779,15.961716],[-16.456107,15.961849],[-16.456352,15.963475],[-16.456079,15.964425],[-16.456174,15.964651],[-16.457585,15.966042],[-16.457352,15.966179],[-16.457309,15.966586],[-16.457837,15.968616],[-16.458083,15.970286],[-16.457492,15.972505],[-16.456795,15.973007],[-16.456003,15.973328],[-16.455254,15.973153],[-16.454741,15.973246],[-16.454459,15.973068],[-16.454273,15.973159],[-16.453711,15.972892],[-16.453524,15.972983],[-16.453148,15.972624],[-16.452869,15.972762],[-16.452963,15.972852],[-16.452218,15.973173],[-16.451237,15.97318],[-16.450068,15.973007],[-16.449461,15.973101],[-16.44815,15.972658],[-16.447913,15.972208],[-16.447957,15.971846],[-16.447346,15.971263],[-16.447438,15.971127],[-16.447059,15.970361],[-16.446965,15.970226],[-16.446732,15.970408],[-16.44645,15.970049],[-16.446115,15.968921],[-16.44602,15.968786],[-16.445647,15.968834],[-16.445552,15.968654],[-16.446102,15.967159],[-16.446006,15.966843],[-16.446188,15.966119],[-16.446128,15.964886]]]}},{"type":"Feature","properties":{"nature":"Empreinte urbaine","superficie_m2":35724.6},"geometry":{"type":"Polygon","coordinates":[[[-16.465323,15.989533],[-16.46531,15.987771],[-16.465165,15.987094],[-16.46488,15.986463],[-16.463607,15.9848],[-16.463649,15.984212],[-16.464067,15.983757],[-16.464342,15.983123],[-16.464154,15.982943],[-16.464337,15.9824],[-16.46386,15.981002],[-16.463952,15.980776],[-16.46339,15.980644],[-16.463482,15.980508],[-16.463199,15.980013],[-16.463757,15.979738],[-16.463849,15.979466],[-16.463236,15.978702],[-16.462997,15.978026],[-16.463269,15.976849],[-16.464058,15.976166],[-16.46424,15.975441],[-16.464752,15.975167],[-16.464185,15.974357],[-16.463623,15.974135],[-16.46371,15.973231],[-16.463561,15.972012],[-16.462854,15.971158],[-16.463223,15.970568],[-16.463079,15.970027],[-16.462281,15.969445],[-16.460691,15.969184],[-16.460174,15.968781],[-16.46017,15.968239],[-16.460261,15.967877],[-16.460678,15.967422],[-16.460676,15.967151],[-16.4617,15.966692],[-16.462215,15.966779],[-16.462681,15.966595],[-16.462822,15.966729],[-16.462777,15.967046],[-16.46287,15.966955],[-16.463012,15.96718],[-16.462969,15.967677],[-16.463577,15.967809],[-16.463943,15.966722],[-16.464684,15.965813],[-16.464401,15.965499],[-16.463007,15.966502],[-16.462866,15.966413],[-16.462625,15.96542],[-16.462806,15.964606],[-16.462712,15.964471],[-16.462851,15.964334],[-16.46304,15.964604],[-16.463927,15.964553],[-16.464345,15.964234],[-16.46455,15.963464],[-16.464661,15.962695],[-16.464506,15.960617],[-16.464027,15.959084],[-16.463875,15.957413],[-16.464147,15.956191],[-16.464472,15.956008],[-16.465037,15.956547],[-16.466387,15.95595],[-16.465916,15.955456],[-16.466335,15.955273],[-16.468529,15.955077],[-16.46923,15.955163],[-16.470116,15.954976],[-16.471379,15.955148],[-16.471752,15.955055],[-16.472175,15.955368],[-16.472922,15.955318],[-16.47311,15.955498],[-16.472883,15.956403],[-16.472601,15.956224],[-16.472326,15.956949],[-16.472287,15.957989],[-16.472482,15.959072],[-16.471883,15.960206],[-16.471613,15.961563],[-16.471619,15.962467],[-16.472184,15.963005],[-16.47294,15.964175],[-16.473042,15.96544],[-16.473608,15.966159],[-16.473657,15.966475],[-16.473626,15.968599],[-16.472373,15.969692],[-16.472189,15.9701],[-16.472284,15.970325],[-16.472103,15.97114],[-16.472246,15.971591],[-16.473186,15.972307],[-16.473471,15.973029],[-16.474177,15.973747],[-16.47404,15.974109],[-16.473437,15.974746],[-16.472505,15.975069],[-16.472181,15.975387],[-16.471525,15.975121],[-16.471199,15.975258],[-16.470689,15.975759],[-16.470416,15.976845],[-16.46981,15.976985],[-16.469624,15.977167],[-16.469718,15.977257],[-16.4693,15.977576],[-16.468886,15.978392],[-16.468467,15.978576],[-16.468279,15.978487],[-16.468094,15.978759],[-16.469087,15.980379],[-16.468456,15.983547],[-16.468699,15.98481],[-16.469028,15.985125],[-16.468936,15.985216],[-16.469409,15.986071],[-16.469274,15.986795],[-16.468771,15.98829],[-16.465323,15.989533]],[[-16.464435,15.982987],[-16.464341,15.982987],[-16.464388,15.983032],[-16.464435,15.982987]],[[-16.466716,15.956264],[-16.466575,15.956175],[-16.466389,15.956312],[-16.466624,15.956446],[-16.466716,15.956264]]]}},{"type":"Feature","properties":{"nature":"Empreinte urbaine","superficie_m2":35724.6},"geometry":{"type":"MultiPolygon","coordinates":[[[[-16.490508,15.982198],[-16.490542,15.98213],[-16.490594,15.982078],[-16.490508,15.982198]]],[[[-16.489786,15.98319],[-16.488953,15.983872],[-16.489872,15.983072],[-16.489786,15.98319]]],[[[-16.487702,15.984895],[-16.487643,15.984906],[-16.487666,15.984861],[-16.487702,15.984895]]],[[[-16.487368,15.985168],[-16.487387,15.984953],[-16.48746,15.985092],[-16.487368,15.985168]]]]}},{"type":"Feature","properties":{"nature":"Empreinte urbaine","superficie_m2":35724.6},"geometry":{"type":"Polygon","coordinates":[[[-16.442711,15.983358],[-16.444215,15.984664],[-16.44443,15.985879],[-16.44465,15.986148],[-16.444477,15.986511],[-16.444751,15.987187],[-16.44456,15.98829],[-16.445603,15.988808],[-16.445186,15.989218],[-16.445234,15.989443],[-16.445049,15.989625],[-16.445426,15.990165],[-16.44534,15.99116],[-16.445622,15.991429],[-16.444692,15.991978],[-16.443197,15.991988],[-16.441233,15.99173],[-16.440765,15.991597],[-16.440107,15.991059],[-16.439502,15.991425],[-16.439547,15.991153],[-16.439265,15.990929],[-16.439357,15.990793],[-16.439168,15.990433],[-16.439259,15.990161],[-16.439071,15.989891],[-16.438462,15.989715],[-16.438126,15.988497],[-16.438587,15.987635],[-16.439286,15.987269],[-16.439374,15.986636],[-16.439861,15.986067],[-16.441003,15.985676],[-16.441912,15.984838],[-16.442445,15.983473],[-16.442711,15.983358]]]}},{"type":"Feature","properties":{"nature":"Empreinte urbaine","superficie_m2":35724.6},"geometry":{"type":"Polygon","coordinates":[[[-16.418369,15.922695],[-16.41804,15.922381],[-16.417944,15.921975],[-16.418077,15.92107],[-16.418585,15.920253],[-16.41849,15.920028],[-16.418673,15.919439],[-16.418387,15.918583],[-16.418061,15.91872],[-16.417973,15.919534],[-16.417788,15.919807],[-16.4176,15.919537],[-16.417319,15.919539],[-16.416483,15.920086],[-16.41494,15.919825],[-16.414661,15.920008],[-16.41452,15.919919],[-16.414655,15.91924],[-16.414467,15.919015],[-16.414836,15.91838],[-16.41609,15.917378],[-16.416277,15.917467],[-16.416229,15.917241],[-16.416741,15.916921],[-16.416877,15.916378],[-16.416174,15.916021],[-16.415279,15.914897],[-16.415464,15.914715],[-16.415089,15.914537],[-16.414529,15.914541],[-16.414437,15.914677],[-16.414624,15.914811],[-16.413834,15.915314],[-16.413747,15.916218],[-16.414542,15.916439],[-16.414638,15.916754],[-16.414131,15.917752],[-16.413807,15.918161],[-16.413435,15.918344],[-16.413529,15.918434],[-16.413343,15.918525],[-16.413345,15.918797],[-16.412226,15.919165],[-16.412042,15.919573],[-16.41167,15.919756],[-16.411436,15.919668],[-16.411245,15.919127],[-16.410727,15.918543],[-16.411005,15.918179],[-16.410807,15.916554],[-16.411129,15.915783],[-16.41201,15.914919],[-16.412568,15.914644],[-16.412474,15.914509],[-16.412842,15.913738],[-16.412982,15.913692],[-16.413264,15.913962],[-16.413638,15.913959],[-16.414522,15.913547],[-16.414707,15.91332],[-16.414703,15.912732],[-16.415352,15.912005],[-16.416892,15.911859],[-16.417783,15.912441],[-16.41746,15.91294],[-16.417327,15.914025],[-16.417563,15.914385],[-16.418359,15.914606],[-16.418501,15.914922],[-16.418743,15.91605],[-16.418427,15.917724],[-16.418991,15.918172],[-16.419224,15.91808],[-16.419413,15.918395],[-16.419656,15.919704],[-16.420409,15.920603],[-16.420883,15.921504],[-16.420794,15.922137],[-16.419904,15.921781],[-16.419254,15.922373],[-16.418369,15.922695]],[[-16.412889,15.913783],[-16.41289,15.913874],[-16.412936,15.913828],[-16.412889,15.913783]]]}},{"type":"Feature","properties":{"nature":"Empreinte urbaine","superficie_m2":35724.6},"geometry":{"type":"Polygon","coordinates":[[[-16.389106,15.925552],[-16.388717,15.923295],[-16.388342,15.923162],[-16.388807,15.922887],[-16.388618,15.922482],[-16.38871,15.922255],[-16.388194,15.921897],[-16.388009,15.92226],[-16.387776,15.922352],[-16.387589,15.922217],[-16.387773,15.921855],[-16.387584,15.921494],[-16.387629,15.921359],[-16.388377,15.921444],[-16.389076,15.921214],[-16.389492,15.920533],[-16.390374,15.919781],[-16.390651,15.919305],[-16.390977,15.919168],[-16.391584,15.919209],[-16.391816,15.918982],[-16.391813,15.918439],[-16.391671,15.918305],[-16.391298,15.918307],[-16.39102,15.918716],[-16.390831,15.91831],[-16.391016,15.917993],[-16.391481,15.917764],[-16.391197,15.917223],[-16.391475,15.916905],[-16.391379,15.916589],[-16.391657,15.916136],[-16.391372,15.915505],[-16.39464,15.915348],[-16.395709,15.914641],[-16.396036,15.914661],[-16.3965,15.914206],[-16.397152,15.913886],[-16.397715,15.914289],[-16.398837,15.914508],[-16.399023,15.914326],[-16.399352,15.914595],[-16.399865,15.914546],[-16.400337,15.915266],[-16.402716,15.914934],[-16.40356,15.91529],[-16.404492,15.915013],[-16.404627,15.914289],[-16.404812,15.914062],[-16.405372,15.914058],[-16.40575,15.914598],[-16.40617,15.914641],[-16.407241,15.914091],[-16.40775,15.913546],[-16.407845,15.913636],[-16.408357,15.913451],[-16.408179,15.914673],[-16.408367,15.914897],[-16.408693,15.914715],[-16.40902,15.914848],[-16.408836,15.91512],[-16.409023,15.915255],[-16.408744,15.915392],[-16.408838,15.915527],[-16.408655,15.916025],[-16.408937,15.916295],[-16.408752,15.916567],[-16.409593,15.916562],[-16.40885,15.917154],[-16.409038,15.917333],[-16.408945,15.91747],[-16.409321,15.917783],[-16.409231,15.918281],[-16.409564,15.919138],[-16.410035,15.919677],[-16.410266,15.919404],[-16.410735,15.919582],[-16.409758,15.920131],[-16.408727,15.919685],[-16.407608,15.919964],[-16.407092,15.919651],[-16.406715,15.919111],[-16.4062,15.918979],[-16.405362,15.919255],[-16.405052,15.919215],[-16.40429,15.919624],[-16.404106,15.919987],[-16.404111,15.92071],[-16.404487,15.921024],[-16.404348,15.92116],[-16.404113,15.921071],[-16.404119,15.921885],[-16.405057,15.922376],[-16.405011,15.922511],[-16.404544,15.922514],[-16.404312,15.922787],[-16.403567,15.923063],[-16.402642,15.924334],[-16.402549,15.924516],[-16.402738,15.924741],[-16.402367,15.925104],[-16.401853,15.925063],[-16.401342,15.925563],[-16.400922,15.925521],[-16.400503,15.925749],[-16.398646,15.927298],[-16.397804,15.927213],[-16.397522,15.926944],[-16.396401,15.926906],[-16.395565,15.927499],[-16.395472,15.927635],[-16.395708,15.927995],[-16.395665,15.928492],[-16.395855,15.928943],[-16.395482,15.929126],[-16.395577,15.929351],[-16.395445,15.930437],[-16.395262,15.93098],[-16.394937,15.931344],[-16.394285,15.931529],[-16.393535,15.931127],[-16.393812,15.930718],[-16.394047,15.930988],[-16.394187,15.930897],[-16.394278,15.93058],[-16.394042,15.930265],[-16.393528,15.930223],[-16.393111,15.930633],[-16.392689,15.930454],[-16.392828,15.930273],[-16.393109,15.930361],[-16.393152,15.929864],[-16.392871,15.929775],[-16.393197,15.929547],[-16.393338,15.929637],[-16.393336,15.929366],[-16.393706,15.928957],[-16.393286,15.929005],[-16.392385,15.92863],[-16.391598,15.927931],[-16.390855,15.928568],[-16.390247,15.928527],[-16.389969,15.928845],[-16.389686,15.92844],[-16.389358,15.928307],[-16.388941,15.928761],[-16.389318,15.929211],[-16.389179,15.929393],[-16.388992,15.929303],[-16.388433,15.929578],[-16.388058,15.929309],[-16.387821,15.928814],[-16.388096,15.928089],[-16.388001,15.927818],[-16.388279,15.9275],[-16.38856,15.927589],[-16.389119,15.927405],[-16.389116,15.926998],[-16.388928,15.926863],[-16.389113,15.926636],[-16.388924,15.926231],[-16.389015,15.925886],[-16.384026,15.927673],[-16.389013,15.925658],[-16.389106,15.925552]],[[-16.39734,15.914156],[-16.397341,15.914246],[-16.397434,15.9142],[-16.39734,15.914156]]]}},{"type":"Feature","properties":{"nature":"Empreinte urbaine","superficie_m2":35724.6},"geometry":{"type":"MultiPolygon","coordinates":[[[[-16.444412,16.024162],[-16.444171,16.023569],[-16.444356,16.023296],[-16.444612,16.023366],[-16.444412,16.024162]]],[[[-16.443993,16.025609],[-16.443594,16.026846],[-16.443395,16.026104],[-16.443993,16.025609]]],[[[-16.443474,16.027395],[-16.443497,16.027279],[-16.443501,16.027271],[-16.443474,16.027395]]],[[[-16.443154,16.028854],[-16.442897,16.028322],[-16.443395,16.027755],[-16.443154,16.028854]]],[[[-16.442337,16.032576],[-16.440672,16.038326],[-16.439523,16.043571],[-16.440736,16.04715],[-16.443208,16.052442],[-16.447873,16.063763],[-16.447363,16.064399],[-16.446944,16.064582],[-16.44638,16.064134],[-16.446419,16.063049],[-16.446129,16.061831],[-16.446307,16.060519],[-16.446067,16.059617],[-16.445358,16.058537],[-16.444795,16.05827],[-16.443713,16.057193],[-16.443528,16.057465],[-16.443102,16.05679],[-16.441975,16.056075],[-16.440658,16.054909],[-16.44005,16.054777],[-16.439864,16.054869],[-16.4393,16.054421],[-16.438181,16.05479],[-16.43785,16.05434],[-16.437293,16.054841],[-16.436454,16.055118],[-16.43524,16.055216],[-16.434729,16.055626],[-16.43428,16.05825],[-16.432752,16.060294],[-16.432807,16.061333],[-16.432479,16.061335],[-16.431483,16.059173],[-16.431612,16.057726],[-16.431128,16.055289],[-16.431347,16.053299],[-16.432277,16.05257],[-16.432505,16.051891],[-16.432456,16.051484],[-16.433056,16.050441],[-16.432773,16.050036],[-16.432398,16.049993],[-16.430957,16.051042],[-16.430032,16.052404],[-16.42799,16.054406],[-16.42762,16.054951],[-16.42721,16.056354],[-16.428335,16.056844],[-16.427686,16.057571],[-16.428018,16.058292],[-16.428489,16.058809],[-16.428769,16.058739],[-16.429332,16.059007],[-16.429515,16.058463],[-16.42984,16.058145],[-16.430586,16.058004],[-16.431102,16.058181],[-16.431245,16.058632],[-16.43106,16.05895],[-16.431296,16.059174],[-16.431443,16.060122],[-16.430421,16.060988],[-16.430186,16.060899],[-16.429581,16.061264],[-16.42944,16.061085],[-16.429301,16.061221],[-16.429353,16.061989],[-16.429731,16.062529],[-16.430717,16.063245],[-16.431135,16.062881],[-16.431365,16.062292],[-16.431599,16.062335],[-16.431877,16.062062],[-16.432065,16.062152],[-16.432297,16.061969],[-16.432626,16.062238],[-16.432811,16.061966],[-16.432955,16.062507],[-16.433238,16.062776],[-16.433529,16.064266],[-16.4326,16.06513],[-16.431998,16.065948],[-16.432004,16.066671],[-16.432334,16.067121],[-16.433083,16.067342],[-16.432572,16.067752],[-16.432434,16.068069],[-16.432719,16.0687],[-16.432125,16.070647],[-16.431894,16.070919],[-16.431288,16.071104],[-16.431149,16.071331],[-16.431198,16.071647],[-16.430874,16.072056],[-16.430453,16.072014],[-16.429473,16.072291],[-16.428069,16.071984],[-16.426666,16.071903],[-16.42587,16.071592],[-16.423113,16.071746],[-16.421808,16.072297],[-16.418633,16.07268],[-16.417795,16.073137],[-16.416114,16.073374],[-16.414148,16.072981],[-16.413913,16.072756],[-16.413484,16.071584],[-16.412829,16.071408],[-16.412689,16.071499],[-16.412452,16.071049],[-16.411912,16.070736],[-16.411793,16.07042],[-16.411929,16.069787],[-16.412255,16.069559],[-16.41202,16.069425],[-16.412017,16.068973],[-16.41248,16.068337],[-16.412703,16.06689],[-16.413122,16.066616],[-16.413309,16.066705],[-16.413636,16.066567],[-16.414375,16.065432],[-16.415495,16.065109],[-16.415394,16.064025],[-16.415626,16.063888],[-16.415622,16.063345],[-16.415245,16.062806],[-16.415052,16.061994],[-16.414582,16.061635],[-16.41435,16.061817],[-16.414256,16.061728],[-16.414534,16.061409],[-16.414486,16.061274],[-16.414393,16.061365],[-16.414159,16.061231],[-16.414297,16.060914],[-16.415365,16.059958],[-16.416948,16.059134],[-16.417505,16.058588],[-16.418576,16.057993],[-16.418963,16.056744],[-16.419631,16.05545],[-16.419722,16.054913],[-16.419529,16.054056],[-16.419804,16.053331],[-16.419465,16.051661],[-16.419134,16.050985],[-16.419224,16.050578],[-16.418895,16.050309],[-16.418752,16.049903],[-16.418891,16.049767],[-16.419313,16.0499],[-16.419122,16.049313],[-16.418889,16.049496],[-16.418558,16.04891],[-16.418651,16.048819],[-16.418369,16.04855],[-16.41841,16.047782],[-16.419103,16.046692],[-16.42013,16.04655],[-16.420499,16.045825],[-16.420215,16.045284],[-16.420581,16.044242],[-16.421139,16.043832],[-16.42095,16.043517],[-16.421354,16.041255],[-16.422096,16.040346],[-16.42237,16.039531],[-16.422219,16.038041],[-16.42245,16.037632],[-16.422811,16.035732],[-16.423275,16.035367],[-16.4237,16.035907],[-16.423655,16.036178],[-16.423983,16.036357],[-16.424356,16.036264],[-16.425245,16.036439],[-16.426039,16.036253],[-16.428377,16.036554],[-16.428099,16.036917],[-16.428475,16.037231],[-16.428751,16.036506],[-16.428937,16.036414],[-16.429498,16.036501],[-16.429782,16.036951],[-16.430663,16.036041],[-16.430846,16.035498],[-16.431635,16.034724],[-16.431492,16.034318],[-16.431306,16.03441],[-16.431164,16.03423],[-16.431161,16.033824],[-16.432096,16.033817],[-16.432377,16.033951],[-16.432936,16.033721],[-16.433214,16.033358],[-16.433163,16.032771],[-16.433395,16.032543],[-16.4333,16.032363],[-16.43353,16.031865],[-16.433623,16.031683],[-16.433903,16.031681],[-16.434225,16.030956],[-16.434644,16.030773],[-16.434835,16.031314],[-16.435156,16.030498],[-16.435436,16.030361],[-16.436322,16.030129],[-16.437078,16.030304],[-16.437395,16.029986],[-16.437816,16.029938],[-16.438144,16.030162],[-16.437962,16.030841],[-16.438058,16.031156],[-16.437644,16.032108],[-16.437336,16.03474],[-16.437864,16.036626],[-16.438522,16.037254],[-16.438622,16.038157],[-16.43881,16.038246],[-16.439737,16.037246],[-16.43992,16.036702],[-16.439799,16.032907],[-16.440207,16.032167],[-16.440441,16.031186],[-16.440432,16.02983],[-16.441263,16.028559],[-16.441401,16.028242],[-16.44112,16.028063],[-16.441445,16.027744],[-16.442333,16.027874],[-16.44271,16.028323],[-16.442014,16.028916],[-16.441876,16.029233],[-16.441972,16.029594],[-16.442441,16.029862],[-16.442931,16.02987],[-16.442337,16.032576]],[[-16.429439,16.060972],[-16.429627,16.061083],[-16.429673,16.060993],[-16.429531,16.060813],[-16.429439,16.060972]],[[-16.428912,16.0591],[-16.429005,16.059099],[-16.428958,16.059009],[-16.428912,16.0591]],[[-16.43059,16.058478],[-16.430216,16.058549],[-16.430124,16.05873],[-16.430593,16.058953],[-16.430407,16.059045],[-16.430874,16.059041],[-16.430967,16.05895],[-16.43059,16.058478]]],[[[-16.448462,16.064917],[-16.451043,16.06654],[-16.449563,16.067477],[-16.449398,16.067819],[-16.448989,16.068015],[-16.448357,16.068712],[-16.447224,16.069287],[-16.446841,16.069689],[-16.446188,16.06992],[-16.445724,16.07042],[-16.444746,16.070833],[-16.444136,16.070521],[-16.444042,16.070431],[-16.444227,16.070249],[-16.443759,16.070162],[-16.443333,16.069397],[-16.443279,16.068358],[-16.443417,16.06804],[-16.44446,16.070112],[-16.444452,16.069028],[-16.44431,16.068757],[-16.444494,16.068304],[-16.443926,16.067314],[-16.444156,16.06677],[-16.444573,16.066361],[-16.445225,16.06604],[-16.445507,16.066219],[-16.445791,16.066759],[-16.446344,16.066843],[-16.44719,16.066252],[-16.447652,16.065617],[-16.448072,16.065478],[-16.448306,16.064612],[-16.448462,16.064917]],[[-16.444508,16.070338],[-16.444556,16.070473],[-16.444554,16.070202],[-16.444508,16.070338]]]]}},{"type":"Feature","properties":{"nature":"Empreinte urbaine","superficie_m2":35724.6},"geometry":{"type":"Polygon","coordinates":[[[-16.438928,16.074171],[-16.436491,16.073284],[-16.434714,16.073205],[-16.434526,16.073026],[-16.435586,16.070985],[-16.435911,16.070667],[-16.436518,16.070527],[-16.436659,16.070707],[-16.437689,16.070881],[-16.437922,16.070789],[-16.438245,16.070289],[-16.439274,16.070283],[-16.440077,16.071588],[-16.440776,16.071176],[-16.441851,16.071305],[-16.442317,16.071121],[-16.44349,16.071655],[-16.442006,16.073247],[-16.440326,16.07371],[-16.439488,16.074167],[-16.438928,16.074171]]]}},{"type":"Feature","properties":{"nature":"Empreinte urbaine","superficie_m2":35724.6},"geometry":{"type":"Polygon","coordinates":[[[-16.381098,16.0788],[-16.380582,16.078578],[-16.380533,16.078126],[-16.380712,16.077085],[-16.380333,16.076365],[-16.380701,16.075368],[-16.380368,16.074602],[-16.380365,16.07415],[-16.381248,16.073467],[-16.382182,16.07328],[-16.382457,16.072465],[-16.382268,16.072285],[-16.382361,16.072149],[-16.383013,16.071828],[-16.38357,16.071283],[-16.384689,16.070869],[-16.385289,16.06978],[-16.386173,16.069142],[-16.386769,16.067601],[-16.387467,16.067055],[-16.387833,16.066013],[-16.387827,16.065154],[-16.388789,16.064584],[-16.389142,16.064582],[-16.389325,16.064871],[-16.39007,16.065095],[-16.390634,16.065543],[-16.392182,16.066301],[-16.392787,16.065981],[-16.393065,16.065617],[-16.393298,16.06548],[-16.393392,16.06557],[-16.393763,16.065116],[-16.39442,16.065563],[-16.39433,16.066016],[-16.393494,16.066744],[-16.393309,16.067107],[-16.393455,16.067874],[-16.393362,16.06801],[-16.392843,16.067291],[-16.392289,16.068198],[-16.391592,16.068835],[-16.389692,16.071198],[-16.389185,16.07215],[-16.388232,16.072111],[-16.387744,16.072325],[-16.387965,16.071482],[-16.387161,16.07022],[-16.386781,16.069228],[-16.386642,16.069455],[-16.386833,16.070041],[-16.386468,16.071264],[-16.386562,16.071354],[-16.385633,16.072173],[-16.385868,16.072397],[-16.38596,16.072216],[-16.386055,16.072396],[-16.386108,16.07339],[-16.385968,16.073391],[-16.386017,16.073617],[-16.384811,16.07498],[-16.384905,16.075115],[-16.384679,16.076201],[-16.38426,16.07643],[-16.38314,16.076618],[-16.382682,16.078022],[-16.381842,16.078253],[-16.381098,16.0788]]]}},{"type":"Feature","properties":{"nature":"Empreinte urbaine","superficie_m2":35724.6},"geometry":{"type":"Polygon","coordinates":[[[-16.358434,16.093271],[-16.357588,16.092553],[-16.356937,16.093009],[-16.356421,16.092832],[-16.355908,16.092925],[-16.355579,16.092747],[-16.354879,16.092932],[-16.353943,16.092757],[-16.353336,16.092851],[-16.353055,16.092763],[-16.353427,16.092399],[-16.353333,16.092309],[-16.3531,16.092491],[-16.352959,16.092266],[-16.353467,16.091495],[-16.353419,16.091179],[-16.353833,16.090317],[-16.354066,16.09009],[-16.354813,16.08995],[-16.355421,16.090036],[-16.356632,16.089396],[-16.356769,16.088988],[-16.35653,16.088131],[-16.356521,16.086866],[-16.356846,16.086593],[-16.357686,16.086407],[-16.357822,16.085773],[-16.358286,16.085228],[-16.358238,16.085002],[-16.358423,16.084685],[-16.358982,16.084455],[-16.359445,16.083819],[-16.359771,16.083682],[-16.359722,16.083366],[-16.359908,16.083093],[-16.359813,16.083004],[-16.359999,16.082822],[-16.359905,16.082687],[-16.360228,16.082142],[-16.360415,16.082141],[-16.360507,16.08196],[-16.360792,16.082591],[-16.361121,16.082815],[-16.361495,16.082812],[-16.361914,16.082584],[-16.362149,16.082763],[-16.362056,16.082899],[-16.362383,16.082852],[-16.362525,16.083122],[-16.363085,16.082892],[-16.36299,16.082667],[-16.363315,16.082484],[-16.364019,16.082841],[-16.364532,16.082657],[-16.36569,16.081204],[-16.365782,16.080932],[-16.365639,16.080571],[-16.366011,16.080298],[-16.366246,16.080387],[-16.366662,16.079751],[-16.367491,16.077939],[-16.36842,16.077029],[-16.368881,16.076122],[-16.369671,16.075529],[-16.371166,16.07543],[-16.372153,16.076191],[-16.37239,16.076687],[-16.373796,16.077265],[-16.374126,16.077715],[-16.374179,16.078574],[-16.37404,16.07871],[-16.373945,16.07853],[-16.373712,16.078622],[-16.373103,16.078355],[-16.372966,16.078807],[-16.372223,16.079535],[-16.372043,16.080576],[-16.372232,16.080936],[-16.371765,16.080939],[-16.371303,16.081755],[-16.370697,16.081985],[-16.370603,16.081895],[-16.370137,16.08217],[-16.368781,16.082043],[-16.367844,16.081778],[-16.367584,16.081259],[-16.367278,16.080968],[-16.366998,16.080969],[-16.366532,16.081244],[-16.366069,16.081834],[-16.365184,16.082382],[-16.363331,16.084744],[-16.362402,16.085653],[-16.362269,16.086694],[-16.362694,16.087369],[-16.362794,16.088272],[-16.363266,16.088992],[-16.363638,16.088628],[-16.364062,16.089077],[-16.364294,16.088895],[-16.364718,16.08939],[-16.364439,16.089572],[-16.364488,16.089888],[-16.364954,16.089704],[-16.365423,16.089973],[-16.365652,16.089293],[-16.365462,16.088752],[-16.365693,16.088344],[-16.366111,16.08798],[-16.366161,16.088522],[-16.366253,16.08834],[-16.366348,16.08843],[-16.366531,16.087887],[-16.366994,16.087251],[-16.367136,16.087476],[-16.366998,16.087884],[-16.366352,16.089153],[-16.365888,16.089518],[-16.365565,16.090243],[-16.362669,16.090487],[-16.361737,16.090855],[-16.361365,16.091219],[-16.360898,16.091312],[-16.360294,16.091813],[-16.3602,16.091723],[-16.359504,16.092496],[-16.358434,16.093271]]]}},{"type":"Feature","properties":{"nature":"Empreinte urbaine","superficie_m2":35724.6},"geometry":{"type":"Polygon","coordinates":[[[-16.346795,16.114042],[-16.343747,16.11266],[-16.343324,16.112256],[-16.343368,16.11194],[-16.342619,16.111673],[-16.342289,16.111359],[-16.341591,16.11177],[-16.34131,16.111772],[-16.341074,16.111457],[-16.341025,16.11105],[-16.34125,16.109829],[-16.342449,16.107291],[-16.343376,16.10611],[-16.343745,16.105384],[-16.344109,16.103936],[-16.345086,16.103162],[-16.345317,16.102753],[-16.345634,16.101351],[-16.345256,16.10072],[-16.346184,16.099675],[-16.347023,16.099353],[-16.347765,16.09849],[-16.348511,16.098169],[-16.348836,16.097851],[-16.349523,16.095813],[-16.349474,16.095406],[-16.349239,16.095182],[-16.349331,16.094955],[-16.349564,16.094863],[-16.349893,16.095087],[-16.350266,16.09504],[-16.350592,16.094767],[-16.350682,16.094314],[-16.351007,16.093996],[-16.352357,16.093129],[-16.352686,16.093488],[-16.352595,16.09376],[-16.35162,16.09485],[-16.351299,16.095756],[-16.350788,16.096121],[-16.349211,16.097939],[-16.348936,16.098754],[-16.348564,16.099118],[-16.34815,16.100115],[-16.348715,16.100744],[-16.348438,16.101152],[-16.348907,16.101375],[-16.349472,16.101959],[-16.348775,16.102641],[-16.347932,16.102375],[-16.3477,16.102603],[-16.347233,16.102696],[-16.347421,16.102921],[-16.347331,16.103373],[-16.347473,16.103644],[-16.347658,16.103371],[-16.348548,16.103592],[-16.349395,16.10449],[-16.349629,16.104534],[-16.349954,16.104216],[-16.350374,16.104077],[-16.350753,16.104798],[-16.349846,16.108961],[-16.348656,16.112674],[-16.347915,16.113764],[-16.347124,16.114311],[-16.346935,16.113951],[-16.346795,16.114042]]]}},{"type":"Feature","properties":{"nature":"Empreinte urbaine","superficie_m2":35724.6},"geometry":{"type":"Polygon","coordinates":[[[-16.358188,16.077636],[-16.358282,16.077681],[-16.357769,16.07791],[-16.357348,16.077913],[-16.357205,16.077462],[-16.356875,16.077102],[-16.357105,16.076559],[-16.357248,16.076829],[-16.357621,16.076691],[-16.357385,16.076376],[-16.357105,16.076468],[-16.357056,16.076197],[-16.357471,16.075291],[-16.357796,16.075063],[-16.357419,16.074613],[-16.357604,16.074296],[-16.35751,16.074161],[-16.356481,16.074077],[-16.356805,16.073668],[-16.356884,16.071408],[-16.35744,16.070772],[-16.357702,16.067969],[-16.35812,16.067604],[-16.359247,16.068456],[-16.359342,16.068681],[-16.358369,16.069953],[-16.358375,16.070856],[-16.35885,16.071938],[-16.35946,16.07225],[-16.360213,16.073059],[-16.361617,16.073231],[-16.362367,16.073588],[-16.361712,16.073592],[-16.36162,16.073728],[-16.36209,16.074177],[-16.361532,16.074587],[-16.360786,16.074773],[-16.360555,16.075181],[-16.360422,16.076266],[-16.360615,16.077214],[-16.360524,16.077486],[-16.360805,16.077574],[-16.360504,16.077961],[-16.360337,16.077532],[-16.360058,16.07776],[-16.35959,16.077627],[-16.359404,16.077809],[-16.358933,16.07727],[-16.358749,16.077633],[-16.358188,16.077636]]]}},{"type":"Feature","properties":{"nature":null,"superficie_m2":null},"geometry":{"type":"Polygon","coordinates":[[[-16.359382,16.020396],[-16.359448,16.020551],[-16.359202,16.02079],[-16.358897,16.020491],[-16.358363,16.020694],[-16.358034,16.020516],[-16.357796,16.019839],[-16.357422,16.019842],[-16.357097,16.02016],[-16.356745,16.019823],[-16.35668,16.020261],[-16.355826,16.019672],[-16.355828,16.018948],[-16.356521,16.017904],[-16.356705,16.017361],[-16.357961,16.016585],[-16.358615,16.016507],[-16.358754,16.016827],[-16.359146,16.017076],[-16.360189,16.016573],[-16.360776,16.01718],[-16.360481,16.01747],[-16.360726,16.017741],[-16.360851,16.018241],[-16.360772,16.018806],[-16.360425,16.01956],[-16.360057,16.019548],[-16.359715,16.020324],[-16.359611,16.020225],[-16.359382,16.020396]]]}},{"type":"Feature","properties":{"nature":null,"superficie_m2":null},"geometry":{"type":"Polygon","coordinates":[[[-16.38316,15.884704],[-16.382841,15.884503],[-16.382217,15.885297],[-16.38176,15.885007],[-16.381639,15.886269],[-16.381286,15.886157],[-16.381086,15.886397],[-16.379911,15.885825],[-16.379685,15.885558],[-16.379421,15.884943],[-16.379491,15.884302],[-16.380468,15.884201],[-16.380528,15.883972],[-16.380282,15.88382],[-16.380491,15.883593],[-16.380096,15.883077],[-16.381002,15.881567],[-16.381256,15.881599],[-16.38122,15.88179],[-16.381594,15.882068],[-16.381039,15.882974],[-16.381427,15.883172],[-16.38115,15.883612],[-16.381258,15.883659],[-16.382136,15.882846],[-16.38257,15.882945],[-16.382471,15.883175],[-16.382953,15.883372],[-16.383225,15.883712],[-16.382891,15.884156],[-16.383379,15.884342],[-16.38316,15.884704]]]}},{"type":"Feature","properties":{"nature":null,"superficie_m2":null},"geometry":{"type":"Polygon","coordinates":[[[-16.40331,15.851307],[-16.402544,15.851629],[-16.402413,15.851111],[-16.401946,15.85108],[-16.400527,15.850554],[-16.400905,15.849526],[-16.401499,15.849714],[-16.402053,15.84945],[-16.402405,15.848885],[-16.402605,15.847405],[-16.403854,15.847477],[-16.403414,15.849141],[-16.40331,15.851307]]]}},{"type":"Feature","properties":{"nature":null,"superficie_m2":null},"geometry":{"type":"Polygon","coordinates":[[[-16.358196,15.988894],[-16.356725,15.988767],[-16.356632,15.988343],[-16.356909,15.987957],[-16.356111,15.987053],[-16.355094,15.9863],[-16.355178,15.986004],[-16.355664,15.985954],[-16.35781,15.986482],[-16.359254,15.986543],[-16.360004,15.986174],[-16.3605,15.986384],[-16.360553,15.986996],[-16.360366,15.987275],[-16.359579,15.987209],[-16.358417,15.988133],[-16.358196,15.988894]]]}},{"type":"Feature","properties":{"nature":null,"superficie_m2":null},"geometry":{"type":"Polygon","coordinates":[[[-16.40109,15.937713],[-16.399599,15.937341],[-16.398758,15.936543],[-16.398635,15.935637],[-16.399397,15.933946],[-16.40266,15.9338],[-16.403566,15.934235],[-16.403435,15.935162],[-16.402746,15.936098],[-16.402503,15.93689],[-16.401729,15.937494],[-16.40109,15.937713]]]}},{"type":"Feature","properties":{"nature":null,"superficie_m2":null},"geometry":{"type":"Polygon","coordinates":[[[-16.357117,15.84086],[-16.356387,15.840991],[-16.356068,15.840897],[-16.355664,15.840233],[-16.356625,15.8393],[-16.357391,15.839572],[-16.357506,15.840299],[-16.357117,15.84086]]]}},{"type":"Feature","properties":{"nature":null,"superficie_m2":null},"geometry":{"type":"Polygon","coordinates":[[[-16.360523,15.841033],[-16.359999,15.840484],[-16.359804,15.840666],[-16.359356,15.84009],[-16.359571,15.839379],[-16.359103,15.839282],[-16.359278,15.838909],[-16.359237,15.838296],[-16.360028,15.837839],[-16.360495,15.837882],[-16.360613,15.838039],[-16.360632,15.837755],[-16.360874,15.83775],[-16.360946,15.838066],[-16.361544,15.83808],[-16.361466,15.838816],[-16.361968,15.838855],[-16.361997,15.839182],[-16.361648,15.839198],[-16.361747,15.83955],[-16.361614,15.840076],[-16.36192,15.840138],[-16.361927,15.84042],[-16.361721,15.840586],[-16.361676,15.841133],[-16.36131,15.841024],[-16.360904,15.841265],[-16.360523,15.841033]]]}},{"type":"Feature","properties":{"nature":null,"superficie_m2":null},"geometry":{"type":"Polygon","coordinates":[[[-16.454045,15.935407],[-16.44944,15.934824],[-16.448891,15.934287],[-16.448643,15.933475],[-16.448667,15.932737],[-16.449448,15.931984],[-16.451347,15.931689],[-16.452716,15.932708],[-16.453074,15.933931],[-16.454664,15.934966],[-16.454045,15.935407]]]}},{"type":"Feature","properties":{"nature":"Empreinte urbaine","superficie_m2":null},"geometry":{"type":"Polygon","coordinates":[[[-16.378674,15.985179],[-16.375845,15.986341],[-16.374809,15.985173],[-16.376188,15.984615],[-16.375426,15.98379],[-16.375861,15.983178],[-16.376793,15.98316],[-16.377175,15.98327],[-16.377959,15.984596],[-16.378535,15.984568],[-16.378674,15.985179]]]}},{"type":"Feature","properties":{"nature":null,"superficie_m2":null},"geometry":{"type":"Polygon","coordinates":[[[-16.369853,15.975069],[-16.368276,15.973951],[-16.365569,15.97325],[-16.365405,15.97283],[-16.365438,15.972217],[-16.366288,15.970997],[-16.368385,15.970418],[-16.369714,15.968353],[-16.370726,15.967312],[-16.374745,15.969565],[-16.372282,15.972937],[-16.369853,15.975069]]]}},{"type":"Feature","properties":{"nature":null,"superficie_m2":null},"geometry":{"type":"Polygon","coordinates":[[[-16.360884,15.879202],[-16.360355,15.879098],[-16.3602,15.878905],[-16.360299,15.878546],[-16.359421,15.878444],[-16.359775,15.877075],[-16.360144,15.877217],[-16.360254,15.876955],[-16.360632,15.876989],[-16.360587,15.87726],[-16.361454,15.877263],[-16.361656,15.877447],[-16.361521,15.878183],[-16.361255,15.878176],[-16.361244,15.878577],[-16.360882,15.878791],[-16.360884,15.879202]]]}},{"type":"Feature","properties":{"nature":null,"superficie_m2":null},"geometry":{"type":"Polygon","coordinates":[[[-16.391643,15.864067],[-16.390677,15.863769],[-16.389195,15.86251],[-16.389274,15.861099],[-16.39111,15.859001],[-16.39243,15.85883],[-16.394098,15.861189],[-16.393889,15.862842],[-16.392959,15.863632],[-16.391643,15.864067]]]}},{"type":"Feature","properties":{"nature":null,"superficie_m2":null},"geometry":{"type":"Polygon","coordinates":[[[-16.354726,15.892216],[-16.353577,15.892445],[-16.351827,15.891577],[-16.351908,15.889831],[-16.3523,15.888919],[-16.353644,15.888333],[-16.354333,15.888409],[-16.355165,15.889232],[-16.355718,15.891565],[-16.354726,15.892216]]]}},{"type":"Feature","properties":{"nature":null,"superficie_m2":null},"geometry":{"type":"Polygon","coordinates":[[[-16.355893,15.898587],[-16.355533,15.898523],[-16.355346,15.898152],[-16.355612,15.896875],[-16.356115,15.896834],[-16.356515,15.897015],[-16.356612,15.897845],[-16.356387,15.898384],[-16.355893,15.898587]]]}},{"type":"Feature","properties":{"nature":null,"superficie_m2":null},"geometry":{"type":"Polygon","coordinates":[[[-16.369199,15.837207],[-16.369054,15.837174],[-16.368997,15.837521],[-16.368425,15.837331],[-16.368385,15.837751],[-16.36753,15.837664],[-16.367641,15.837194],[-16.367462,15.837001],[-16.367716,15.83669],[-16.367591,15.836387],[-16.367201,15.836448],[-16.367108,15.835664],[-16.367215,15.835316],[-16.367602,15.83545],[-16.367965,15.835091],[-16.368266,15.835077],[-16.36866,15.835334],[-16.368974,15.835149],[-16.369601,15.835576],[-16.369341,15.83609],[-16.369223,15.836834],[-16.369337,15.836931],[-16.369199,15.837207]]]}},{"type":"Feature","properties":{"nature":null,"superficie_m2":null},"geometry":{"type":"Polygon","coordinates":[[[-16.453589,15.942412],[-16.453111,15.942543],[-16.452965,15.942312],[-16.452392,15.942359],[-16.452055,15.941941],[-16.450947,15.941162],[-16.451507,15.940213],[-16.453406,15.940517],[-16.453532,15.939736],[-16.454213,15.939768],[-16.454279,15.940261],[-16.4552,15.940322],[-16.455054,15.941049],[-16.453926,15.941044],[-16.453534,15.941742],[-16.453589,15.942412]]]}},{"type":"Feature","properties":{"nature":null,"superficie_m2":null},"geometry":{"type":"Polygon","coordinates":[[[-16.450954,15.941161],[-16.451526,15.940223],[-16.453396,15.940513],[-16.453535,15.93973],[-16.454206,15.939796],[-16.454267,15.940265],[-16.455188,15.940324],[-16.455062,15.941049],[-16.453928,15.941041],[-16.453541,15.941725],[-16.453577,15.942411],[-16.453109,15.942533],[-16.452975,15.942314],[-16.452413,15.94236],[-16.452051,15.941933],[-16.450954,15.941161]]]}}]}