{"type":"FeatureCollection","name":"urbanisation-empreinte-2020.geojson","features":[{"type":"Feature","properties":{"fid":153.0,"DN":7},"geometry":{"type":"Polygon","coordinates":[[[-16.348478257855042,16.107162244883334],[-16.34847703675081,16.10698148880409],[-16.348570525928658,16.10698089855328],[-16.348478257855042,16.107162244883334]]]}},{"type":"Feature","properties":{"fid":156.0,"DN":7},"geometry":{"type":"Polygon","coordinates":[[[-16.348570525928658,16.10698089855328],[-16.348569915340075,16.106890520515964],[-16.34866340447174,16.106889930227755],[-16.348570525928658,16.10698089855328]]]}},{"type":"Feature","properties":{"fid":157.0,"DN":7},"geometry":{"type":"Polygon","coordinates":[[[-16.348383547569075,16.106982079014006],[-16.348382937065086,16.106891700969715],[-16.348476426204527,16.10689111076329],[-16.348383547569075,16.106982079014006]]]}},{"type":"Feature","properties":{"fid":158.0,"DN":7},"geometry":{"type":"Polygon","coordinates":[[[-16.347303165954525,16.11313486635424],[-16.34693041768897,16.1133179818603],[-16.34580790132984,16.113234678175626],[-16.34505752654047,16.11287787867686],[-16.344868105814296,16.112517543975162],[-16.34495794272929,16.111974686344297],[-16.345516454983056,16.111609639960975],[-16.345514017443886,16.111248127507654],[-16.345791443832223,16.110794469535488],[-16.34653998208644,16.110880132781745],[-16.346632253434247,16.110698787085823],[-16.347005607342165,16.110606050473216],[-16.347100928499167,16.11087659491754],[-16.347475502948594,16.110964613567894],[-16.347941737396436,16.110780907332398],[-16.348032175923027,16.110328427046642],[-16.348403696381638,16.1099645540345],[-16.348212441462508,16.10933308836799],[-16.3471864882825,16.10970109034383],[-16.346810086656028,16.10934193674164],[-16.34689381861858,16.107895297768472],[-16.346706229491677,16.107806098727586],[-16.346703790404682,16.107444586323172],[-16.347072868892877,16.106719203377608],[-16.34726228708538,16.10707953642875],[-16.347823832909082,16.107166375542818],[-16.348106742344726,16.107526117710364],[-16.34829372123522,16.107524937453164],[-16.34829250026908,16.107344181366262],[-16.348761168393416,16.107521986094532],[-16.349320272015678,16.107247309098238],[-16.349601350882644,16.10733591508346],[-16.349790774134465,16.10769624547907],[-16.349799330917264,16.10896153719604],[-16.34952313852096,16.10959595552486],[-16.34896647247126,16.110232145458777],[-16.34906423984215,16.11086420079698],[-16.348415909843766,16.111772114236302],[-16.348329136017615,16.112766862605373],[-16.34814215221949,16.112768043266918],[-16.348143373482888,16.112948799273415],[-16.34786350801324,16.113040947992367],[-16.347492591580803,16.11349519849601],[-16.347303165954525,16.11313486635424]],[[-16.34822465268802,16.111140648819305],[-16.34813116154864,16.111141239066882],[-16.348131772108427,16.111231617084677],[-16.34822465268802,16.111140648819305]],[[-16.347835428548926,16.108883558602386],[-16.34774193845167,16.108884148599234],[-16.34774254874506,16.108974526650627],[-16.347835428548926,16.108883558602386]],[[-16.348582738516818,16.10878845913451],[-16.348489248492964,16.10878904945504],[-16.348489859120896,16.108879427479337],[-16.348582738516818,16.10878845913451]]]}},{"type":"Feature","properties":{"fid":160.0,"DN":7},"geometry":{"type":"Polygon","coordinates":[[[-16.346979379779746,16.1067197929637],[-16.346978769921876,16.106629414864788],[-16.347072258992707,16.106628825282183],[-16.346979379779746,16.1067197929637]]]}},{"type":"Feature","properties":{"fid":161.0,"DN":7},"geometry":{"type":"Polygon","coordinates":[[[-16.34688467103547,16.106539626303324],[-16.346883451423736,16.106358870094613],[-16.34697694037156,16.106358280563345],[-16.34688467103547,16.106539626303324]]]}},{"type":"Feature","properties":{"fid":476.0,"DN":7},"geometry":{"type":"Polygon","coordinates":[[[-16.37045477876835,16.094368993102645],[-16.37044981901447,16.093645974521923],[-16.37063616313548,16.093554398394495],[-16.37044609936497,16.093103710553372],[-16.370536481381343,16.092651224546483],[-16.370816926204622,16.092649426266984],[-16.371188991854098,16.09237589606741],[-16.371843982506018,16.092462074865846],[-16.37249711107068,16.092277119837078],[-16.372779418007116,16.09254645076958],[-16.373246825340377,16.09254344854831],[-16.373528512301522,16.09272240116],[-16.373625100631195,16.0931736865187],[-16.37306855805446,16.09380993078456],[-16.372136840953434,16.094267820177475],[-16.371766014606358,16.094722106688067],[-16.371113497677808,16.094997437403055],[-16.37045477876835,16.094368993102645]]]}},{"type":"Feature","properties":{"fid":605.0,"DN":7},"geometry":{"type":"Polygon","coordinates":[[[-16.36781932585273,16.091764814585424],[-16.367629888853344,16.09140450099405],[-16.367349445402127,16.091406294958144],[-16.36716124633762,16.091226735789913],[-16.367062200483282,16.09041393630654],[-16.367247306775436,16.090141608267587],[-16.367244215009617,16.089689720874222],[-16.36779891131333,16.088782358592955],[-16.36816478781865,16.08760505919516],[-16.368629090120265,16.087150180717277],[-16.368720093630436,16.086788072573984],[-16.369092152201933,16.08651454650247],[-16.369183154662476,16.086152438228538],[-16.36946235212832,16.085969887575107],[-16.36945925620086,16.08551800042547],[-16.369739691142897,16.085516204333224],[-16.370396517626187,16.08587352160179],[-16.370496812528327,16.086867073762864],[-16.370591530927594,16.087047229357605],[-16.370778488900765,16.087046030903142],[-16.37050300972009,16.087770847535023],[-16.3705085875304,16.08858424386277],[-16.370699886057103,16.08921568686415],[-16.37061384447164,16.09030081438542],[-16.370244260551377,16.090935852828537],[-16.369498891524245,16.091302154456965],[-16.369124967399262,16.091304549581146],[-16.369126205925635,16.09148530437108],[-16.368939243670468,16.091486501702235],[-16.368847000825617,16.09166785511456],[-16.368659419315975,16.09157867480408],[-16.36781932585273,16.091764814585424]]]}},{"type":"Feature","properties":{"fid":650.0,"DN":7},"geometry":{"type":"Polygon","coordinates":[[[-16.359861714542866,16.09009833212996],[-16.358926905976762,16.090104276148416],[-16.358269468279243,16.08965654544268],[-16.35817291642582,16.089205250190883],[-16.35789247495299,16.089207031514295],[-16.357891246770222,16.089026275837522],[-16.358447828883108,16.088390068119274],[-16.35853762291016,16.087847207237516],[-16.35890969873587,16.087573697689283],[-16.35909297074156,16.08703024255846],[-16.359279929597992,16.087029054157085],[-16.35927870033596,16.086848298547977],[-16.35946504429815,16.0867567321986],[-16.3596446256464,16.08567100993023],[-16.36020180830594,16.085125176385745],[-16.360388765294466,16.08512398715196],[-16.360759603131598,16.08466971936451],[-16.361320472642014,16.084666149808736],[-16.361412104384527,16.084394421506396],[-16.361691923077597,16.084302258350974],[-16.361690691854697,16.084121502877615],[-16.361877032098615,16.084029934683816],[-16.362344421653635,16.08402695782944],[-16.36253260942333,16.084206522213428],[-16.36309224473749,16.084022192739294],[-16.36327796783407,16.083840245700145],[-16.36327611891087,16.08356911265678],[-16.36392799601177,16.08320342997432],[-16.36365249539697,16.08392823954217],[-16.363002464105254,16.084565054637995],[-16.362633480086778,16.085290458992382],[-16.36198282540824,16.085836893791253],[-16.361809414762273,16.08782639409797],[-16.362093549535324,16.0883668739196],[-16.362191341592077,16.088998922141013],[-16.361636618097663,16.089906271861967],[-16.360611407209976,16.090364707154254],[-16.359861714542866,16.09009833212996]]]}},{"type":"Feature","properties":{"fid":712.0,"DN":7},"geometry":{"type":"Polygon","coordinates":[[[-16.369428302352908,16.080999127848735],[-16.369332350429538,16.080638216382326],[-16.369144779500306,16.080549035623715],[-16.3698003497322,16.080725601310952],[-16.36980220715595,16.08099673368553],[-16.369428302352908,16.080999127848735]]]}},{"type":"Feature","properties":{"fid":730.0,"DN":7},"geometry":{"type":"Polygon","coordinates":[[[-16.367272168634987,16.080109106047562],[-16.367270932707147,16.079928350925208],[-16.367364408497917,16.07992775342694],[-16.367272168634987,16.080109106047562]]]}},{"type":"Feature","properties":{"fid":764.0,"DN":7},"geometry":{"type":"Polygon","coordinates":[[[-16.36736255450906,16.079656620748132],[-16.367733984520747,16.079292720196456],[-16.367732130108077,16.079021587543565],[-16.36838522062136,16.07883664796109],[-16.36848055126039,16.079107182588174],[-16.368107886399347,16.079290329241122],[-16.368109741354058,16.079561461844506],[-16.367457884284747,16.07992715588786],[-16.36736255450906,16.079656620748132]]]}},{"type":"Feature","properties":{"fid":799.0,"DN":7},"geometry":{"type":"Polygon","coordinates":[[[-16.412217649220377,16.07755759793958],[-16.412402042013603,16.077194860419358],[-16.412495514730246,16.07719424330531],[-16.412498067888972,16.077555746676033],[-16.412217649220377,16.07755759793958]]]}},{"type":"Feature","properties":{"fid":840.0,"DN":7},"geometry":{"type":"Polygon","coordinates":[[[-16.380722669721546,16.078576612128632],[-16.380532601005896,16.078125933305305],[-16.38071019085198,16.07676907074148],[-16.380986868086165,16.07622499844183],[-16.381173815122754,16.076223791689653],[-16.381266040376953,16.076042434129757],[-16.382294247821314,16.076035793704744],[-16.38229549700792,16.076216547748757],[-16.382108550066874,16.076217755480315],[-16.38211104815025,16.076579263587494],[-16.38332683025626,16.076661787207133],[-16.382868210614323,16.077930086428623],[-16.382402088780072,16.078113861019084],[-16.38202756680033,16.0780258997665],[-16.381656167035803,16.078389822978213],[-16.380722669721546,16.078576612128632]]]}},{"type":"Feature","properties":{"fid":862.0,"DN":7},"geometry":{"type":"Polygon","coordinates":[[[-16.369594827841127,16.078015474105843],[-16.36959358998404,16.07783471912423],[-16.36903274157341,16.077838308890907],[-16.36865698706432,16.077569568667958],[-16.368744276566844,16.076665195352124],[-16.369486500801255,16.075847012437748],[-16.37013896004004,16.07557169088424],[-16.37041938095557,16.075569894980966],[-16.37051409309001,16.075750051214982],[-16.37126312186284,16.075926014851166],[-16.3713578349218,16.076106170633672],[-16.371826443836863,16.076283929340118],[-16.372110585605306,16.07682439558963],[-16.372114305801013,16.077366660002806],[-16.370342626176306,16.078010685408106],[-16.369594827841127,16.078015474105843]]]}},{"type":"Feature","properties":{"fid":923.0,"DN":7},"geometry":{"type":"Polygon","coordinates":[[[-16.440507856538986,16.072940402631538],[-16.440503952079496,16.072398153976515],[-16.44031636276779,16.07230903748211],[-16.440405277371823,16.071675784862126],[-16.441060862153154,16.071852129573195],[-16.441155633213285,16.07203224965591],[-16.441529509706953,16.072029731500486],[-16.441624281269174,16.07220985133138],[-16.44246420065036,16.072023433256465],[-16.44255962466747,16.07229392730229],[-16.4422811716642,16.0725669414808],[-16.441813824937245,16.072570090816626],[-16.441721658162802,16.07275147001623],[-16.441441249811184,16.072753359028173],[-16.44153602169714,16.072933478864897],[-16.44078956704114,16.073119264344115],[-16.440507856538986,16.072940402631538]]]}},{"type":"Feature","properties":{"fid":941.0,"DN":7},"geometry":{"type":"Polygon","coordinates":[[[-16.427969994086244,16.071216844810614],[-16.427969349068388,16.07112646952423],[-16.428062818316786,16.07112584583896],[-16.427969994086244,16.071216844810614]]]}},{"type":"Feature","properties":{"fid":962.0,"DN":7},"geometry":{"type":"Polygon","coordinates":[[[-16.357226682138204,16.073755967745882],[-16.356932776144802,16.071769429900776],[-16.357209514827638,16.07122538363611],[-16.358049536861966,16.071039291086354],[-16.358151597928874,16.07230398959833],[-16.358531011711115,16.07311501796725],[-16.358254274571582,16.073659065772866],[-16.357507715323568,16.07384456693981],[-16.357226682138204,16.073755967745882]]]}},{"type":"Feature","properties":{"fid":991.0,"DN":7},"geometry":{"type":"Polygon","coordinates":[[[-16.411981582799065,16.070599888408033],[-16.411792092757363,16.070239617939155],[-16.411883011421743,16.06987749763772],[-16.41234908216633,16.069693662333083],[-16.41244382727658,16.069873797339593],[-16.41319285810864,16.070049613080556],[-16.413476458307656,16.07049964070133],[-16.41310385664481,16.07068286137914],[-16.411981582799065,16.070599888408033]]]}},{"type":"Feature","properties":{"fid":1003.0,"DN":7},"geometry":{"type":"Polygon","coordinates":[[[-16.41365381992094,16.069142768080443],[-16.413653181455295,16.069052392213262],[-16.413746650317634,16.069051774856785],[-16.41365381992094,16.069142768080443]]]}},{"type":"Feature","properties":{"fid":1014.0,"DN":7},"geometry":{"type":"Polygon","coordinates":[[[-16.44365647560384,16.068852126046814],[-16.44365321564097,16.068400252626052],[-16.443749291101838,16.06876112091952],[-16.443936226087136,16.06875985990774],[-16.44393948676586,16.069211733256775],[-16.44365647560384,16.068852126046814]]]}},{"type":"Feature","properties":{"fid":1072.0,"DN":7},"geometry":{"type":"Polygon","coordinates":[[[-16.357849713346987,16.069142539261673],[-16.357751949732943,16.068510486113503],[-16.35784112796663,16.067877247067276],[-16.35802745572391,16.067785683121706],[-16.358308480571672,16.067874281929313],[-16.35830970742944,16.068055037931394],[-16.358685430602666,16.068323799013864],[-16.358689112352724,16.068866066902878],[-16.358222370933735,16.068959411046023],[-16.35813012669341,16.069140760153825],[-16.357849713346987,16.069142539261673]]]}},{"type":"Feature","properties":{"fid":1078.0,"DN":7},"geometry":{"type":"Polygon","coordinates":[[[-16.357933985241168,16.067786276104997],[-16.35793337199079,16.06769589808795],[-16.35802684243135,16.067695305108163],[-16.357933985241168,16.067786276104997]]]}},{"type":"Feature","properties":{"fid":1159.0,"DN":7},"geometry":{"type":"Polygon","coordinates":[[[-16.38871504086506,16.07183669499045],[-16.388713786238558,16.07165594136523],[-16.38843274579613,16.07156738398549],[-16.388524335200586,16.07129564708066],[-16.38758461162776,16.070578694607534],[-16.387582731380757,16.070307564006352],[-16.387300440042136,16.070038251180627],[-16.387204463441165,16.069677349480497],[-16.387388897376795,16.069314630246605],[-16.387476101046616,16.068410255503814],[-16.3880350380703,16.06813548886564],[-16.388497995956648,16.06749981979154],[-16.388864346293303,16.066412872115976],[-16.388857447758426,16.06541872669879],[-16.38904375687616,16.06532713701026],[-16.389042502488426,16.06514638330061],[-16.389696778588373,16.06514213716939],[-16.390258842002073,16.06531924965426],[-16.391010354931396,16.06585665312873],[-16.391290759758043,16.065854830947597],[-16.39157304964825,16.06612413865278],[-16.39241489369624,16.06620904542626],[-16.392507104495774,16.06602768401934],[-16.39278750938298,16.066025859859206],[-16.39306414004645,16.0654817751591],[-16.393437382927026,16.065388965287912],[-16.393528963231294,16.06511722684731],[-16.393808108047878,16.06493464810359],[-16.39399882009222,16.06547569096738],[-16.393907240320086,16.065747429562816],[-16.394096065045666,16.066017342259144],[-16.393912275735115,16.06647044284227],[-16.39363249967823,16.066562645191713],[-16.393448079633398,16.066925368806277],[-16.39279505667339,16.067110380249876],[-16.392613150246866,16.06783461007232],[-16.391590645651412,16.06865468734287],[-16.391036110707066,16.069562100196872],[-16.390200531638783,16.070380956798775],[-16.390016730046867,16.070834054868353],[-16.38964535824526,16.071197990000293],[-16.389364945736407,16.071199810615074],[-16.3891792590522,16.07138177775146],[-16.389088925495553,16.07183426846419],[-16.38871504086506,16.07183669499045]]]}},{"type":"Feature","properties":{"fid":1168.0,"DN":7},"geometry":{"type":"Polygon","coordinates":[[[-16.41782918373587,16.064776911888366],[-16.417828543568188,16.064686536148105],[-16.417922010222657,16.064685917132177],[-16.41782918373587,16.064776911888366]]]}},{"type":"Feature","properties":{"fid":1176.0,"DN":7},"geometry":{"type":"Polygon","coordinates":[[[-16.393900317044064,16.06475328622145],[-16.39389968767943,16.064662909549345],[-16.393993155286413,16.064662300979098],[-16.393900317044064,16.06475328622145]]]}},{"type":"Feature","properties":{"fid":1180.0,"DN":7},"geometry":{"type":"Polygon","coordinates":[[[-16.39380622006843,16.064663518078813],[-16.39380559074998,16.06457314140231],[-16.393899058318812,16.064572532876443],[-16.39380622006843,16.064663518078813]]]}},{"type":"Feature","properties":{"fid":1185.0,"DN":7},"geometry":{"type":"Polygon","coordinates":[[[-16.418013556141503,16.064414170871945],[-16.418012915905827,16.06432379513586],[-16.41810638238346,16.064323176053044],[-16.418013556141503,16.064414170871945]]]}},{"type":"Feature","properties":{"fid":1196.0,"DN":7},"geometry":{"type":"Polygon","coordinates":[[[-16.417733156557592,16.064416027886754],[-16.417824062508778,16.064053905944228],[-16.418011635446728,16.064143043661343],[-16.417920729815215,16.064505165656616],[-16.417733156557592,16.064416027886754]]]}},{"type":"Feature","properties":{"fid":1197.0,"DN":7},"geometry":{"type":"Polygon","coordinates":[[[-16.393804332125125,16.064392388046954],[-16.393803073516327,16.06421163468845],[-16.393896540916487,16.06421102617699],[-16.393804332125125,16.064392388046954]]]}},{"type":"Feature","properties":{"fid":1228.0,"DN":7},"geometry":{"type":"Polygon","coordinates":[[[-16.41604180775102,16.06316190081584],[-16.415947063233954,16.06298176729794],[-16.41632092694941,16.06297929452971],[-16.4162287397774,16.063160664417083],[-16.41604180775102,16.06316190081584]]]}},{"type":"Feature","properties":{"fid":1233.0,"DN":7},"geometry":{"type":"Polygon","coordinates":[[[-16.41603925060317,16.062800397515087],[-16.416037972053722,16.06261964585999],[-16.41622490357416,16.06261840950516],[-16.41603925060317,16.062800397515087]]]}},{"type":"Feature","properties":{"fid":1290.0,"DN":7},"geometry":{"type":"Polygon","coordinates":[[[-16.39517422221049,16.05977404711967],[-16.39517359247655,16.059683670454824],[-16.395267057708434,16.059683061512064],[-16.39517422221049,16.05977404711967]]]}},{"type":"Feature","properties":{"fid":1322.0,"DN":7},"geometry":{"type":"Polygon","coordinates":[[[-16.409586279207662,16.062300695910295],[-16.409209870995145,16.061941652421766],[-16.40920478184177,16.06121864358726],[-16.408822653133978,16.06004621401725],[-16.408998135658035,16.05841821377547],[-16.41105370777256,16.0583142998814],[-16.411430748665612,16.058763716567878],[-16.41143457091836,16.059305972800896],[-16.410600394787426,16.060305651900652],[-16.410799424596846,16.06202156533663],[-16.410241813532465,16.062477139862786],[-16.409586279207662,16.062300695910295]]]}},{"type":"Feature","properties":{"fid":1349.0,"DN":7},"geometry":{"type":"Polygon","coordinates":[[[-16.390958863588725,16.058445755030544],[-16.390585004259297,16.058448182855347],[-16.390583121446365,16.05817705229384],[-16.391145165368183,16.0583541640421],[-16.39114704896385,16.05862529453419],[-16.390958863588725,16.058445755030544]]]}},{"type":"Feature","properties":{"fid":1377.0,"DN":7},"geometry":{"type":"Polygon","coordinates":[[[-16.42890073491161,16.057563310963214],[-16.428899445195114,16.057382560233226],[-16.429180478547668,16.057471064747666],[-16.42908830561297,16.057652439119046],[-16.42890073491161,16.057563310963214]]]}},{"type":"Feature","properties":{"fid":1383.0,"DN":7},"geometry":{"type":"Polygon","coordinates":[[[-16.407402258603828,16.05743452305987],[-16.40740162344918,16.057344146849847],[-16.407495087098535,16.057343532658233],[-16.407402258603828,16.05743452305987]]]}},{"type":"Feature","properties":{"fid":1386.0,"DN":7},"geometry":{"type":"Polygon","coordinates":[[[-16.39584738178456,16.062481082462064],[-16.39565918862461,16.062301547772343],[-16.394912086729104,16.062396796967022],[-16.395183668701883,16.06112969699826],[-16.39490075231174,16.060770017094754],[-16.394339328329817,16.06068329273242],[-16.394243974548395,16.060412771225682],[-16.39330743148971,16.060147724426585],[-16.39321082167902,16.059696448836515],[-16.393489330714218,16.059423494260102],[-16.39367689011309,16.059512654547778],[-16.393769097149768,16.059331292821078],[-16.394515559192005,16.05914567175568],[-16.394797213287696,16.05932459909323],[-16.394799101947513,16.059595729138138],[-16.394986032355106,16.059594511545185],[-16.3953624124031,16.059953582499123],[-16.395359263311857,16.0595016992109],[-16.39554556369642,16.05941010448322],[-16.39554367404905,16.059138974520142],[-16.395730603970815,16.05913775631106],[-16.395634619369794,16.058776858821986],[-16.39600532820149,16.05832253892244],[-16.39591060362439,16.058142394839244],[-16.396190997061783,16.058140567094426],[-16.39618973681533,16.057959813815017],[-16.39600280802968,16.057961032337882],[-16.396093122089493,16.057508539866504],[-16.396933669131105,16.057412678409403],[-16.39702839418967,16.057592822006296],[-16.39740035895851,16.057319253268336],[-16.398054607150147,16.057314983622497],[-16.398152488092986,16.057947009481904],[-16.39778241593045,16.05849170924877],[-16.397784308528223,16.058762838968416],[-16.39750580666554,16.05903579861286],[-16.397514637666287,16.06030107066314],[-16.396954475586362,16.060395106320488],[-16.396951953358393,16.060033599952586],[-16.397137622744093,16.05985162727424],[-16.39676376177692,16.05985406609056],[-16.39676502269814,16.060034819293662],[-16.396393682545607,16.060398763941205],[-16.39658250478264,16.060668674708353],[-16.396769436049162,16.060667455479795],[-16.396677231327246,16.06084881831064],[-16.396864162754348,16.060847598986104],[-16.39686920722714,16.061570611681656],[-16.396590069974145,16.06175319388165],[-16.39622124780296,16.062478644857688],[-16.39584738178456,16.062481082462064]],[[-16.394893196756783,16.059685497038505],[-16.394799731508822,16.059686105818212],[-16.39480036107415,16.059776482497483],[-16.394893196756783,16.059685497038505]],[[-16.39619351760296,16.058502073643833],[-16.39610005295925,16.0585026829473],[-16.396100683062446,16.058593059586293],[-16.39619351760296,16.058502073643833]],[[-16.39637477499248,16.057687465225754],[-16.396281310736157,16.057688074578255],[-16.39628194088746,16.057778451217107],[-16.39637477499248,16.057687465225754]]]}},{"type":"Feature","properties":{"fid":1444.0,"DN":7},"geometry":{"type":"Polygon","coordinates":[[[-16.407034753880843,16.058340741635853],[-16.406657723074087,16.057891316338537],[-16.406283232625785,16.05780339523081],[-16.406374157729818,16.057441276517846],[-16.407029038787403,16.057527355657136],[-16.407026498851252,16.057165850757276],[-16.406837667019847,16.0568959499727],[-16.406464447840463,16.056988781531096],[-16.40646127431631,16.056536900271652],[-16.406831953268597,16.056082563815366],[-16.407205805578922,16.056080107986137],[-16.407396542357937,16.056621137141374],[-16.40730879490827,16.057435137214373],[-16.407778654678978,16.057793570808332],[-16.407780560721665,16.058064699380594],[-16.407408610373277,16.058338285116882],[-16.407034753880843,16.058340741635853]]]}},{"type":"Feature","properties":{"fid":1448.0,"DN":7},"geometry":{"type":"Polygon","coordinates":[[[-16.407111707540004,16.05599034577185],[-16.407111072576644,16.05589996953834],[-16.40720453556386,16.055899355527185],[-16.407111707540004,16.05599034577185]]]}},{"type":"Feature","properties":{"fid":1498.0,"DN":7},"geometry":{"type":"Polygon","coordinates":[[[-16.409646658424812,16.057600523368077],[-16.409548105799058,16.056878129488236],[-16.40991941410746,16.056514164330164],[-16.41000460576127,16.05533865950254],[-16.41056474485779,16.05524459127149],[-16.410566017850158,16.05542534347926],[-16.410753579685387,16.05551448853246],[-16.411031420826813,16.055151137309963],[-16.410841312833778,16.05470048809239],[-16.41056156244797,16.054792710738315],[-16.41065311525582,16.05452096694471],[-16.411398902251126,16.054244913525668],[-16.411587737082133,16.054514810060862],[-16.41149618557905,16.05478655415253],[-16.411777209460745,16.054875082442994],[-16.41187322007718,16.05523597065511],[-16.412900669646866,16.055138815696782],[-16.412901944738064,16.055319567723686],[-16.41308823206722,16.055227958645524],[-16.413086956815604,16.055047206631656],[-16.41336670610131,16.054954980753156],[-16.413364792887386,16.054683852756984],[-16.41317723089512,16.054594710015152],[-16.413362879710103,16.05441272475375],[-16.413643265820397,16.05441087458237],[-16.41373481420274,16.05413912981061],[-16.414579162466364,16.054585456603807],[-16.414771832010327,16.055397605603865],[-16.414403088150667,16.056123082136438],[-16.413563198567964,16.056309387067607],[-16.412818045322172,16.056675824355047],[-16.412540843203047,16.057129553767666],[-16.412352004391195,16.05685965843702],[-16.411228534830798,16.0565959230604],[-16.411042882062777,16.05677790675267],[-16.411046702767397,16.057320163176986],[-16.410861049205263,16.05750214676661],[-16.410114613165348,16.057687823159196],[-16.409646658424812,16.057600523368077]],[[-16.411306713782235,16.05442628147169],[-16.411213251647833,16.05442689721755],[-16.41121388840038,16.054517273303368],[-16.411306713782235,16.05442628147169]]]}},{"type":"Feature","properties":{"fid":1611.0,"DN":7},"geometry":{"type":"Polygon","coordinates":[[[-16.42174494183355,16.050199778321304],[-16.421743659194647,16.05001902690239],[-16.421930578492855,16.05001778651393],[-16.421931861300244,16.05019853791814],[-16.42174494183355,16.050199778321304]]]}},{"type":"Feature","properties":{"fid":2117.0,"DN":7},"geometry":{"type":"Polygon","coordinates":[[[-16.423187025432476,16.042688668889458],[-16.423186383777193,16.04259829317399],[-16.423279839909636,16.042597672650007],[-16.423187025432476,16.042688668889458]]]}},{"type":"Feature","properties":{"fid":2138.0,"DN":7},"geometry":{"type":"Polygon","coordinates":[[[-16.42327919821635,16.042507296937437],[-16.423277914842075,16.042326545509933],[-16.423558924647292,16.042415059429903],[-16.423560208282364,16.042595810833767],[-16.42327919821635,16.042507296937437]]]}},{"type":"Feature","properties":{"fid":2385.0,"DN":7},"geometry":{"type":"Polygon","coordinates":[[[-16.438388555088157,16.038158603876557],[-16.438387906773507,16.038068228725326],[-16.43857481356595,16.038066974728128],[-16.438388555088157,16.038158603876557]]]}},{"type":"Feature","properties":{"fid":2984.0,"DN":7},"geometry":{"type":"MultiPolygon","coordinates":[[[[-16.416016125462686,16.072742352226406],[-16.416107037075083,16.072380230732975],[-16.41572803955614,16.07165969844511],[-16.415541099551902,16.071660935042534],[-16.415633290628875,16.071479565226696],[-16.415352241526385,16.071391044136387],[-16.415256853794848,16.071120534922898],[-16.414509734480916,16.071215854342462],[-16.414223575776965,16.070404325058842],[-16.414035998132086,16.070315184406976],[-16.414028972795535,16.069321050097976],[-16.413840757725907,16.069141533319396],[-16.414584675519254,16.068594337648157],[-16.41439454443319,16.06814369379673],[-16.414858691627245,16.06768872600843],[-16.414949603864628,16.067326604857517],[-16.41532283671251,16.06723375736377],[-16.415601322751474,16.066960775765946],[-16.416537279997534,16.06713534418556],[-16.416815124320603,16.066771985386197],[-16.416813204951925,16.06650085809406],[-16.417091687856512,16.066227874783493],[-16.417651211926042,16.066043410188968],[-16.41755518425787,16.065682526171834],[-16.417736997298434,16.064958282352695],[-16.417922650432505,16.06477629286877],[-16.4182965171782,16.064773816382647],[-16.418204331182856,16.06495518701419],[-16.417923930864458,16.064957044339618],[-16.418112785345716,16.06522693334181],[-16.418672946088122,16.065132842065353],[-16.41875808536136,16.0639573384968],[-16.418567950496207,16.063506698565195],[-16.41819216533559,16.063238048123107],[-16.418372693930152,16.062333052489763],[-16.41799435084817,16.06170289844738],[-16.416500185103203,16.06189354816174],[-16.41640544088941,16.06171341481102],[-16.415751183504753,16.061717741654025],[-16.41546695363354,16.06117734024074],[-16.415836979404855,16.060632613477075],[-16.41574095837269,16.060271727998554],[-16.415925331268312,16.05990898866259],[-16.416297910709076,16.059725764708705],[-16.41638945720228,16.059454019026415],[-16.417135891992626,16.05926832072399],[-16.417416924194985,16.059356840871647],[-16.41797642922454,16.059172376879214],[-16.418347724853607,16.058808398066233],[-16.418899542847576,16.057539422775214],[-16.418895700828717,16.056997168208316],[-16.419822001519215,16.05581608992457],[-16.419818798107894,16.055364211229524],[-16.420095980822893,16.054910473842785],[-16.419999955908207,16.054549590484324],[-16.42036675370414,16.05355297887232],[-16.42101777746824,16.053096761519882],[-16.420920469969236,16.052555127138408],[-16.42063688277099,16.052105107952837],[-16.420631114800823,16.05129172629486],[-16.42155802235047,16.050201018561523],[-16.422026603935475,16.050378669049163],[-16.42221224046958,16.05019667700788],[-16.422586079304683,16.050194195223902],[-16.422488769712604,16.049652561641274],[-16.42304310766862,16.048745081461607],[-16.42313078983037,16.04793107974224],[-16.4228478470694,16.047571438855613],[-16.422747330499604,16.046577926729434],[-16.42255784835373,16.046217664737288],[-16.42218209288789,16.04594901869608],[-16.42218081021276,16.045768267240042],[-16.42199389489808,16.045769507527417],[-16.42199004747631,16.045227253096343],[-16.422737065055998,16.045131915434098],[-16.422735140402093,16.044860788293832],[-16.423014870336967,16.044768551230685],[-16.423197934199333,16.044225055932166],[-16.42319280051445,16.043502050293295],[-16.42300524578727,16.043412915576933],[-16.423002037808928,16.042961036986394],[-16.423281123308502,16.0427784240728],[-16.423468035729492,16.042777182887974],[-16.42356341744179,16.04304768932967],[-16.423655590008075,16.04286631723578],[-16.42384314444276,16.04295545140523],[-16.42449091587629,16.04204734813298],[-16.42439553354041,16.04177684214242],[-16.424582444936803,16.04177560006142],[-16.42467782751707,16.042046105948454],[-16.424958837378043,16.042134618016583],[-16.425611100036534,16.04185914133178],[-16.42589210993457,16.041947652165344],[-16.42598299413617,16.041585528036528],[-16.42645091491013,16.041672794700197],[-16.42682216417346,16.041308804480767],[-16.427196629088964,16.041396691563655],[-16.427845667356543,16.04066933076131],[-16.428870451981567,16.040210603670317],[-16.429147595179643,16.03975685730173],[-16.430173661133328,16.039478875500897],[-16.43035928041373,16.039296877637526],[-16.431386632286607,16.03919964119365],[-16.431478150775455,16.03892789097027],[-16.432131683740923,16.03883314672487],[-16.432223201067767,16.038561396270037],[-16.432598308024975,16.038739649537984],[-16.432781986889406,16.038286523682515],[-16.432406880679842,16.038108270673092],[-16.432404943841252,16.03783714450243],[-16.43277552913921,16.0373827699166],[-16.43276842609048,16.03638864068333],[-16.433325913352988,16.035933016433717],[-16.433699723774453,16.035930517423814],[-16.43407030279395,16.03547614104679],[-16.434444112241717,16.035473640808735],[-16.435006766341004,16.035741015151512],[-16.435004826289465,16.035469889230797],[-16.43528453645574,16.03537763759509],[-16.436126253938667,16.035462381679853],[-16.436309274962944,16.03491887830064],[-16.437150342962475,16.03491324325975],[-16.4373385423347,16.03509274101926],[-16.437441711182455,16.036447742743736],[-16.437629912353735,16.03662724008376],[-16.437822649977793,16.037439363503356],[-16.438104953841634,16.03770860875847],[-16.438107546553777,16.03807010941586],[-16.438295101643632,16.038159230817822],[-16.43839114838816,16.03852010447362],[-16.438764314298652,16.038427221108844],[-16.438947978538113,16.037974091115604],[-16.43978321808151,16.037155068780272],[-16.44005903371591,16.036520560336513],[-16.439949358460268,16.0342618101539],[-16.43975596783659,16.033359313731783],[-16.440029184119375,16.032363304995346],[-16.44067879511988,16.03172628602991],[-16.442457543787874,16.032026715606193],[-16.442337045240926,16.032575804900485],[-16.44067220781705,16.038326100910346],[-16.439522948601546,16.043570754457928],[-16.44014607699913,16.04540970021075],[-16.439747530149702,16.045199077737415],[-16.438994036809074,16.0443907233711],[-16.438432650200916,16.044304112315807],[-16.437781049212518,16.044670002306326],[-16.437410463980605,16.04512438542324],[-16.437223550513437,16.045125638941677],[-16.43666734496328,16.045762024626637],[-16.436669288575622,16.04603315008925],[-16.436857498865315,16.04621264727482],[-16.436867218873083,16.04756827434673],[-16.43640316852163,16.048023282861188],[-16.436315540760486,16.04883728563495],[-16.43612862374077,16.048838538480464],[-16.436036460653824,16.049019915149817],[-16.436137692681648,16.05010379051627],[-16.436233095359565,16.050374289466966],[-16.436420013803104,16.050373036413774],[-16.43642260563308,16.050734536913126],[-16.436146114566917,16.051278667268626],[-16.436158424733563,16.052995794590636],[-16.435508087431955,16.053542430292005],[-16.43523418088265,16.054448060410095],[-16.43504855355499,16.0546300630298],[-16.435051143634585,16.054991563603927],[-16.434495553325505,16.055718321031776],[-16.434413742995268,16.057345699723772],[-16.434043775857493,16.057890454183834],[-16.433953548858277,16.058342955775842],[-16.433767269868927,16.05843458244596],[-16.43340118090224,16.05952158707199],[-16.43349723261618,16.059882462110615],[-16.432939683857235,16.060338091207722],[-16.432855921715447,16.061694344292924],[-16.433140844378176,16.062325093896437],[-16.43332842129194,16.06241421778354],[-16.43334136343995,16.064221720583493],[-16.433155078885882,16.06431334713939],[-16.43306420116561,16.06467547335383],[-16.432877269098697,16.064676724562982],[-16.43250599210773,16.06504072713182],[-16.43223012028093,16.06567522936202],[-16.431766020118808,16.066130231350463],[-16.431864012904388,16.066762232400965],[-16.432334582170796,16.06721098163342],[-16.43224499567318,16.067753857925254],[-16.432624041551982,16.068474357005258],[-16.432625982586615,16.068745482376002],[-16.432439046682966,16.068746733510675],[-16.43244034055798,16.068927483768718],[-16.432254051328453,16.069019109890302],[-16.4322618139624,16.070103611451824],[-16.432078110944698,16.070556738025473],[-16.431799644658405,16.07082973957065],[-16.43067672445617,16.070656490182408],[-16.430678016901535,16.070837240548002],[-16.42946291949512,16.070845359978435],[-16.429370741715704,16.07102673473042],[-16.42619278835521,16.071047936436752],[-16.42470114053231,16.071600149879576],[-16.42283174760735,16.071612586833112],[-16.42227285681738,16.071887441256504],[-16.421244688346963,16.07189427205481],[-16.421152502407658,16.072075643888734],[-16.42087209247339,16.072077505876727],[-16.420686436037457,16.072259498128687],[-16.420312555697542,16.072261979911254],[-16.420217802483513,16.072081849087592],[-16.419470042249568,16.07208681030951],[-16.419284384425218,16.07226880144777],[-16.418444434548157,16.072455130337005],[-16.4181633831103,16.07236661315752],[-16.418067350522612,16.072005729894446],[-16.417693470230997,16.072008207064048],[-16.41741498084448,16.072281191595156],[-16.41676132920972,16.072375900009792],[-16.41657630840519,16.07264826473493],[-16.41685735972607,16.07273678402193],[-16.416016125462686,16.072742352226406]],[[-16.43108590705048,16.062519597480126],[-16.4312702527124,16.062156847077517],[-16.43183233496791,16.06233384815865],[-16.432293840633108,16.06151734581729],[-16.432188739371636,16.05989121725585],[-16.432001811699248,16.059892467338713],[-16.431999226290706,16.05953096644544],[-16.431811652681507,16.059441841102974],[-16.431715604221388,16.059080965029825],[-16.43144296692407,16.06016734233736],[-16.43116515893749,16.060530717459997],[-16.43042067384034,16.060987589819153],[-16.42958078456326,16.06117395795254],[-16.42967683058877,16.06153483514598],[-16.429490546474742,16.061626458467828],[-16.429491837084033,16.06180720907954],[-16.42977674972358,16.062437964001514],[-16.43015125580376,16.062525842445098],[-16.43024601231318,16.062705968668904],[-16.43108590705048,16.062519597480126]],[[-16.432647652308344,16.058713213723124],[-16.432554189042786,16.058713838940605],[-16.432558068474954,16.059256090185],[-16.432745642178492,16.059345214862084],[-16.432647652308344,16.058713213723124]],[[-16.4292823270682,16.058645320535557],[-16.42928039184568,16.058374194512037],[-16.42909411033663,16.058465817291495],[-16.42918950873667,16.058736319625368],[-16.4292823270682,16.058645320535557]],[[-16.431801313122072,16.057995837272998],[-16.431798728397183,16.057634336284032],[-16.4315170479092,16.05745546005913],[-16.431419063312166,16.056823457860123],[-16.431231492558844,16.056734331760765],[-16.431319787718703,16.056010704968642],[-16.43112640576512,16.05510820107161],[-16.431311391522538,16.054835826243004],[-16.43112253126408,16.05456594927702],[-16.43111930262657,16.054114072759887],[-16.43093173462689,16.0540249461594],[-16.431295246949656,16.052576443704684],[-16.43110768038476,16.05248731713543],[-16.431197266768002,16.05194444087529],[-16.430635214896704,16.051767435549227],[-16.43007767997425,16.052223056222],[-16.42998680016467,16.052585181531718],[-16.42952078741586,16.05276905101067],[-16.427757274301747,16.054498026399475],[-16.427763072419538,16.055311405284886],[-16.427951284848266,16.055490910086935],[-16.427861688792987,16.05603378565697],[-16.428424395738197,16.05630117281702],[-16.428336734558837,16.057115174645254],[-16.42805827986309,16.05738817055211],[-16.42806150228869,16.05784004753733],[-16.428343825285932,16.05810930389092],[-16.428717677885032,16.0581068102162],[-16.42871638828773,16.05792605948088],[-16.428996777440965,16.057924188819054],[-16.429091530418287,16.058104315889384],[-16.429370629587655,16.057921694032718],[-16.42965230909467,16.05810057317648],[-16.431146426384533,16.057909834892566],[-16.431428753285317,16.05817908683205],[-16.431801313122072,16.057995837272998]],[[-16.43619034527985,16.044409528920774],[-16.436653092943807,16.0437737710179],[-16.43664661541508,16.042870019251758],[-16.43635653464362,16.041516270248884],[-16.436827048869702,16.04196501463714],[-16.437012663712665,16.041783011355747],[-16.437010720178485,16.041511885826832],[-16.436915321743836,16.041241386747846],[-16.436262432050984,16.041426521224466],[-16.43616638720701,16.041065646510166],[-16.435790625826034,16.040797024906073],[-16.43578350623607,16.03980289730614],[-16.435594009114926,16.039442648003515],[-16.435407100795025,16.03944389950709],[-16.435320116692754,16.04034827778228],[-16.43560436343596,16.04088865192285],[-16.435617955088325,16.042786531761553],[-16.435441399074417,16.044233787112322],[-16.43610012663253,16.044862031078715],[-16.43619034527985,16.044409528920774]],[[-16.423844428379642,16.043136202777582],[-16.423656873768348,16.04304706862443],[-16.4236587994395,16.043318195701495],[-16.423939810798373,16.043406708988112],[-16.423844428379642,16.043136202777582]],[[-16.437382596391,16.041238254055745],[-16.4373793564703,16.040786378220986],[-16.43700748103761,16.041060009929584],[-16.437010072342034,16.041421510648956],[-16.437382596391,16.041238254055745]],[[-16.43793813998702,16.040511492315087],[-16.437751230863753,16.040512745943126],[-16.437751878995574,16.040603121099142],[-16.43793813998702,16.040511492315087]],[[-16.438310661427522,16.040328234300713],[-16.43812115937952,16.039967987660777],[-16.43821331705165,16.039786610439915],[-16.437838852048543,16.03969874274334],[-16.437653887844483,16.039971121721155],[-16.437657128210326,16.04042299753556],[-16.438310661427522,16.040328234300713]]],[[[-16.450556030577342,16.06645562789927],[-16.450371063104757,16.066728017811357],[-16.449719417718512,16.067093947582602],[-16.449720727057112,16.067274696489207],[-16.449164508695738,16.067911115152484],[-16.44869782850678,16.068004653114624],[-16.447677537578897,16.06909610349703],[-16.447118039720735,16.069280645002344],[-16.446561154108764,16.069826683363228],[-16.446094467813943,16.0699202160968],[-16.44563039280199,16.070375246215107],[-16.44525782566737,16.070558520490003],[-16.44488329991052,16.07047067031404],[-16.444498988097127,16.069027199838185],[-16.44431074830394,16.06884771205123],[-16.444030997916908,16.068939978675186],[-16.44412185664472,16.06857784940263],[-16.443837542064337,16.068037493004756],[-16.44365321564097,16.068400252626052],[-16.44346562907238,16.068311138669298],[-16.443083939445277,16.06722916307121],[-16.443551273438036,16.067226011980413],[-16.443732991376876,16.06650175369241],[-16.444107509221237,16.06658960656254],[-16.444851326223716,16.066042313014183],[-16.445506242113055,16.06612827074942],[-16.445791210717143,16.06675899949119],[-16.446538942403123,16.0667539479453],[-16.447466416888265,16.06575350977713],[-16.44784028060904,16.065750981559045],[-16.44811806284669,16.06538758684275],[-16.44839846004992,16.065385689928995],[-16.448396498082374,16.06511456636097],[-16.44867689486856,16.065112669113944],[-16.448676446198863,16.06505067862302],[-16.45099270695258,16.066491029960122],[-16.450556030577342,16.06645562789927]]],[[[-16.448299762827006,16.064663326047256],[-16.44829929447628,16.06459859734992],[-16.448363207207098,16.064723819818983],[-16.448299762827006,16.064663326047256]]],[[[-16.447730473064514,16.063492249815024],[-16.44763831533992,16.063673630930758],[-16.447077525502436,16.06367742200766],[-16.446606281907677,16.063138332457815],[-16.4463187052814,16.06214610586106],[-16.446308911983415,16.06079048629027],[-16.446470074162225,16.06025753426591],[-16.44749865230352,16.063029920993465],[-16.447734154213883,16.06349133345868],[-16.447730473064514,16.063492249815024]]],[[[-16.443550905692543,16.054211417200708],[-16.443272477159393,16.054484430947323],[-16.443369194349646,16.054935675278703],[-16.443182272222643,16.054936934741097],[-16.443184225823416,16.055208059192605],[-16.443656091763906,16.055837533737158],[-16.443660651989767,16.05647015726068],[-16.443382872110526,16.056833546133888],[-16.442726685205745,16.056566829622497],[-16.4422554709093,16.05602772781927],[-16.441692749454997,16.055760378442848],[-16.44112547746371,16.054860403169513],[-16.440001994508965,16.054596820878327],[-16.44009350620502,16.054325067730858],[-16.43990593468909,16.054235949334213],[-16.439901386988122,16.053603324629563],[-16.44036609040345,16.053238683303732],[-16.44026938101659,16.052787436926746],[-16.44035894229213,16.052244558860068],[-16.4405445623692,16.052062552171677],[-16.440917751631023,16.0519696631908],[-16.441381799233824,16.05151464514785],[-16.44240920328736,16.051417351283106],[-16.442512520421648,16.050952507996584],[-16.443208268486405,16.05244156812163],[-16.44334497894339,16.05276673727856],[-16.44316664476321,16.052767938873988],[-16.443171202524894,16.05340056271539],[-16.44345353732832,16.05366979810901],[-16.44372388570562,16.053667976255777],[-16.443986499850993,16.054292610406897],[-16.443550905692543,16.054211417200708]]]]}},{"type":"Feature","properties":{"fid":3074.0,"DN":7},"geometry":{"type":"Polygon","coordinates":[[[-16.43886758883091,16.026767568940947],[-16.438771548724308,16.026406694726546],[-16.439238788436487,16.026403560809513],[-16.439147933162843,16.0267656885461],[-16.43886758883091,16.026767568940947]]]}},{"type":"Feature","properties":{"fid":4592.0,"DN":7},"geometry":{"type":"Polygon","coordinates":[[[-16.437115736779482,15.990898540724961],[-16.43702101389543,15.990718414110649],[-16.43720787674645,15.990717164901334],[-16.437115736779482,15.990898540724961]]]}},{"type":"Feature","properties":{"fid":4664.0,"DN":7},"geometry":{"type":"Polygon","coordinates":[[[-16.46652668927666,15.98798854202681],[-16.466526030460432,15.987898167585975],[-16.46661945935196,15.987897530290052],[-16.46652668927666,15.98798854202681]]]}},{"type":"Feature","properties":{"fid":4739.0,"DN":7},"geometry":{"type":"Polygon","coordinates":[[[-16.465670027317863,15.985825288283834],[-16.46566936898024,15.985734913790067],[-16.46576279690337,15.985734276950135],[-16.465670027317863,15.985825288283834]]]}},{"type":"Feature","properties":{"fid":4759.0,"DN":7},"geometry":{"type":"Polygon","coordinates":[[[-16.37662697025361,15.985781115214142],[-16.37662635190561,15.985690737215462],[-16.37699945947285,15.985597966356744],[-16.37690726494462,15.985779320609199],[-16.37662697025361,15.985781115214142]]]}},{"type":"Feature","properties":{"fid":4763.0,"DN":7},"geometry":{"type":"Polygon","coordinates":[[[-16.466224667894046,15.98500809634551],[-16.466224009342813,15.984917721867406],[-16.466317436863292,15.984917084818205],[-16.466224667894046,15.98500809634551]]]}},{"type":"Feature","properties":{"fid":4764.0,"DN":7},"geometry":{"type":"Polygon","coordinates":[[[-16.37746661677282,15.985594974369942],[-16.37746599805533,15.985504596401723],[-16.377559429461506,15.98550399788622],[-16.37746661677282,15.985594974369942]]]}},{"type":"Feature","properties":{"fid":4766.0,"DN":7},"geometry":{"type":"Polygon","coordinates":[[[-16.377559429461506,15.98550399788622],[-16.37755881070604,15.985413619920783],[-16.37765224206632,15.985413021368283],[-16.377559429461506,15.98550399788622]]]}},{"type":"Feature","properties":{"fid":4779.0,"DN":7},"geometry":{"type":"Polygon","coordinates":[[[-16.377744435755865,15.98523166685622],[-16.377931298288864,15.985230469562623],[-16.378023491646903,15.985049114954233],[-16.37858407862379,15.985045521899238],[-16.37783910477498,15.985411824141574],[-16.377744435755865,15.98523166685622]]]}},{"type":"Feature","properties":{"fid":4787.0,"DN":7},"geometry":{"type":"Polygon","coordinates":[[[-16.466685218245097,15.98410116604813],[-16.466683900811965,15.983920417113334],[-16.466870754884187,15.983919142652173],[-16.466872072485014,15.984099891571807],[-16.466685218245097,15.98410116604813]]]}},{"type":"Feature","properties":{"fid":4794.0,"DN":7},"geometry":{"type":"Polygon","coordinates":[[[-16.46649507085634,15.98365056798147],[-16.4664944122426,15.983560193502973],[-16.46658783912157,15.983559556388936],[-16.46649507085634,15.98365056798147]]]}},{"type":"Feature","properties":{"fid":4803.0,"DN":7},"geometry":{"type":"Polygon","coordinates":[[[-16.46529236645925,15.985285588187889],[-16.465101562684527,15.984744614244846],[-16.46509366653693,15.983660119882297],[-16.465277888251272,15.98329734870706],[-16.465651595458063,15.983294802161849],[-16.465653570142088,15.983565925704347],[-16.46602859459696,15.983744127458941],[-16.46603122827251,15.984105625437744],[-16.46575292171605,15.98437865950633],[-16.465754896677623,15.984649783009212],[-16.46594372675606,15.984919632771655],[-16.46612992331302,15.984827984393377],[-16.466131240327417,15.985008733357942],[-16.46585095760224,15.985010644151881],[-16.46566673567191,15.985373415807167],[-16.46529236645925,15.985285588187889]]]}},{"type":"Feature","properties":{"fid":4821.0,"DN":7},"geometry":{"type":"Polygon","coordinates":[[[-16.509430465900024,15.990402937565438],[-16.509884718069095,15.988682576818084],[-16.510439853995646,15.98795565820411],[-16.51061313647928,15.986146892798818],[-16.510331501041357,15.985968116392547],[-16.510330144245334,15.985787371087534],[-16.510702491284487,15.98560400059778],[-16.510701134187823,15.985423255317691],[-16.51107280148521,15.985149511639245],[-16.511441073533895,15.984423904317135],[-16.511439037058793,15.98415278645886],[-16.511624529734544,15.983970727873626],[-16.511524995095122,15.983158030968827],[-16.512083506492733,15.982882972613197],[-16.51226628099881,15.982339423203884],[-16.512733402758133,15.982336138070481],[-16.512460601097693,15.98333220775156],[-16.512651526743447,15.983873129018896],[-16.51265832046522,15.984776854701353],[-16.512474186777403,15.985139659288526],[-16.51248030090101,15.985953012377536],[-16.511846692730476,15.98866878884666],[-16.511850768030552,15.989211024226464],[-16.511575239132593,15.98984560309157],[-16.511498298313978,15.991587941888486],[-16.509491391530595,15.991538932481603],[-16.5087808249368,15.990969725931707],[-16.509430465900024,15.990402937565438]]]}},{"type":"Feature","properties":{"fid":4856.0,"DN":7},"geometry":{"type":"Polygon","coordinates":[[[-16.467508268081783,15.981655319663824],[-16.467507609099766,15.98156494520975],[-16.4676010350101,15.981564307733034],[-16.467508268081783,15.981655319663824]]]}},{"type":"Feature","properties":{"fid":4871.0,"DN":7},"geometry":{"type":"Polygon","coordinates":[[[-16.466946394822823,15.981478394740899],[-16.466945077382878,15.981297645783343],[-16.467131928998484,15.9812963712987],[-16.467133905416215,15.981567494711117],[-16.466946394822823,15.981478394740899]]]}},{"type":"Feature","properties":{"fid":4883.0,"DN":7},"geometry":{"type":"Polygon","coordinates":[[[-16.466756908494993,15.981118171129939],[-16.466756249873622,15.981027796640834],[-16.466849675566223,15.981027159511246],[-16.466756908494993,15.981118171129939]]]}},{"type":"Feature","properties":{"fid":4891.0,"DN":7},"geometry":{"type":"Polygon","coordinates":[[[-16.46675493264353,15.98084704766027],[-16.466753615430314,15.980666298676566],[-16.466847040955262,15.980665661562146],[-16.46675493264353,15.98084704766027]]]}},{"type":"Feature","properties":{"fid":4897.0,"DN":7},"geometry":{"type":"Polygon","coordinates":[[[-16.46765113286029,15.988432763717901],[-16.467647836199735,15.987980891752942],[-16.467834034557836,15.987889241751605],[-16.467645858254066,15.987709768564544],[-16.467179373506987,15.98780333124757],[-16.46718069172231,15.987984080076963],[-16.466901063973392,15.98807636700947],[-16.466617482802793,15.98762640697421],[-16.467177396215664,15.987532207997587],[-16.46717541896232,15.987261084740547],[-16.46680236355879,15.987354008983234],[-16.46680104573802,15.987173260112533],[-16.466424696602225,15.986814311444627],[-16.466237839804464,15.986815585742704],[-16.466141777049934,15.98645472496142],[-16.46586346769048,15.986727759374553],[-16.465960847188427,15.987269369242677],[-16.46577530683585,15.98745139212548],[-16.465400933643572,15.98736356503866],[-16.46521078529385,15.986912965985166],[-16.465767405648776,15.986366898363489],[-16.46576345528292,15.985824651440112],[-16.465950311200388,15.985823377630986],[-16.46585951697185,15.986185512492735],[-16.466139801332226,15.986183601551067],[-16.46622664357306,15.985279219775098],[-16.46641349894522,15.985277945605832],[-16.466504291891603,15.98491581059813],[-16.46678391560386,15.984823524507691],[-16.466875366560924,15.984551763857146],[-16.467062221203207,15.984550489180702],[-16.467058926708052,15.98409861693326],[-16.467339208010962,15.98409670467128],[-16.467335912992468,15.983644832461085],[-16.467055632318402,15.983646744666201],[-16.467053655735246,15.98337562129656],[-16.466771399232613,15.983106409691755],[-16.466860214685145,15.982473151182145],[-16.467045749782418,15.982291127747335],[-16.467233261201773,15.98238022755737],[-16.46741813688912,15.982107829381325],[-16.46779184152802,15.982105279302367],[-16.467787227714563,15.981472658214479],[-16.468158294069656,15.981108609871827],[-16.468060913208507,15.980567000944948],[-16.468433955528457,15.980474075562977],[-16.468437252323152,15.980925947682929],[-16.468624103468343,15.980924671931094],[-16.468722145604787,15.981556654849657],[-16.468537931678952,15.981919428380403],[-16.46854122902113,15.982371300418611],[-16.46835569532495,15.982553325035724],[-16.468370862725056,15.984631936297239],[-16.4685583769028,15.984721034701058],[-16.46875050907738,15.985442753545774],[-16.46922160689819,15.985981808405482],[-16.469223586741617,15.986252931445119],[-16.46866961580404,15.987160504659453],[-16.468583444328164,15.988155260774924],[-16.46765113286029,15.988432763717901]]]}},{"type":"Feature","properties":{"fid":4905.0,"DN":7},"geometry":{"type":"Polygon","coordinates":[[[-16.466658872788628,15.980486186756021],[-16.466750981054503,15.98030480069975],[-16.467031257113742,15.980302889280315],[-16.46694046647599,15.980665024407173],[-16.466658872788628,15.980486186756021]]]}},{"type":"Feature","properties":{"fid":4906.0,"DN":7},"geometry":{"type":"MultiPolygon","coordinates":[[[[-16.48733918924935,15.98486309119345],[-16.48752604244976,15.984861798715027],[-16.487590996092592,15.984985245850941],[-16.487317942653323,15.985208577018986],[-16.48733918924935,15.98486309119345]]],[[[-16.488920085013486,15.98385799085829],[-16.489806400380225,15.983161977269472],[-16.489786146560576,15.983189826172808],[-16.488920380597335,15.983897938564068],[-16.488920085013486,15.98385799085829]]]]}},{"type":"Feature","properties":{"fid":4913.0,"DN":7},"geometry":{"type":"Polygon","coordinates":[[[-16.46703257454468,15.98048363824755],[-16.467124682458383,15.980302252059413],[-16.466934538470927,15.979851654009893],[-16.46721547265226,15.979940116884398],[-16.467312850817418,15.980481726440466],[-16.46703257454468,15.98048363824755]]]}},{"type":"Feature","properties":{"fid":4943.0,"DN":7},"geometry":{"type":"Polygon","coordinates":[[[-16.46664109342118,15.978046075024219],[-16.46664043498515,15.977955700504653],[-16.466733859257037,15.977955063544465],[-16.46664109342118,15.978046075024219]]]}},{"type":"Feature","properties":{"fid":4985.0,"DN":7},"geometry":{"type":"Polygon","coordinates":[[[-16.46524367514143,15.978597872061004],[-16.4652364392131,15.977603751729447],[-16.465421971807753,15.977421729868746],[-16.465419998235117,15.977150606143496],[-16.46569961209635,15.977058322259277],[-16.46579106196649,15.97678656205313],[-16.466631217323584,15.976690457148337],[-16.466816089332813,15.97641805971991],[-16.467189783511905,15.976415511569323],[-16.467375313189734,15.976233488243302],[-16.46812401866422,15.976409138355399],[-16.467943102377934,15.977223783612688],[-16.46766480732222,15.97749681931175],[-16.467668101743868,15.977948691712873],[-16.467481912093444,15.978040340888956],[-16.46748586506117,15.978582587785208],[-16.466926634995797,15.978767160048005],[-16.46701676648733,15.978314650433571],[-16.466736493194105,15.97831656160287],[-16.466730566930618,15.977503190953799],[-16.466635167648732,15.977232704319869],[-16.466448319762765,15.977233978058015],[-16.466356870655844,15.977505738475555],[-16.466077914736733,15.977688397782876],[-16.46608318023041,15.978411394118135],[-16.46627068752914,15.978500495136602],[-16.46627200412079,15.978681244195851],[-16.465711456288165,15.978685064314545],[-16.46571277239379,15.978865813416101],[-16.46524367514143,15.978597872061004]],[[-16.466922024915878,15.978134538518066],[-16.466828600568615,15.978135175566921],[-16.466829259096894,15.978225550077338],[-16.466922024915878,15.978134538518066]]]}},{"type":"Feature","properties":{"fid":5093.0,"DN":7},"geometry":{"type":"Polygon","coordinates":[[[-16.511640584477064,15.973667588440508],[-16.51163922760589,15.973486843038785],[-16.51173264788618,15.973486186719244],[-16.511640584477064,15.973667588440508]]]}},{"type":"Feature","properties":{"fid":5098.0,"DN":7},"geometry":{"type":"Polygon","coordinates":[[[-16.512132120449536,15.97691772238884],[-16.511941204480923,15.976376799633952],[-16.5117428254722,15.974841777096955],[-16.511737397304593,15.97411879558418],[-16.511923559853415,15.97402711008402],[-16.51173400484113,15.973666932113154],[-16.51191880987899,15.973394501268267],[-16.51229249075433,15.973391875276294],[-16.512577503392173,15.974022513981119],[-16.512764344364104,15.974021200444133],[-16.512672281725244,15.974202602539236],[-16.51277452925361,15.975376790106454],[-16.5129627296917,15.975556221549423],[-16.512969521086795,15.97645994779883],[-16.512877457728017,15.976641350022437],[-16.51268993529284,15.976552291235606],[-16.512504449887114,15.97673435018834],[-16.512599229658584,15.976914438630407],[-16.512132120449536,15.97691772238884]]]}},{"type":"Feature","properties":{"fid":5189.0,"DN":7},"geometry":{"type":"Polygon","coordinates":[[[-16.482023450770978,15.973512105888211],[-16.481740526024478,15.973152540272205],[-16.481641120155672,15.97233981800019],[-16.48191938812405,15.972066766285442],[-16.48191672802414,15.971705270497175],[-16.483131862713876,15.971787277708705],[-16.483227945890555,15.972148129400553],[-16.482952341826984,15.972782678260176],[-16.483047759740334,15.97305315609653],[-16.48277148862149,15.973597330929357],[-16.482023450770978,15.973512105888211]]]}},{"type":"Feature","properties":{"fid":5233.0,"DN":7},"geometry":{"type":"Polygon","coordinates":[[[-16.512458290335353,15.970589008974068],[-16.512831287078292,15.970496009817712],[-16.512831965912692,15.970586382494108],[-16.512646485647046,15.970768441181189],[-16.512458290335353,15.970589008974068]]]}},{"type":"Feature","properties":{"fid":5244.0,"DN":7},"geometry":{"type":"Polygon","coordinates":[[[-16.512187533640635,15.971856196178589],[-16.512180747815123,15.970952469215751],[-16.51199390963922,15.970953782000784],[-16.512175319467808,15.97022948758891],[-16.51236215695624,15.970228174704314],[-16.512365550059492,15.970680038187918],[-16.512554424114743,15.97094984315948],[-16.51246779212834,15.971854226579945],[-16.512187533640635,15.971856196178589]]]}},{"type":"Feature","properties":{"fid":5424.0,"DN":7},"geometry":{"type":"Polygon","coordinates":[[[-16.448809770586326,15.9669598274411],[-16.44880847067614,15.966779076775614],[-16.44890189050841,15.966778447985975],[-16.448809770586326,15.9669598274411]]]}},{"type":"Feature","properties":{"fid":5486.0,"DN":7},"geometry":{"type":"Polygon","coordinates":[[[-16.463466798681573,15.965504988988865],[-16.463371410780667,15.96523449977484],[-16.463556934804206,15.965052480132027],[-16.46383915991148,15.96532169886606],[-16.46374836776066,15.965683833047514],[-16.463466798681573,15.965504988988865]]]}},{"type":"Feature","properties":{"fid":5621.0,"DN":7},"geometry":{"type":"Polygon","coordinates":[[[-16.48465473960068,15.96291968686783],[-16.484654073743915,15.962829312957663],[-16.4847474902401,15.962828668769758],[-16.48465473960068,15.96291968686783]]]}},{"type":"Feature","properties":{"fid":5651.0,"DN":7},"geometry":{"type":"Polygon","coordinates":[[[-16.490537299199364,15.962517529019122],[-16.490257719225692,15.962609842641168],[-16.490255045829645,15.962248347908648],[-16.490814204521268,15.962063720408537],[-16.491002373616976,15.962243174017553],[-16.490912969536367,15.96278606282801],[-16.490537299199364,15.962517529019122]]]}},{"type":"Feature","properties":{"fid":5733.0,"DN":7},"geometry":{"type":"Polygon","coordinates":[[[-16.482488207406174,15.960494393870436],[-16.48248754262726,15.96040401985094],[-16.48258095809146,15.960403376697899],[-16.482488207406174,15.960494393870436]]]}},{"type":"Feature","properties":{"fid":5751.0,"DN":7},"geometry":{"type":"Polygon","coordinates":[[[-16.47099411001714,15.960030946429521],[-16.47099345041148,15.959940571936064],[-16.471180281877945,15.959939295596103],[-16.47099411001714,15.960030946429521]]]}},{"type":"Feature","properties":{"fid":5756.0,"DN":7},"geometry":{"type":"Polygon","coordinates":[[[-16.46821414683638,15.975956628457046],[-16.468212169695143,15.975685505035225],[-16.468398356873678,15.975593855417719],[-16.46857531548738,15.974236963114459],[-16.464557488147737,15.974173969343454],[-16.464554201524905,15.97372209615262],[-16.46548513667687,15.973263862402927],[-16.465385795669565,15.972451127117615],[-16.465571323784033,15.972269105452144],[-16.46565553738555,15.9710032245981],[-16.465841064017916,15.970821202808287],[-16.465838432989088,15.970459704353122],[-16.46564961834356,15.970189853002287],[-16.464154229411314,15.97010965247152],[-16.463871339800022,15.969750060161381],[-16.462936477335713,15.969666037597182],[-16.462560170019163,15.96930707829208],[-16.46255426413582,15.968493705438776],[-16.46208716380065,15.968496878932092],[-16.461904259095963,15.969040396780418],[-16.461531889231637,15.969223684214475],[-16.461156240678378,15.96895509697865],[-16.460875979672565,15.968956999429656],[-16.46087466876588,15.968776249769961],[-16.46040756742429,15.968779419673584],[-16.46031218156866,15.968508928969417],[-16.460681930123503,15.967964144277598],[-16.460962189772566,15.967962242194236],[-16.460960223431844,15.967691117688977],[-16.461146407403373,15.967599474624384],[-16.461143129855124,15.967147600467106],[-16.461422077069418,15.966964948232231],[-16.461420110239246,15.966693823757735],[-16.4621700880491,15.967050247732228],[-16.46244903408626,15.966867594253355],[-16.462545077883302,15.967228458651862],[-16.462731916815418,15.967227189076741],[-16.463383226945705,15.966861245313595],[-16.463850323217642,15.966858069324593],[-16.46450228685864,15.966582497135898],[-16.464689782094943,15.966671600606395],[-16.464781229900574,15.966399840856736],[-16.465060829636798,15.966307558937364],[-16.465057543589893,15.96585568551902],[-16.464870706124387,15.965856957006146],[-16.464958210617038,15.965042949046364],[-16.464675327590093,15.964683357155028],[-16.46457796785416,15.964141744405076],[-16.464572712713032,15.963418746624452],[-16.46484770967547,15.962693842264121],[-16.46493324313377,15.9616087100147],[-16.465120733700537,15.961697813520637],[-16.46502468891323,15.961336950257852],[-16.465210865105785,15.961245304269578],[-16.46520889392158,15.960974180111966],[-16.46623581720839,15.960876810715577],[-16.46642396514104,15.961056287772255],[-16.466704214461927,15.961054379017384],[-16.46670618766784,15.961325502990857],[-16.467266028958495,15.961231309685251],[-16.467730478610104,15.960866627895289],[-16.468010727502683,15.960864717462416],[-16.468288342662778,15.960501308274361],[-16.46754101363877,15.960506402802645],[-16.4678179710776,15.960052619557366],[-16.468379124977417,15.960139172888008],[-16.468377808105565,15.959958423689255],[-16.468563981295386,15.959866775023828],[-16.468750812897913,15.959865500796996],[-16.468845545974766,15.96004561278522],[-16.468843570058212,15.959774489040472],[-16.469217233028285,15.959771939954125],[-16.469222503562822,15.960494936469665],[-16.46950275175048,15.96049302413865],[-16.469504069677477,15.960673773236927],[-16.469785636273244,15.960852609591045],[-16.47025205796628,15.960759046362698],[-16.47062110630853,15.960123873146621],[-16.47118160126091,15.960120044567033],[-16.471371731827816,15.960570640425495],[-16.471292171677955,15.962469142566619],[-16.4714829651267,15.963010112474107],[-16.472328341647565,15.963636985561717],[-16.472517818248708,15.963997205373307],[-16.472715883264964,15.965532291914108],[-16.472811944198423,15.965893150285343],[-16.473094181869374,15.96616235572503],[-16.47309616433803,15.966433478789765],[-16.472909987760502,15.9665251316583],[-16.472819211915034,15.966887268306328],[-16.472632374145764,15.966888546608907],[-16.47225605669599,15.96652960518544],[-16.472169242314884,15.967433987969484],[-16.472356741171932,15.967523084401515],[-16.472358062270565,15.967703833149477],[-16.4721738656183,15.968066608632366],[-16.471148891502104,15.968435132387475],[-16.4705015514296,15.969343345475892],[-16.470228547647725,15.970339379002622],[-16.470610808779554,15.971511693299638],[-16.47052134709775,15.972054578176335],[-16.470150960380835,15.97250900355869],[-16.46941545800786,15.97414084831317],[-16.468949005323484,15.974234412247501],[-16.468581247925286,15.975050333335119],[-16.468771389971536,15.97550093019381],[-16.46849046165994,15.975412468855316],[-16.468494416658583,15.975954715637737],[-16.46821414683638,15.975956628457046]],[[-16.46558250541921,15.973805473726461],[-16.46548908302408,15.973806110025997],[-16.46548974076337,15.973896484627103],[-16.46558250541921,15.973805473726461]],[[-16.462639153526894,15.967318198656372],[-16.462451658410934,15.967229093378657],[-16.46245297059851,15.967409842936608],[-16.462639153526894,15.967318198656372]],[[-16.469900806521856,15.963834331045598],[-16.46980738893168,15.963834968832236],[-16.46980804817499,15.963925343341362],[-16.469900806521856,15.963834331045598]],[[-16.46999026823433,15.963291446192768],[-16.469802115137327,15.963111972730937],[-16.46971265294706,15.96365485755015],[-16.469900147240907,15.963743956539478],[-16.46999026823433,15.963291446192768]],[[-16.469981697697143,15.962116577540273],[-16.46988828090655,15.96211721529526],[-16.46988894011142,15.962207589815486],[-16.469981697697143,15.962116577540273]]]}},{"type":"Feature","properties":{"fid":5767.0,"DN":7},"geometry":{"type":"Polygon","coordinates":[[[-16.470897396458945,15.959579712048447],[-16.47089673691628,15.959489337547264],[-16.471176983494566,15.95948742315507],[-16.470897396458945,15.959579712048447]]]}},{"type":"Feature","properties":{"fid":5770.0,"DN":7},"geometry":{"type":"Polygon","coordinates":[[[-16.4712703990122,15.959486784943355],[-16.471269739306365,15.959396410456602],[-16.471363154777922,15.959395772208204],[-16.4712703990122,15.959486784943355]]]}},{"type":"Feature","properties":{"fid":5795.0,"DN":7},"geometry":{"type":"Polygon","coordinates":[[[-16.48086052778041,15.967826262325586],[-16.480487516050434,15.967919206911509],[-16.480298685614873,15.967649369805914],[-16.479269086326454,15.967385312214688],[-16.47870459296444,15.966846918832559],[-16.47870061286467,15.966304674092246],[-16.47832030789862,15.965403499202592],[-16.478410410064363,15.964950986926597],[-16.478223574562726,15.964952269929862],[-16.478222248443032,15.96477152161509],[-16.478034750122113,15.964682430274866],[-16.477935366322367,15.96386970405782],[-16.477747206183906,15.96369023819264],[-16.477459665484492,15.962698045399046],[-16.47725560740626,15.960349597562384],[-16.47687399789018,15.959267669627382],[-16.476964101857188,15.95881515766551],[-16.47724434673021,15.958813235457997],[-16.477058179094143,15.9589048912255],[-16.477059503656953,15.959085639733821],[-16.477246996190615,15.959174732444117],[-16.477248320946302,15.959355480932471],[-16.478275887915615,15.959348429468747],[-16.478461392374673,15.959166398468987],[-16.478458077839665,15.958714527482542],[-16.47864424456166,15.958622870571398],[-16.479209376000842,15.959251640632257],[-16.480051438745328,15.959426612256847],[-16.481265170719077,15.959327888263417],[-16.48220131452066,15.959592582752958],[-16.482579628462716,15.96022262866421],[-16.482394127158802,15.96040466296349],[-16.482400774721206,15.961308403161462],[-16.482592925517427,15.962030108859903],[-16.482874504194974,15.962208926930312],[-16.482969915712353,15.962479405490312],[-16.4833422508144,15.962296083536545],[-16.484089581133137,15.96229093361911],[-16.484184328651775,15.962471037564512],[-16.484558659824362,15.962558835358358],[-16.48446724073874,15.962830601211978],[-16.484842238617244,15.963008772345567],[-16.48475481535975,15.96382278169626],[-16.484567981442183,15.963824070115955],[-16.48419697635908,15.964188142147485],[-16.483916724897153,15.964190074033278],[-16.483918056073207,15.964370821890652],[-16.48382197665939,15.964009970046028],[-16.483636473396828,15.964192005554553],[-16.48363846979053,15.964463127373936],[-16.48391872166763,15.964461195818156],[-16.484015467196915,15.964912421491833],[-16.483755848313717,15.96771594470637],[-16.483383504078883,15.967899268103148],[-16.482541403530224,15.967724312888947],[-16.481142113693558,15.968005082014725],[-16.48086052778041,15.967826262325586]]]}},{"type":"Feature","properties":{"fid":5887.0,"DN":7},"geometry":{"type":"Polygon","coordinates":[[[-16.503565622297018,15.95573897939574],[-16.50356494828023,15.955648606207928],[-16.50365836064024,15.955647954102151],[-16.503565622297018,15.95573897939574]]]}},{"type":"Feature","properties":{"fid":5901.0,"DN":7},"geometry":{"type":"Polygon","coordinates":[[[-16.45030774194076,15.96740163817613],[-16.450118299578858,15.967041395873954],[-16.44974461993903,15.967043912940957],[-16.4495558292176,15.966774045324197],[-16.44918280010071,15.966866936692146],[-16.44917954953987,15.966415060093526],[-16.44871180134652,15.966327828828618],[-16.4487131011313,15.966508579509425],[-16.448433491746883,15.966600840830509],[-16.448150633861722,15.966241224996374],[-16.448239505851056,15.965607968968822],[-16.44776851268171,15.965068858527575],[-16.447765265677653,15.964616981569966],[-16.447948206649993,15.964073472690863],[-16.44813439434236,15.963981840641132],[-16.448132445774927,15.96371071448561],[-16.44822716333733,15.963890836870403],[-16.448601487118093,15.963978698285706],[-16.44869360610925,15.96379731896845],[-16.44906662996632,15.963704428874456],[-16.4490607807212,15.962891050702417],[-16.448309539115627,15.962353826916301],[-16.448313436415546,15.96289607924588],[-16.448033182232205,15.962897964281423],[-16.448121404600677,15.962174332804503],[-16.44774643510645,15.961996094829704],[-16.44773994261778,15.961092340628639],[-16.44810841652453,15.960366824654644],[-16.448294600854737,15.960275192725078],[-16.44829265254833,15.960004066495685],[-16.44801175308174,15.95991557574947],[-16.448005909554862,15.959102196910951],[-16.448379574759134,15.959099684077785],[-16.448571603574628,15.959821430653816],[-16.449041285674873,15.960179789670837],[-16.44885640121969,15.96045217298244],[-16.449136651900055,15.960450287156606],[-16.44913535225492,15.9602695364083],[-16.44932153595355,15.960177903635742],[-16.44903868661868,15.959818288146714],[-16.449410403228303,15.95954464730578],[-16.44940780361914,15.959183145819635],[-16.449124305944157,15.958733154921193],[-16.449403904330417,15.958640893566928],[-16.449401304887946,15.958279392049468],[-16.449680252532687,15.958096755023417],[-16.45033481311358,15.958182727671561],[-16.45061180854648,15.957728963508204],[-16.450421075757667,15.957187969756227],[-16.450607906393845,15.957186711472527],[-16.450511889893544,15.95682583924685],[-16.450697419452123,15.95664383022857],[-16.45107107965349,15.956641313103367],[-16.451348071532962,15.956187548242902],[-16.452188153736763,15.956091506131735],[-16.452278964311496,15.955729375145545],[-16.452467095682827,15.955908865919259],[-16.452747339598,15.955906975918584],[-16.452746037105925,15.955726225384357],[-16.453026280732466,15.95572433504187],[-16.45302823485341,15.955995460808259],[-16.453309130326446,15.956083945310297],[-16.453404499688276,15.956354440690653],[-16.45414986237389,15.95607827086868],[-16.45433408382576,15.955715508626373],[-16.454801156160507,15.955712354412281],[-16.454899136146686,15.956344349699433],[-16.454715567449107,15.956797487548053],[-16.45472078494848,15.95752048896007],[-16.455097708015114,15.957969840503258],[-16.455106841919424,15.959235092588383],[-16.45492718605284,15.960230481544862],[-16.455027779855584,15.961223976829375],[-16.455215266435975,15.961313089361902],[-16.45531194667536,15.961764333582439],[-16.455224403093496,15.962578340988665],[-16.454573089100425,15.962944260279915],[-16.45429153114703,15.96276540317537],[-16.453079706903075,15.963135103453515],[-16.45270538345836,15.963047249852503],[-16.452429038163526,15.963591391923861],[-16.451401437641913,15.963598321871071],[-16.45140273960487,15.963779072381588],[-16.451777064070374,15.96386692817689],[-16.45187243604561,15.964137423912229],[-16.45215269147436,15.964135533737597],[-16.451972367270155,15.96504054614372],[-16.45215985643693,15.965129661124877],[-16.452255881099042,15.965490531773984],[-16.45253613836171,15.965488640944459],[-16.452538093082644,15.965759766524652],[-16.45235125466049,15.965761027140694],[-16.4522565325429,15.96558090697942],[-16.451416411223793,15.965676952552792],[-16.451517644119328,15.966760825428732],[-16.450867611331084,15.967307485538182],[-16.450776143919786,15.967579240948005],[-16.45030774194076,15.96740163817613]],[[-16.45130932126686,15.963779702141274],[-16.451309972212734,15.963870077399106],[-16.45140273960487,15.963779072381588],[-16.45130932126686,15.963779702141274]],[[-16.450116347948637,15.96677027003419],[-16.450022928170554,15.966770899350465],[-16.450023578667913,15.966861274634919],[-16.450116347948637,15.96677027003419]],[[-16.449083529681417,15.966054187681753],[-16.44889669069934,15.966055445322665],[-16.448897340660892,15.966145820658319],[-16.449083529681417,15.966054187681753]],[[-16.450651488954612,15.96324185760414],[-16.45009098017081,15.963245633475704],[-16.450187650445972,15.963696880794737],[-16.4506547421353,15.963693734040161],[-16.450651488954612,15.96324185760414]],[[-16.44950966942347,15.960357396796462],[-16.449416252592705,15.9603580256038],[-16.449416902542918,15.960448400966332],[-16.44950966942347,15.960357396796462]],[[-16.449415602646656,15.960267650240485],[-16.44932218585358,15.96026827900358],[-16.44932283575777,15.960358654370634],[-16.449415602646656,15.960267650240485]]]}},{"type":"Feature","properties":{"fid":5904.0,"DN":7},"geometry":{"type":"Polygon","coordinates":[[[-16.503750424807983,15.955466555593468],[-16.50374907663732,15.955285809227908],[-16.503842488821345,15.955285157056707],[-16.503750424807983,15.955466555593468]]]}},{"type":"Feature","properties":{"fid":5911.0,"DN":7},"geometry":{"type":"Polygon","coordinates":[[[-16.50374840255847,15.955195436043944],[-16.50374772848395,15.955105062859197],[-16.503841140584303,15.955104410695768],[-16.50374840255847,15.955195436043944]]]}},{"type":"Feature","properties":{"fid":5956.0,"DN":7},"geometry":{"type":"Polygon","coordinates":[[[-16.511031150001337,15.954692581032052],[-16.51102979537391,15.954511835261407],[-16.511308675033835,15.954329123498358],[-16.51130732019017,15.954148377744858],[-16.511120497515194,15.954149688429226],[-16.51111846553327,15.953878569769662],[-16.51130393315705,15.95369651334737],[-16.51149075539634,15.953695202540164],[-16.511399376611195,15.95396697659314],[-16.51158619909278,15.953965665681556],[-16.51168164307497,15.954236128751983],[-16.51186778811082,15.954144444720422],[-16.51177708734291,15.954506591751434],[-16.512243466831283,15.954412940406588],[-16.512338234034328,15.954593030250116],[-16.511498885462267,15.95477967696745],[-16.511031150001337,15.954692581032052]]]}},{"type":"Feature","properties":{"fid":5971.0,"DN":7},"geometry":{"type":"Polygon","coordinates":[[[-16.5034553618137,15.953480301437278],[-16.503454014084227,15.953299555013885],[-16.503640836633277,15.953298251044778],[-16.5034553618137,15.953480301437278]]]}},{"type":"Feature","properties":{"fid":5973.0,"DN":7},"geometry":{"type":"Polygon","coordinates":[[[-16.50392174449615,15.953386667980254],[-16.50401380757027,15.953205269431347],[-16.504200629983785,15.953203964984358],[-16.504025268015177,15.95474161354729],[-16.50392174449615,15.953386667980254]]]}},{"type":"Feature","properties":{"fid":6106.0,"DN":7},"geometry":{"type":"Polygon","coordinates":[[[-16.503521146460464,15.949774347317478],[-16.503520472728944,15.949683974077882],[-16.503613882328356,15.949683322228465],[-16.503521146460464,15.949774347317478]]]}},{"type":"Feature","properties":{"fid":6484.0,"DN":7},"geometry":{"type":"Polygon","coordinates":[[[-16.392425278895576,15.9328061292007],[-16.392143190299166,15.932536804635916],[-16.39214132094254,15.932265671084352],[-16.391766450400564,15.932087326671432],[-16.391761467026353,15.931364303705417],[-16.391947655540765,15.93127272033071],[-16.391946409578118,15.93109196459423],[-16.39297200088071,15.93081419803904],[-16.392784566629008,15.930725026553352],[-16.39278269663525,15.930453893030547],[-16.393155694285486,15.930361102390945],[-16.39324660543051,15.929998987784806],[-16.39343403915069,15.93008815891214],[-16.393435286361935,15.930268914550652],[-16.39409037034693,15.930445445361073],[-16.394274684870897,15.930082726760187],[-16.3953015158754,15.929985705269155],[-16.39530338919237,15.93025683851198],[-16.395490823917783,15.930346007757779],[-16.395493946630683,15.930797896440266],[-16.395309633842913,15.931160615937348],[-16.3949385090384,15.931524543588559],[-16.393911669947514,15.931621563976012],[-16.393728601205428,15.932165037964722],[-16.393172529929547,15.932801303476017],[-16.392425278895576,15.9328061292007]]]}},{"type":"Feature","properties":{"fid":6726.0,"DN":7},"geometry":{"type":"Polygon","coordinates":[[[-16.407159752674666,15.915899548571211],[-16.407064467368492,15.915629025122682],[-16.407531456662486,15.915625980848986],[-16.407533344602477,15.915897113027878],[-16.407159752674666,15.915899548571211]]]}},{"type":"Feature","properties":{"fid":6729.0,"DN":7},"geometry":{"type":"Polygon","coordinates":[[[-16.407904418552757,15.915533167323265],[-16.40790378908466,15.915442789942507],[-16.407997186831704,15.9154421808124],[-16.407904418552757,15.915533167323265]]]}},{"type":"Feature","properties":{"fid":6733.0,"DN":7},"geometry":{"type":"Polygon","coordinates":[[[-16.39351871363177,15.928822265994848],[-16.393517466465134,15.928641510338583],[-16.39323725316978,15.928643320276883],[-16.393236006269742,15.928462564595899],[-16.392955793188932,15.928464374148888],[-16.39267246414497,15.928014294014124],[-16.392019257745755,15.928108891807007],[-16.391456964346812,15.92784137356914],[-16.391366050569854,15.928203487669288],[-16.39071533189092,15.928659593354356],[-16.38958888078856,15.92785341452604],[-16.389587637218,15.92767265855067],[-16.389775067345496,15.92776183317763],[-16.390052791887467,15.92739851594771],[-16.390333625942137,15.927487088244035],[-16.390334870164903,15.927667844165077],[-16.390615082454076,15.927666038103713],[-16.390987453976273,15.927482873585392],[-16.391268288457947,15.927571444621954],[-16.39145385127423,15.927389483984069],[-16.39145198347866,15.927118350223674],[-16.39088595966773,15.926308562518152],[-16.390882225903706,15.925766294804836],[-16.391067165220072,15.925493956624711],[-16.391906547221442,15.925307779380114],[-16.392090861923535,15.924945062539505],[-16.391810030922837,15.92485649229093],[-16.39162447058708,15.92503845306567],[-16.391250859213265,15.92504086242778],[-16.39106280884327,15.924861310957644],[-16.390595794913622,15.924864321311247],[-16.39013126854812,15.925228842612896],[-16.389851059581414,15.92523064777727],[-16.389663010161172,15.925051095004758],[-16.389657414957718,15.924237692905875],[-16.39003040326385,15.924144908419912],[-16.390027915958544,15.923783396410021],[-16.39039841532532,15.92332909939191],[-16.390585219505617,15.923327895655412],[-16.39058397541589,15.923147139681094],[-16.389182323514007,15.923065785616055],[-16.38917921651063,15.922613895393454],[-16.38898930639236,15.922163207582612],[-16.388801881959953,15.922074031787156],[-16.388799397192805,15.92171251951894],[-16.389076494911322,15.921258825808682],[-16.38926329728314,15.92125762336842],[-16.389258947772973,15.920624976967332],[-16.389910267387958,15.920259255184071],[-16.390372296303692,15.919533222974842],[-16.39195885651597,15.919342232697614],[-16.39232934396175,15.918887933177183],[-16.392980651896785,15.918522202957162],[-16.392977537335852,15.918070313276358],[-16.393724110463474,15.917975112071838],[-16.394742149667575,15.916612807716042],[-16.395580866860634,15.916336241388139],[-16.395671769401915,15.915974126155255],[-16.39548247670843,15.915613822310183],[-16.395760175518042,15.915250499487756],[-16.39632243718921,15.915518009154708],[-16.39632431008396,15.91578914264192],[-16.396975600248542,15.915423401637945],[-16.39725579476673,15.915421588309655],[-16.39725704418569,15.915602343897978],[-16.397630012275815,15.915509547753434],[-16.39763126203661,15.915690303311319],[-16.398564619294376,15.915593876793302],[-16.398750164920042,15.915411911088121],[-16.398938212037955,15.91559145616695],[-16.399405202877,15.91558842947551],[-16.399964339912167,15.915404040734538],[-16.400713402950828,15.915670327028552],[-16.40220777272629,15.915660625730068],[-16.402205891957568,15.915389492923632],[-16.403139871291856,15.91538342447169],[-16.403327921953526,15.915562965414892],[-16.40323766093271,15.916015460329543],[-16.40389144824318,15.916011209550481],[-16.403893331349725,15.916282342144845],[-16.404360950709563,15.916369682120092],[-16.404644914000034,15.916910124091647],[-16.404831711108148,15.916908908501313],[-16.404926366055186,15.917089055613868],[-16.405952493417722,15.916901611567356],[-16.40642074360942,15.91707932431413],[-16.407261330529174,15.917073845915166],[-16.407449386246547,15.917253382818016],[-16.40857016920117,15.917246072141626],[-16.408573948308472,15.917788336168138],[-16.408202242160975,15.918061905840062],[-16.406894027383775,15.917980055195008],[-16.406430806066137,15.918525363018652],[-16.40624400759301,15.918526580112697],[-16.40615249480058,15.918798320866717],[-16.405780154608664,15.91898150932243],[-16.40503295872366,15.918986374613027],[-16.4049383026513,15.918806227657074],[-16.404564704929633,15.918808659142528],[-16.404285762580297,15.918991237318908],[-16.40419613084349,15.919534109937473],[-16.403918442905837,15.919897442732564],[-16.403922838091685,15.92053008520716],[-16.40355112023121,15.920803647712143],[-16.40346336930233,15.921617652671372],[-16.403278450712886,15.921889999952757],[-16.403467135799936,15.922159917671818],[-16.403380639930127,15.923154677559507],[-16.40310482900079,15.92378914220295],[-16.40282525113026,15.923881341561101],[-16.402640957299422,15.924244065988583],[-16.40264660477092,15.925057463568756],[-16.402178965398925,15.924970121502254],[-16.40217771080263,15.924789366452115],[-16.40199090619782,15.92479058033052],[-16.40208242676327,15.924518840819585],[-16.401802220213693,15.924520661422802],[-16.401710699260388,15.924792400845124],[-16.401151538954526,15.92497679591327],[-16.401153419501334,15.925247928602122],[-16.40031592882156,15.925705273907317],[-16.399852672604684,15.9262505700781],[-16.398545655003403,15.926349428156172],[-16.398076137058386,15.925990944284639],[-16.397980857653796,15.925720416474409],[-16.39779405185186,15.925721626788851],[-16.39779092504245,15.925269738338987],[-16.39797647956418,15.925087772689697],[-16.397878699356983,15.924455733993648],[-16.397597241933294,15.92427679371796],[-16.397130855675666,15.924370195829555],[-16.396944675991968,15.924461783040268],[-16.39694655082982,15.92473291623103],[-16.39657419044833,15.924916090247219],[-16.39657544004233,15.925096845729579],[-16.396203078626662,15.925280019179667],[-16.396112174293375,15.925642134592639],[-16.395647032806476,15.925916289329052],[-16.395188756696296,15.92718459874575],[-16.395003197692166,15.927366562317188],[-16.394349995056043,15.927461166920951],[-16.39416693034399,15.92800464108972],[-16.394543042808262,15.92836373741497],[-16.394729851313095,15.92836252971992],[-16.3947317236618,15.928633663069713],[-16.394544914906387,15.92863487078639],[-16.394452758524594,15.928816230168344],[-16.39351871363177,15.928822265994848]],[[-16.40245603543964,15.924516412783019],[-16.40236263327659,15.924517019852761],[-16.40236326064414,15.924607397373318],[-16.40245603543964,15.924516412783019]],[[-16.394043588362294,15.923667108789553],[-16.393856160619954,15.923577937686575],[-16.393577824596264,15.92385088110839],[-16.393579694840795,15.924122014704777],[-16.393767123006945,15.92421118601308],[-16.39376837003167,15.924391941724146],[-16.394048577367084,15.924390131566126],[-16.394043588362294,15.923667108789553]],[[-16.393108320734633,15.92349238517365],[-16.392733466429775,15.923314041071055],[-16.392735335475013,15.923585174778644],[-16.392922762812447,15.923674346894398],[-16.393108320734633,15.92349238517365]],[[-16.3918947162381,15.92359059877996],[-16.391707911919234,15.923591803669197],[-16.39170853448307,15.923682181609724],[-16.3918947162381,15.92359059877996]],[[-16.38963192979035,15.920532193656523],[-16.38953852895634,15.920532795029711],[-16.389539150424188,15.920623173079354],[-16.38963192979035,15.920532193656523]]]}},{"type":"Feature","properties":{"fid":6785.0,"DN":7},"geometry":{"type":"Polygon","coordinates":[[[-16.41012579135244,15.912626463193657],[-16.409938368370725,15.912537305719358],[-16.409937107870064,15.912356551065734],[-16.40909654153202,15.912362038300193],[-16.408904081045083,15.911549860901278],[-16.409557852320635,15.911545594129306],[-16.409556592242783,15.9113648394294],[-16.40993080560979,15.911452777750842],[-16.40983614946331,15.911272632888997],[-16.410022940945314,15.91127141322765],[-16.410486136964707,15.910726099463318],[-16.41076632334577,15.91072426912866],[-16.41095185298996,15.910542294099084],[-16.411885806414755,15.910536189625564],[-16.41188833061187,15.910897698685936],[-16.411610667887967,15.911261039587217],[-16.411707849568142,15.911802692602002],[-16.411428292698496,15.911894901552401],[-16.411337420167662,15.91225702113536],[-16.410870439421693,15.912260073012023],[-16.410871700748547,15.91244082759434],[-16.410592773094812,15.912623412858855],[-16.41012579135244,15.912626463193657]]]}},{"type":"Feature","properties":{"fid":6868.0,"DN":7},"geometry":{"type":"Polygon","coordinates":[[[-16.411856782812063,15.906378834534888],[-16.41176212778846,15.90619869038226],[-16.41166179631311,15.905205150323754],[-16.41147311867803,15.904935238964503],[-16.411468073824178,15.904212220303076],[-16.411839120472838,15.903848269759177],[-16.412119297163972,15.90384643843969],[-16.412304819713558,15.903664462744572],[-16.413145980063074,15.903749343221348],[-16.41370949072249,15.904197563103065],[-16.41362241409534,15.905101946763567],[-16.413252631703124,15.90564665476685],[-16.413065845676126,15.905647876801137],[-16.412230356395085,15.906376392286404],[-16.411856782812063,15.906378834534888]]]}},{"type":"Feature","properties":{"fid":7176.0,"DN":7},"geometry":{"type":"Polygon","coordinates":[[[-16.425587909223665,15.893364156679098],[-16.424281128907644,15.893463152627419],[-16.424279857193806,15.893282398781105],[-16.424092447704904,15.89319325248637],[-16.42408545453263,15.892199106186437],[-16.424732799071375,15.891291029372761],[-16.42472771143346,15.890568013966368],[-16.424539032705297,15.89029811397338],[-16.42453013130692,15.889032836756463],[-16.425086624415123,15.888486882611424],[-16.425366778233776,15.888485035850373],[-16.425645023251896,15.888212057993002],[-16.426484846630757,15.888116137665106],[-16.42704961104636,15.888745078227517],[-16.427526091300603,15.890097648226126],[-16.427529277188565,15.89054953232795],[-16.42688449579185,15.891819123697832],[-16.426704729454435,15.89281450167491],[-16.42642520660278,15.892906727502028],[-16.426148230195924,15.893360460392017],[-16.42568256903436,15.893544294466391],[-16.425587909223665,15.893364156679098]]]}},{"type":"Feature","properties":{"fid":7550.0,"DN":7},"geometry":{"type":"Polygon","coordinates":[[[-16.360421129943667,15.840819457129527],[-16.360138613750994,15.840459695265013],[-16.359857913476425,15.8403710724912],[-16.359572979618957,15.839649790296237],[-16.359197102044323,15.839290612367616],[-16.35919105590518,15.838386813505101],[-16.359748216742087,15.837931401811868],[-16.35974700710208,15.837750642064448],[-16.360119252575867,15.837567540078034],[-16.360679435106096,15.837564025519034],[-16.360774009384805,15.837744199291844],[-16.360960737021834,15.837743027356401],[-16.360961947740773,15.837923787012494],[-16.36124325039956,15.838102788418848],[-16.361246883443922,15.838645067295973],[-16.36153000434685,15.839095207614736],[-16.36135235965318,15.84045207709766],[-16.360888561589075,15.8409069070014],[-16.360421129943667,15.840819457129527]]]}}]}