{"type":"FeatureCollection","name":"urbanisation-empreinte-2017.geojson","features":[{"type":"Feature","properties":{"fid":80.0,"DN":7},"geometry":{"type":"Polygon","coordinates":[[[-16.347198080362787,16.11141827344854],[-16.347196860077773,16.111237517345618],[-16.347570214630743,16.11114477969338],[-16.347478554266647,16.111416503778837],[-16.347198080362787,16.11141827344854]]]}},{"type":"Feature","properties":{"fid":81.0,"DN":7},"geometry":{"type":"Polygon","coordinates":[[[-16.345714409116272,16.113235267439748],[-16.345244510679514,16.112876700708256],[-16.344964034465132,16.112878467599803],[-16.34468051293417,16.112428343453097],[-16.34449352917174,16.11242952089604],[-16.34449231125547,16.112248764608594],[-16.344305327646786,16.112249941874012],[-16.344488657599694,16.11170649572741],[-16.344674422661623,16.11152456205397],[-16.344862014656716,16.11161376265343],[-16.345140661453105,16.11134086165011],[-16.34532825344397,16.111430061838625],[-16.345232325056877,16.111069138327288],[-16.345792662809107,16.110975225750703],[-16.34588737303799,16.111155392737786],[-16.346074355499308,16.111154214165083],[-16.34589103036221,16.111697661334265],[-16.346079232639624,16.11187723889842],[-16.346266215762398,16.111876060106407],[-16.34636092689573,16.11205622680364],[-16.347108859877462,16.112051509616464],[-16.34710763962269,16.111870753517582],[-16.347388724425258,16.111959361957727],[-16.347854350762592,16.111685277721907],[-16.347755976182828,16.110962843582328],[-16.347942958319557,16.110961663387435],[-16.347856792610592,16.11204678981133],[-16.34822953761362,16.111863672911774],[-16.348324861125782,16.112134216606655],[-16.3481384885226,16.112225775228545],[-16.34813970973935,16.11240653124448],[-16.348326693198956,16.112405350610825],[-16.34832791460051,16.11258610660967],[-16.34795577895094,16.112859601775444],[-16.34767469265616,16.1127709942049],[-16.347671030228693,16.112228726061975],[-16.347301945437263,16.112954110288168],[-16.34683631542291,16.11322819357032],[-16.345714409116272,16.113235267439748]],[[-16.34776330103255,16.11204737993014],[-16.347763911461957,16.112137757954013],[-16.347856792610592,16.11204678981133],[-16.34776330103255,16.11204737993014]],[[-16.34579692935044,16.111607872479212],[-16.345609946442732,16.111609050841295],[-16.345704656860637,16.111789217888735],[-16.345891639929828,16.11178803943093],[-16.34579692935044,16.111607872479212]]]}},{"type":"Feature","properties":{"fid":82.0,"DN":7},"geometry":{"type":"Polygon","coordinates":[[[-16.345138833835552,16.111069727262482],[-16.34513822463746,16.1109793491317],[-16.345231715816475,16.11097876019998],[-16.345138833835552,16.111069727262482]]]}},{"type":"Feature","properties":{"fid":84.0,"DN":7},"geometry":{"type":"Polygon","coordinates":[[[-16.34831692254637,16.110959302506817],[-16.348316311913628,16.110868924493634],[-16.3484098029183,16.11086833417471],[-16.34831692254637,16.110959302506817]]]}},{"type":"Feature","properties":{"fid":85.0,"DN":7},"geometry":{"type":"Polygon","coordinates":[[[-16.348035838876275,16.110870695204994],[-16.348035228374354,16.110780317180566],[-16.34822221031852,16.1107791367542],[-16.348035838876275,16.110870695204994]]]}},{"type":"Feature","properties":{"fid":305.0,"DN":7},"geometry":{"type":"Polygon","coordinates":[[[-16.370550121286538,16.094639525634694],[-16.37026967363878,16.09464132378035],[-16.370268433821945,16.094460569130444],[-16.37008084905475,16.094371390342538],[-16.370168133103945,16.093467017753813],[-16.369981169076492,16.093468216139488],[-16.369978070454582,16.093016329404577],[-16.370350138015773,16.092742800532758],[-16.37034889828032,16.09256204585691],[-16.370161315336457,16.09247286698897],[-16.370441759953618,16.09247106922095],[-16.370719724451476,16.09210776177767],[-16.372589350706303,16.092095765094207],[-16.373433166989827,16.092451870151773],[-16.373717339548623,16.092992331351027],[-16.37344124362857,16.093626773977313],[-16.37269649274214,16.09408346422887],[-16.372511391062908,16.094355796598222],[-16.372138082444813,16.09444857468874],[-16.371859497138587,16.094721506689773],[-16.371112877371274,16.09490706011353],[-16.3710206352554,16.095088414377408],[-16.370550121286538,16.094639525634694]]]}},{"type":"Feature","properties":{"fid":370.0,"DN":7},"geometry":{"type":"Polygon","coordinates":[[[-16.37086452965061,16.08596090317326],[-16.370863909823726,16.085870525798036],[-16.37095738825138,16.085869926514782],[-16.37086452965061,16.08596090317326]]]}},{"type":"Feature","properties":{"fid":371.0,"DN":7},"geometry":{"type":"Polygon","coordinates":[[[-16.367913425888048,16.09185459385727],[-16.367818707167245,16.091674437143684],[-16.367631744632643,16.091675633345208],[-16.367630507442502,16.091494878445218],[-16.36716124633762,16.091226735789913],[-16.366969956281977,16.090595289019785],[-16.367247306775436,16.090141608267587],[-16.367335221854507,16.08932761312035],[-16.367890535441774,16.088510628149294],[-16.368257648447926,16.08751408356869],[-16.368722569233963,16.087149582364507],[-16.36881357257124,16.08678747419453],[-16.369092152201933,16.08651454650247],[-16.369651167039862,16.086239822444814],[-16.36955644989701,16.086059666324847],[-16.369835027500443,16.085786737803797],[-16.370021984354228,16.08578554010189],[-16.370491235393455,16.086053677300715],[-16.37058657305749,16.086324210324207],[-16.370773530354896,16.08632301192644],[-16.37086576931624,16.086141657921353],[-16.37105334634421,16.086230836658522],[-16.37077476996766,16.086503766675328],[-16.370595869271316,16.087679870970568],[-16.370883746243788,16.0887626014154],[-16.370707324980902,16.090300215051048],[-16.37080204544665,16.090480370355554],[-16.369779954133488,16.091390735055494],[-16.369125586660477,16.09139492697651],[-16.36875413871166,16.091758831091457],[-16.368755376939482,16.091939585901844],[-16.367913425888048,16.09185459385727]]]}},{"type":"Feature","properties":{"fid":373.0,"DN":7},"geometry":{"type":"Polygon","coordinates":[[[-16.370770431392117,16.085871125040455],[-16.370769811611414,16.0857807476609],[-16.370863290000788,16.085780148422025],[-16.370770431392117,16.085871125040455]]]}},{"type":"Feature","properties":{"fid":376.0,"DN":7},"geometry":{"type":"Polygon","coordinates":[[[-16.37114310519952,16.08568797309423],[-16.371141865320006,16.08550721835955],[-16.37132944183204,16.085596396896207],[-16.37114310519952,16.08568797309423]]]}},{"type":"Feature","properties":{"fid":383.0,"DN":7},"geometry":{"type":"Polygon","coordinates":[[[-16.35930021468404,16.090011521253736],[-16.359205504427685,16.089831360026505],[-16.358925062196935,16.08983314277154],[-16.358923218452357,16.0895620093876],[-16.358736257199077,16.08956319765898],[-16.358828508768696,16.08938184794346],[-16.358641547676562,16.089383036119102],[-16.358545609560593,16.08902211889358],[-16.358264554133715,16.088933522860525],[-16.358266396908927,16.089204656334726],[-16.357985955447848,16.089206437780664],[-16.35798472718059,16.08902568211092],[-16.358169231164087,16.08866298321434],[-16.358356191619478,16.088661795503324],[-16.35853762291016,16.087847207237516],[-16.359280544234885,16.087119431960467],[-16.359467503160122,16.087118243388712],[-16.3595591383378,16.08684651566072],[-16.35983896142581,16.086754354621274],[-16.359837731680447,16.086573599049633],[-16.360117554238105,16.086481437682483],[-16.36020857326796,16.086119331974484],[-16.360674122362497,16.08584522511014],[-16.36076452492724,16.08539274148289],[-16.362349348972877,16.084749979513127],[-16.36235366058334,16.085382623445106],[-16.361982209601415,16.085746516078885],[-16.361895504506588,16.08674126626659],[-16.36162122391275,16.087646829348827],[-16.361719013952946,16.08827887796984],[-16.361905973772497,16.088277687182973],[-16.362097861358105,16.088999517705556],[-16.361821731760656,16.089633947975532],[-16.361450272467728,16.08999784022785],[-16.360984099835328,16.0901815716295],[-16.35930021468404,16.090011521253736]]]}},{"type":"Feature","properties":{"fid":385.0,"DN":7},"geometry":{"type":"Polygon","coordinates":[[[-16.36253692146011,16.084839166129093],[-16.362536305443076,16.084748788429216],[-16.362629783672283,16.08474819282601],[-16.36253692146011,16.084839166129093]]]}},{"type":"Feature","properties":{"fid":483.0,"DN":7},"geometry":{"type":"Polygon","coordinates":[[[-16.369149111420356,16.08118167800453],[-16.369148492562797,16.081091300523912],[-16.369241968823538,16.08109070216327],[-16.369149111420356,16.08118167800453]]]}},{"type":"Feature","properties":{"fid":504.0,"DN":7},"geometry":{"type":"Polygon","coordinates":[[[-16.369336064022324,16.081180481235343],[-16.368960302495083,16.080911742144988],[-16.368862495356318,16.080279697904462],[-16.369048828361713,16.080188123958962],[-16.369139828971264,16.079826015712786],[-16.36951435059756,16.079913999700956],[-16.36951558855176,16.080094754653516],[-16.36970315917639,16.080183935110743],[-16.36970563548568,16.080545444974963],[-16.369893206620862,16.080634625222494],[-16.36989568334684,16.08099613504268],[-16.36970996917891,16.0811780872071],[-16.369336064022324,16.081180481235343]],[[-16.369420874897482,16.079914598138046],[-16.36932739919346,16.07991519653431],[-16.369328018084158,16.080005574018063],[-16.369420874897482,16.079914598138046]]]}},{"type":"Feature","properties":{"fid":517.0,"DN":7},"geometry":{"type":"Polygon","coordinates":[[[-16.369229591656598,16.079283152456732],[-16.36922897283968,16.079192774963158],[-16.369322448209928,16.079192176636024],[-16.369229591656598,16.079283152456732]]]}},{"type":"Feature","properties":{"fid":589.0,"DN":7},"geometry":{"type":"Polygon","coordinates":[[[-16.367550741982978,16.079836180756207],[-16.367548269683763,16.079474670541355],[-16.367920317242003,16.079201147257315],[-16.36791908080198,16.079020392168747],[-16.368198270135732,16.078837843729914],[-16.368572789596865,16.07892582955049],[-16.36875850295917,16.07874387841845],[-16.36875169877209,16.077749725699437],[-16.368468800979628,16.07739000950822],[-16.368648947018844,16.07639466072018],[-16.369484644432294,16.075575879896977],[-16.37060632821285,16.07556869750809],[-16.37201277169801,16.076192353173084],[-16.372298154009197,16.07691357394546],[-16.37230125460424,16.077365460919008],[-16.370901616209334,16.077735959845825],[-16.370251009099874,16.07828241653032],[-16.369409734779833,16.078287803359913],[-16.369319353973466,16.078740289174064],[-16.369507542131597,16.078919847405725],[-16.36988144303501,16.078917453404987],[-16.369883300348558,16.07918858581608],[-16.369322448209928,16.079192176636024],[-16.36875974013537,16.078924633448057],[-16.367831169181354,16.079834387782192],[-16.367550741982978,16.079836180756207]]]}},{"type":"Feature","properties":{"fid":595.0,"DN":7},"geometry":{"type":"Polygon","coordinates":[[[-16.380720797789657,16.078305480940593],[-16.380532601005896,16.078125933305305],[-16.380433512205812,16.077313142774045],[-16.380612350129606,16.076137034370596],[-16.381356393014208,16.07558994535641],[-16.382010705393228,16.07558572004205],[-16.38210542755227,16.075765870328656],[-16.38229237407128,16.075764662632828],[-16.382383973484018,16.075492927655432],[-16.38312988353824,16.075216964009645],[-16.383412802691083,16.075576659064048],[-16.383414677936496,16.07584779001199],[-16.38322898144343,16.07602975266999],[-16.38248181925333,16.076124962839497],[-16.38248369330438,16.07639609388054],[-16.382951685872154,16.076483450387936],[-16.383136758045417,16.076211110936775],[-16.383323704898807,16.076209902307454],[-16.38332495502983,16.07639065626968],[-16.38388579600077,16.076387029359424],[-16.384168092798358,16.076656346194255],[-16.38351502785545,16.076841332318885],[-16.383145508115653,16.077476388706494],[-16.382772236863623,16.077569182667602],[-16.382677513138166,16.07738903281959],[-16.382490565131654,16.077390240970526],[-16.381931594475134,16.07766499551624],[-16.38146859370208,16.078300653274987],[-16.380720797789657,16.078305480940593]]]}},{"type":"Feature","properties":{"fid":635.0,"DN":7},"geometry":{"type":"Polygon","coordinates":[[[-16.43855214320588,16.073947730344546],[-16.43873518354179,16.07340422444935],[-16.43948164177213,16.07321844590172],[-16.43948424302153,16.073579945143646],[-16.43902014395175,16.074034962692686],[-16.43855214320588,16.073947730344546]]]}},{"type":"Feature","properties":{"fid":673.0,"DN":7},"geometry":{"type":"Polygon","coordinates":[[[-16.433966271212377,16.073165097376485],[-16.433963032210716,16.072713222206875],[-16.434148675953878,16.07253121938239],[-16.43442908489525,16.07252933994974],[-16.434523850612127,16.072709463419468],[-16.434433620945306,16.073161965062948],[-16.433966271212377,16.073165097376485]]]}},{"type":"Feature","properties":{"fid":686.0,"DN":7},"geometry":{"type":"Polygon","coordinates":[[[-16.416947629693972,16.07228428658234],[-16.416946349528388,16.07210353515834],[-16.41703981968228,16.072102916249815],[-16.416947629693972,16.07228428658234]]]}},{"type":"Feature","properties":{"fid":690.0,"DN":7},"geometry":{"type":"Polygon","coordinates":[[[-16.415824707363353,16.07211095887865],[-16.415824067792947,16.072020583121535],[-16.41591753795362,16.0720199647062],[-16.415824707363353,16.07211095887865]]]}},{"type":"Feature","properties":{"fid":707.0,"DN":7},"geometry":{"type":"Polygon","coordinates":[[[-16.35721625876258,16.07221954175262],[-16.357306052521988,16.07167668089298],[-16.357587082736394,16.071765280221168],[-16.35759076234111,16.07230754818402],[-16.357403203921052,16.072218356053995],[-16.357404430310652,16.072399112050935],[-16.35721625876258,16.07221954175262]]]}},{"type":"Feature","properties":{"fid":718.0,"DN":7},"geometry":{"type":"Polygon","coordinates":[[[-16.44079217063663,16.073480763380726],[-16.440509808824757,16.07321152694842],[-16.44031896537007,16.072670536621562],[-16.439758148509,16.072674310584468],[-16.439756197310455,16.07240318616407],[-16.439847064962375,16.072041058060062],[-16.440218339371153,16.071677043012627],[-16.440592215355892,16.071674526548467],[-16.440776550059965,16.07131176897201],[-16.441336060737278,16.071127243142087],[-16.441614513305254,16.070854230216604],[-16.44170537706445,16.070492101604454],[-16.442172718960858,16.070488952901236],[-16.442267490226193,16.07066907248455],[-16.442454427116093,16.07066781262126],[-16.442457033300467,16.071029311474646],[-16.442833514631143,16.07138828998005],[-16.443020452146104,16.071387029567614],[-16.443115876515034,16.071657523344214],[-16.44330281425816,16.07165626266465],[-16.443304118192813,16.071837012008455],[-16.442930894157254,16.07192990791989],[-16.442654397263606,16.072474046586553],[-16.441446459298398,16.073476356905392],[-16.44079217063663,16.073480763380726]]]}},{"type":"Feature","properties":{"fid":756.0,"DN":7},"geometry":{"type":"Polygon","coordinates":[[[-16.411970741236996,16.06906349765539],[-16.412157041317453,16.068971888443553],[-16.41225306154265,16.069332775429604],[-16.412066761191344,16.06942438474542],[-16.411970741236996,16.06906349765539]]]}},{"type":"Feature","properties":{"fid":811.0,"DN":7},"geometry":{"type":"Polygon","coordinates":[[[-16.415501463010468,16.066057635689262],[-16.415500823839874,16.06596725986847],[-16.41559429118674,16.065966641820665],[-16.415501463010468,16.066057635689262]]]}},{"type":"Feature","properties":{"fid":839.0,"DN":7},"geometry":{"type":"Polygon","coordinates":[[[-16.388428355643384,16.0709347461916],[-16.38842584707268,16.070573238863524],[-16.38814292729323,16.070213550428274],[-16.388140419356755,16.06985204303199],[-16.38832673281329,16.069760453654027],[-16.38832547870831,16.069579699963953],[-16.388044441389496,16.06949114181464],[-16.387947210108166,16.06894948678545],[-16.388227619633206,16.068947668275495],[-16.388135403675776,16.069129028201694],[-16.38841581342991,16.069127209425485],[-16.388600871798896,16.068854866183575],[-16.388597109012704,16.068312605121378],[-16.388783420852146,16.068221015462147],[-16.388778403385075,16.0674980007197],[-16.389053792554268,16.06677316657424],[-16.388958442123716,16.06650264252723],[-16.389141615765105,16.065959168469085],[-16.389421393566007,16.065866971889367],[-16.389605820389676,16.06550425121184],[-16.39026009750226,16.065500003267363],[-16.39091751471516,16.065947637217956],[-16.391854083283377,16.06621269244398],[-16.39241489369624,16.06620904542626],[-16.39297255896903,16.06575351345481],[-16.3931569790097,16.06539079022879],[-16.3933439149586,16.06538957364231],[-16.393900946412714,16.064843662892777],[-16.39446175250039,16.064840010816425],[-16.39465057697293,16.0651099230542],[-16.394837512540295,16.06510870518447],[-16.394192051506828,16.06637824014664],[-16.393539660449857,16.06665363034453],[-16.39326177142845,16.067016962274444],[-16.39326554653155,16.067559222324043],[-16.393453113779017,16.067648382148118],[-16.393455630948175,16.06800988880017],[-16.392800088521337,16.067833393780788],[-16.3923340003854,16.068017187614604],[-16.39084854249192,16.069472938325987],[-16.39029463003574,16.070470726396117],[-16.389923259399353,16.070834661929545],[-16.389736318092314,16.070835875929546],[-16.389644102831017,16.071017236435896],[-16.389082650835554,16.07093050045028],[-16.388803493281202,16.071113073929077],[-16.388428355643384,16.0709347461916]],[[-16.394183237984198,16.06511296701493],[-16.394183867495425,16.0652033436723],[-16.394464900668968,16.065291894053157],[-16.39465057697293,16.0651099230542],[-16.394183237984198,16.06511296701493]],[[-16.389257042476277,16.069121750894283],[-16.389163572598243,16.0691223575609],[-16.389164827422505,16.06930311119422],[-16.389257042476277,16.069121750894283]],[[-16.388976005508404,16.06903319394676],[-16.388882535660546,16.069033800487425],[-16.388883790223712,16.06921455414385],[-16.388976005508404,16.06903319394676]],[[-16.38878592968171,16.06858252281452],[-16.388692460036754,16.06858312925566],[-16.388693087211966,16.068673506095376],[-16.38878592968171,16.06858252281452]],[[-16.39317081924351,16.067379077329395],[-16.393077350335226,16.067379685640685],[-16.392985768624982,16.067651423962506],[-16.393172706698635,16.067650207359105],[-16.39317081924351,16.067379077329395]],[[-16.39408914070937,16.06502319902298],[-16.393995672937724,16.065023807648412],[-16.393996302360588,16.065114184313778],[-16.39408914070937,16.06502319902298]]]}},{"type":"Feature","properties":{"fid":893.0,"DN":7},"geometry":{"type":"Polygon","coordinates":[[[-16.41566666540453,16.06298362144603],[-16.415666026288253,16.062893245605807],[-16.415759492193313,16.062892627600874],[-16.41566666540453,16.06298362144603]]]}},{"type":"Feature","properties":{"fid":900.0,"DN":7},"geometry":{"type":"Polygon","coordinates":[[[-16.41566410896389,16.06262211808043],[-16.415663469863933,16.06253174223707],[-16.415756935600346,16.06253112424677],[-16.41566410896389,16.06262211808043]]]}},{"type":"Feature","properties":{"fid":932.0,"DN":7},"geometry":{"type":"Polygon","coordinates":[[[-16.395363672067734,16.06013433580891],[-16.39536304223341,16.06004395915441],[-16.39545650762587,16.060043350115706],[-16.395363672067734,16.06013433580891]]]}},{"type":"Feature","properties":{"fid":958.0,"DN":7},"geometry":{"type":"Polygon","coordinates":[[[-16.409397438681946,16.06203079817101],[-16.409578007062017,16.06112580675899],[-16.40939107639706,16.061127037200734],[-16.409201601252835,16.060766763040146],[-16.40919524037943,16.059863001886963],[-16.409752210986603,16.059317054269282],[-16.40984249382381,16.05886455847648],[-16.41040200619254,16.05868011382322],[-16.411057528891757,16.05885655622555],[-16.411247005134086,16.059216828683155],[-16.410875058031685,16.059490420206217],[-16.41078477740463,16.0599429162449],[-16.410598484646744,16.060034523715142],[-16.410602304964684,16.06057678007907],[-16.41041664819815,16.060758763503504],[-16.41070213793665,16.061479924877712],[-16.410611856399512,16.061932420865077],[-16.41042428835862,16.061843276215093],[-16.41014643779722,16.062206627260483],[-16.409397438681946,16.06203079817101]]]}},{"type":"Feature","properties":{"fid":996.0,"DN":7},"geometry":{"type":"Polygon","coordinates":[[[-16.39509587074095,16.06194369583272],[-16.39527965399399,16.061490594587823],[-16.395277134608257,16.061129087997806],[-16.39509020279149,16.061130305957956],[-16.395087054071336,16.060678422666697],[-16.39443405294738,16.060863437486216],[-16.394432794061565,16.060682684116887],[-16.394059560382733,16.060775495033916],[-16.39396483613655,16.06059535008306],[-16.393496878536723,16.060508014993292],[-16.393119242790494,16.059968187112542],[-16.393209563993636,16.059515695353088],[-16.3934887017551,16.059333117527228],[-16.394331146511703,16.059508395708328],[-16.394329258496228,16.059237265606992],[-16.394797213287696,16.05932459909323],[-16.395080756932433,16.05977465602527],[-16.395178000698536,16.06031630709232],[-16.395364931748446,16.06031508911556],[-16.395644068359523,16.060132508559683],[-16.39545587775341,16.059952973464025],[-16.39544831959741,16.05886845358258],[-16.3957268242788,16.05859549640699],[-16.395632099791964,16.05841535219541],[-16.395908083653346,16.057780888233975],[-16.395812099596643,16.057419990754028],[-16.39683957463727,16.05732291137528],[-16.39702839418967,16.057592822006296],[-16.39730878672358,16.05759099285919],[-16.397774215092177,16.05731681371525],[-16.397964297644364,16.057767476571264],[-16.397969345068976,16.058490489133753],[-16.397598640704068,16.05894481209904],[-16.39760242555082,16.05948707155105],[-16.3977931411303,16.06002811089996],[-16.397515899302235,16.06048182380061],[-16.397049832918768,16.060665626331208],[-16.397051724794682,16.06093675608098],[-16.396866054401467,16.061118728752824],[-16.396586287305976,16.06121093430914],[-16.39649156064085,16.0610307906796],[-16.395930765708844,16.06103444722895],[-16.39584108046906,16.06157731626632],[-16.395654148278943,16.061578534751735],[-16.39575013468532,16.061939432031572],[-16.39509587074095,16.06194369583272]],[[-16.395644698324336,16.060222885202577],[-16.395737533782082,16.06013189939508],[-16.395644068359523,16.060132508559683],[-16.395644698324336,16.060222885202577]],[[-16.394338069544386,16.06050253935274],[-16.39424460389293,16.060503147920304],[-16.39424523324148,16.06059352461414],[-16.394338069544386,16.06050253935274]],[[-16.396018560159057,16.06022044828515],[-16.39583099920062,16.060131290189716],[-16.395832259302882,16.06031204346029],[-16.396018560159057,16.06022044828515]],[[-16.394987921304008,16.05986564156139],[-16.394894455975763,16.059866250389067],[-16.394895085591276,16.059956627063176],[-16.394987921304008,16.05986564156139]]]}},{"type":"Feature","properties":{"fid":1263.0,"DN":7},"geometry":{"type":"Polygon","coordinates":[[[-16.421901078443778,16.045860503349452],[-16.421525965503065,16.045682231778265],[-16.421524683442048,16.04550148026607],[-16.42199004747631,16.045227253096343],[-16.422457334469023,16.045224152182765],[-16.422739631318567,16.0454934182768],[-16.422368366930804,16.04585740251083],[-16.421901078443778,16.045860503349452]]]}},{"type":"Feature","properties":{"fid":1427.0,"DN":7},"geometry":{"type":"Polygon","coordinates":[[[-16.41774546841829,16.039742183778035],[-16.417650735322475,16.039562049865822],[-16.41793046098299,16.039469819803507],[-16.417932378459394,16.039740947646834],[-16.41774546841829,16.039742183778035]]]}},{"type":"Feature","properties":{"fid":1697.0,"DN":7},"geometry":{"type":"MultiPolygon","coordinates":[[[[-16.41778886169138,16.072278714871103],[-16.418067991105545,16.072096105563656],[-16.417227400185126,16.07219205401179],[-16.417226119774575,16.07201130260819],[-16.416852239335935,16.072013778309216],[-16.416850959279227,16.071833026873172],[-16.41591753795362,16.0720199647062],[-16.415440596574165,16.07066741970424],[-16.415906665163757,16.070483576777097],[-16.41599885544457,16.070302206854496],[-16.41626902877915,16.068854339282826],[-16.41579657012458,16.06813442482136],[-16.415048184149818,16.06804899359583],[-16.415134622703658,16.067054241625133],[-16.41532091930696,16.066962629907735],[-16.415594930399504,16.066057017637807],[-16.415970078690002,16.066235296626854],[-16.41615573464807,16.066053308472743],[-16.416716538749764,16.06604959783967],[-16.416902193815442,16.065867609103183],[-16.416806807321635,16.065597100402474],[-16.417274782841652,16.06568438272891],[-16.417366969993203,16.065503012415103],[-16.417554544175854,16.065592150428436],[-16.418579479255502,16.065133461425805],[-16.418762569343766,16.064589968449567],[-16.418757444808794,16.06386696278611],[-16.41847384401284,16.063416942093262],[-16.418371413313515,16.062152301009956],[-16.418276667344063,16.06197216863683],[-16.417620489787556,16.061705373945813],[-16.41687468631653,16.06198145039209],[-16.415566169862256,16.06199010508793],[-16.415094370719785,16.061360563002033],[-16.414907440281926,16.061361798276],[-16.414812059078738,16.06109128818759],[-16.414902969428216,16.06072916707401],[-16.415183364193606,16.060727314178724],[-16.415458008698955,16.05991207808348],[-16.416297271444545,16.059635388865797],[-16.41638945720228,16.059454019026415],[-16.417229356146155,16.059267702213265],[-16.4185327319352,16.05853603269004],[-16.418809281152427,16.057991920752396],[-16.41898852348664,16.056906173254607],[-16.41972917973401,16.055907085177434],[-16.420089573247353,16.054006716464517],[-16.42073739409498,16.053098621194014],[-16.42064072826855,16.052647362356122],[-16.42035778230231,16.052287718509827],[-16.42053573205002,16.05102121874608],[-16.420904444977225,16.050295733860462],[-16.421090723571133,16.050204118449205],[-16.421180336984037,16.049661244154724],[-16.42192544742709,16.04929478086566],[-16.421733398673073,16.04857301543796],[-16.421822368706888,16.047939765269653],[-16.422289020585612,16.047846288505323],[-16.4221929962879,16.04748540594544],[-16.422006079372935,16.047486646372484],[-16.422094407010167,16.04676302041381],[-16.422466956458155,16.046579787931698],[-16.42255848987817,16.046308040447062],[-16.42340025262551,16.046392831149323],[-16.423491784681552,16.0461210833704],[-16.423865615706053,16.046118599967595],[-16.423866899929955,16.046299351284937],[-16.424145988931375,16.046116736987884],[-16.42423623533474,16.0456642376797],[-16.424046109478024,16.04521360146158],[-16.423578180895166,16.045126330157782],[-16.424045467329012,16.04512322580123],[-16.42432005884665,16.04430798181952],[-16.424506330290416,16.04421636396398],[-16.424410946648756,16.043945858118363],[-16.42459657538166,16.043763864561328],[-16.425718054530005,16.04375640768307],[-16.426276864613154,16.043481550289247],[-16.427491154098643,16.04338308681671],[-16.4275833230915,16.043201713313785],[-16.428051248094828,16.043288976107963],[-16.42823622874209,16.043016604190576],[-16.428609409088807,16.04292373748356],[-16.42879052361525,16.04210911218632],[-16.429911991450314,16.04210163411843],[-16.429908768182425,16.041649756836954],[-16.430372821002248,16.041194762128708],[-16.430561666137972,16.041464641186295],[-16.430744061742647,16.040830765748254],[-16.43121198189776,16.040918021996298],[-16.43121069150665,16.040737271169153],[-16.432424959630044,16.040638781258235],[-16.432703386577817,16.040365781633856],[-16.433450377900684,16.040270408461016],[-16.433635994629483,16.040088407954748],[-16.43419672177841,16.040084657440367],[-16.43428823665245,16.039812906315632],[-16.43456730645716,16.039630279840758],[-16.435036518454535,16.039898278383465],[-16.435029403023286,16.038904150370602],[-16.435217604717117,16.039083649777208],[-16.43522148635412,16.039625901378443],[-16.435508320093504,16.040527776778543],[-16.435788684070065,16.040525899206433],[-16.43587631329718,16.03971189615967],[-16.43597106215859,16.039892020680092],[-16.43615732346665,16.039800393425494],[-16.43596912027411,16.039620894979137],[-16.436152144550356,16.039077391593647],[-16.43587113542413,16.038988894232464],[-16.435775092820155,16.038628019110856],[-16.435960705871363,16.038446016859904],[-16.43661488150417,16.03844163446124],[-16.436525960367877,16.03907488718049],[-16.436899128436576,16.038982006913248],[-16.436993877775574,16.039162130946515],[-16.437367693612522,16.039159625053134],[-16.437272296106503,16.038889126023655],[-16.43745920375589,16.038887872936435],[-16.438114676853797,16.03906423615881],[-16.437652591727126,16.03979037138989],[-16.437656480128876,16.04033262237425],[-16.437844037257683,16.04042174399637],[-16.43840281905824,16.04014685700472],[-16.438586485378462,16.03969372719615],[-16.438491085957704,16.03942322887722],[-16.438677345505603,16.039331599558015],[-16.43904597219223,16.038606089762272],[-16.439134236553627,16.037882461514364],[-16.43978321808151,16.037155068780272],[-16.439966879026887,16.03670193814536],[-16.440055788769566,16.036068684836515],[-16.439866937295808,16.035798814640664],[-16.439854609280278,16.03408168737525],[-16.440222574598703,16.033265801230005],[-16.440310185062586,16.0324517975667],[-16.44058923903484,16.03226916441436],[-16.440587291881965,16.0319980390729],[-16.440865695814363,16.031725030518928],[-16.441238847828853,16.03163214391707],[-16.441800848619067,16.031809125591487],[-16.442525608357943,16.03171655811722],[-16.442337045240926,16.032575804900485],[-16.44067220781705,16.038326100910346],[-16.439522948601546,16.043570754457928],[-16.440144481626625,16.0454049920262],[-16.439654722668905,16.04529008057949],[-16.4389920902623,16.044119598144732],[-16.438244440562706,16.044124616451995],[-16.43805947338003,16.044396995959538],[-16.437500679686828,16.04467188295581],[-16.43740916764394,16.04494363515932],[-16.436664105692113,16.04531014883989],[-16.436386973772734,16.045763903943875],[-16.43639992936502,16.047571407117044],[-16.43621366127166,16.04766303509791],[-16.43593846841469,16.04838791536151],[-16.435953365403908,16.050466543885822],[-16.435767742160017,16.050648546840737],[-16.435771628235045,16.05119079772679],[-16.435399084753577,16.05137405298198],[-16.435404265136608,16.052097054225484],[-16.435591832906095,16.05218617690901],[-16.435594423550395,16.05254767747906],[-16.435409445784227,16.052820055418653],[-16.435035604148993,16.052822559970387],[-16.4352238200096,16.05300205808127],[-16.435232238138344,16.05417693498878],[-16.43495444482576,16.05454031399086],[-16.435050496108488,16.05490118846157],[-16.434863573327934,16.054902440663597],[-16.434587073080596,16.055446569614592],[-16.434400149753078,16.05544782145364],[-16.433657631743987,16.056175828703786],[-16.433285077129486,16.056359081110248],[-16.43235045553466,16.056365333341088],[-16.432351748279075,16.056546083814748],[-16.43272753695693,16.056814709041976],[-16.434409859025862,16.05680344882485],[-16.434322869667344,16.0577078262584],[-16.434137238677668,16.057889828347594],[-16.434232643355692,16.05816032791753],[-16.43404830633656,16.05852308026752],[-16.433490762474577,16.058978710446357],[-16.433116262207545,16.058890837397872],[-16.433114968574216,16.058710087024373],[-16.432928688810556,16.05880171302069],[-16.432926748632024,16.05853058743467],[-16.432646359113004,16.058532463309433],[-16.43274176221578,16.058802963666842],[-16.432369848433712,16.059076590115644],[-16.432465898045148,16.059437465799842],[-16.43218744649051,16.059710466825592],[-16.432000518986726,16.05971171689365],[-16.431905762616932,16.059531591410927],[-16.431720127700117,16.05971359169004],[-16.43153255401577,16.059624466108286],[-16.43135079509412,16.06034871757318],[-16.431163866925978,16.060349966959347],[-16.43070106707053,16.060985716579392],[-16.430142217291976,16.06126058854734],[-16.429768359038743,16.061263085184855],[-16.429583365884582,16.06153545917377],[-16.429588528724896,16.062258461578462],[-16.43043488008906,16.0629758456829],[-16.430808741430955,16.06297334762295],[-16.43090091477495,16.062791972525687],[-16.431553878790538,16.06260684868589],[-16.432204901778036,16.062150597368454],[-16.43248529641729,16.062148721660787],[-16.43257682115798,16.061876970800245],[-16.432857215368294,16.06187509463671],[-16.43295197385048,16.062055219500575],[-16.433325186012997,16.06196234203437],[-16.433327127167974,16.062233467486234],[-16.43351470406109,16.062322591211053],[-16.433621113566605,16.064129468031172],[-16.43297461721257,16.06521834982268],[-16.432508579366154,16.06540222775904],[-16.431951660436674,16.065948230657572],[-16.431767959692916,16.066401356882558],[-16.431957479955184,16.066761607180155],[-16.431870479006243,16.06766598405497],[-16.431965239832994,16.067846109111102],[-16.432152174934377,16.0678448584583],[-16.432154115249702,16.06811598390112],[-16.43243645898246,16.068385232985147],[-16.432532514636854,16.068746107963726],[-16.432076170421706,16.07028561263532],[-16.431890526543555,16.070467613682126],[-16.43030155665135,16.070478238775017],[-16.429742680847806,16.070753111656195],[-16.427781120704616,16.07094696618247],[-16.42768894129851,16.071128340335285],[-16.427500713163166,16.070948836726636],[-16.42740982302521,16.0713109613955],[-16.42712941492819,16.071312831494456],[-16.426943765304472,16.071494828673163],[-16.425727373888115,16.071322176482386],[-16.424514844791183,16.07169176972805],[-16.422365684138335,16.071796444528164],[-16.42171267993733,16.071981543285244],[-16.42012304945052,16.0719017182053],[-16.41863073420624,16.072363515500356],[-16.41778886169138,16.072278714871103]],[[-16.431524154579886,16.058449587887914],[-16.431898007293096,16.058447088611185],[-16.431895422317133,16.058085587652755],[-16.432360797952068,16.057811337042295],[-16.432172579543646,16.057631836651463],[-16.432263456818166,16.057269710713918],[-16.43207588531774,16.05718058542235],[-16.431979837830344,16.05681970934468],[-16.43207071521947,16.056457583464017],[-16.431221804839417,16.055378702489044],[-16.431213409566183,16.054203823643732],[-16.431395811161476,16.053569947605354],[-16.43195205417737,16.052933572932258],[-16.431950116067558,16.05266244708177],[-16.43222920515082,16.05247982223598],[-16.432412894774913,16.05202669616717],[-16.432409663765537,16.051574819798972],[-16.43222015947526,16.051214568306875],[-16.432216929072784,16.05076269186627],[-16.432403848208565,16.05076144228667],[-16.43230715813276,16.050310190655075],[-16.43184050717796,16.05040368931078],[-16.43184179895659,16.050584439925284],[-16.43146925236467,16.050767688555236],[-16.43137772984934,16.051039438924683],[-16.43109735062428,16.051041311921985],[-16.431006473047045,16.051403437509972],[-16.43054110943395,16.051677684277657],[-16.430172430739976,16.05240318304656],[-16.42970835366976,16.052858179003444],[-16.42933515588898,16.052951049000463],[-16.428499809846993,16.0537700382645],[-16.427853312865395,16.054858905154035],[-16.42785846720012,16.05558190855619],[-16.428328355250443,16.055940294504943],[-16.42842890799728,16.056933800553534],[-16.428617122623553,16.057113304572187],[-16.428435999097452,16.057927929775897],[-16.431146426384533,16.057909834892566],[-16.43124376500168,16.05845146191751],[-16.431431983482522,16.058630963116695],[-16.431524154579886,16.058449587887914]],[[-16.432640539938248,16.057719086408895],[-16.432547077136302,16.057719711585644],[-16.432547723652625,16.057810086803663],[-16.432640539938248,16.057719086408895]],[[-16.436469419172052,16.044226899664135],[-16.436372076887093,16.04368527490589],[-16.436557693635017,16.043503271883285],[-16.436548625973792,16.04223801930368],[-16.437107414693152,16.041963135177006],[-16.43709964017542,16.040878633082322],[-16.436726468775166,16.040971513963218],[-16.436727764158253,16.04115226434833],[-16.436073579715206,16.0411566478115],[-16.435978830068663,16.04097652341318],[-16.435791920350685,16.040977775368574],[-16.435699759942487,16.041159151751973],[-16.435616660566698,16.04260578131566],[-16.435815224622356,16.04423128315577],[-16.436284449360336,16.044499277841176],[-16.436469419172052,16.044226899664135]]],[[[-16.450836428972924,16.066453727670154],[-16.449719417718512,16.067093947582602],[-16.449350133378772,16.06772910055173],[-16.44879129544327,16.06800402049758],[-16.447585377668414,16.0692774847138],[-16.44693306503128,16.0695530324712],[-16.446840904243384,16.069734413432368],[-16.446093161523123,16.069739466943965],[-16.446000999870797,16.06992084760968],[-16.445814063972016,16.069922110513104],[-16.445629739844577,16.070284871624334],[-16.445349988264873,16.07037714007566],[-16.44535259962999,16.070738638475706],[-16.44497872618062,16.07074116311185],[-16.444790484246255,16.07056167594192],[-16.44488199466643,16.070289921073513],[-16.444411391811943,16.069841202445204],[-16.44450290251738,16.069569447706098],[-16.444309443715838,16.06866696273754],[-16.444680703600135,16.068302941009886],[-16.444867638080446,16.068301679219786],[-16.444958495073756,16.067939549718687],[-16.444769603555468,16.067669687621137],[-16.444115334838965,16.067674102704387],[-16.44411403052774,16.067493353355292],[-16.443927096739984,16.067494614425694],[-16.443832325798322,16.067314495525082],[-16.443923836456452,16.06704274100184],[-16.444202932161936,16.066860100038394],[-16.444392474362978,16.06722033744788],[-16.44485980806454,16.06721718350253],[-16.444759164808406,16.066223693158292],[-16.445037606074276,16.065950676596703],[-16.445599055544015,16.0660372649696],[-16.44597683774879,16.06657698763393],[-16.446257236884257,16.06657509338782],[-16.44793505413973,16.06593109847513],[-16.44877220613631,16.065110226302927],[-16.450931681843976,16.066453081902402],[-16.450836428972924,16.066453727670154]],[[-16.445053267331133,16.068119668003156],[-16.444959800185732,16.068120298992696],[-16.444960452747967,16.068210673628524],[-16.445053267331133,16.068119668003156]]],[[[-16.447170337119793,16.06358641567794],[-16.446512817152296,16.063138963934993],[-16.446320664053488,16.062417229753958],[-16.446218059597463,16.06115261613243],[-16.44644222291344,16.060182465168698],[-16.44749865230352,16.063029920993465],[-16.447763411239002,16.063548655949457],[-16.447170337119793,16.06358641567794]]],[[[-16.4460167725114,16.05916563602038],[-16.446016449419812,16.059120894976033],[-16.44603987392912,16.059176610742853],[-16.4460167725114,16.05916563602038]]]]}},{"type":"Feature","properties":{"fid":2678.0,"DN":7},"geometry":{"type":"Polygon","coordinates":[[[-16.46950189055103,15.985979893105984],[-16.469501230485886,15.985889518769262],[-16.46959465831978,15.985888880258772],[-16.46950189055103,15.985979893105984]]]}},{"type":"Feature","properties":{"fid":2681.0,"DN":7},"geometry":{"type":"Polygon","coordinates":[[[-16.468667636588602,15.986889381575043],[-16.468478141350282,15.986529160340515],[-16.4683800961495,15.985897177731433],[-16.468659060427743,15.985714514794326],[-16.469032771554684,15.98571196199954],[-16.469409122698416,15.986070905919453],[-16.469042009797878,15.986977202929983],[-16.468667636588602,15.986889381575043]]]}},{"type":"Feature","properties":{"fid":2730.0,"DN":7},"geometry":{"type":"Polygon","coordinates":[[[-16.50887464216401,15.991039481637547],[-16.509058109014333,15.990586306636551],[-16.50924496566606,15.99058499483355],[-16.509522537659908,15.990221536231573],[-16.50969854148083,15.988774261680273],[-16.510255713747874,15.9883184613826],[-16.510623315020474,15.987502482286974],[-16.510615172109304,15.9864180107106],[-16.51042357029015,15.985786714845165],[-16.511073480186024,15.985239884266427],[-16.511533820026408,15.984332875031926],[-16.511623171955925,15.983789982643323],[-16.511808664146034,15.983607923936455],[-16.512369213895663,15.983603982542997],[-16.512478262820654,15.985681894688277],[-16.51229344883062,15.985954326621851],[-16.512210211891286,15.98731057219914],[-16.511933327809285,15.987764406173495],[-16.511939440804092,15.98857775926823],[-16.51157388087257,15.98966485795569],[-16.511494035621016,15.991472966148006],[-16.51146543686894,15.99158713939983],[-16.509491391530595,15.991538932481603],[-16.50887468290261,15.99104491180361],[-16.50887464216401,15.991039481637547]]]}},{"type":"Feature","properties":{"fid":2756.0,"DN":7},"geometry":{"type":"Polygon","coordinates":[[[-16.512176252022684,15.982791943124509],[-16.512174214776362,15.98252082531752],[-16.512641336976586,15.982517540347773],[-16.512457204949666,15.982880344818176],[-16.512176252022684,15.982791943124509]]]}},{"type":"Feature","properties":{"fid":2798.0,"DN":7},"geometry":{"type":"MultiPolygon","coordinates":[[[[-16.48733918924935,15.98486309119345],[-16.487676741660927,15.98491511431192],[-16.487341600063143,15.985189227557642],[-16.48733918924935,15.98486309119345]]],[[[-16.489477296685457,15.983402241365905],[-16.489552564266724,15.983380873781144],[-16.48923127235649,15.983643659328864],[-16.489477296685457,15.983402241365905]]]]}},{"type":"Feature","properties":{"fid":2802.0,"DN":7},"geometry":{"type":"Polygon","coordinates":[[[-16.46675493264353,15.98084704766027],[-16.466753615430314,15.980666298676566],[-16.46694112516432,15.980755398891835],[-16.46675493264353,15.98084704766027]]]}},{"type":"Feature","properties":{"fid":2804.0,"DN":7},"geometry":{"type":"Polygon","coordinates":[[[-16.485532727813123,15.980627797427738],[-16.485532060784198,15.980537423702092],[-16.48562548545572,15.98053677843797],[-16.485532727813123,15.980627797427738]]]}},{"type":"Feature","properties":{"fid":2808.0,"DN":7},"geometry":{"type":"Polygon","coordinates":[[[-16.48562548545572,15.98053677843797],[-16.485624818389162,15.980446404715371],[-16.485718243014503,15.980445759414545],[-16.48562548545572,15.98053677843797]]]}},{"type":"Feature","properties":{"fid":2813.0,"DN":7},"geometry":{"type":"Polygon","coordinates":[[[-16.485717575910304,15.980355385695004],[-16.485716908810378,15.98026501197468],[-16.485810333347622,15.980264366640984],[-16.485717575910304,15.980355385695004]]]}},{"type":"Feature","properties":{"fid":2817.0,"DN":7},"geometry":{"type":"Polygon","coordinates":[[[-16.485810333347622,15.980264366640984],[-16.48580966621006,15.98017399292371],[-16.485903090701118,15.980173347553308],[-16.485810333347622,15.980264366640984]]]}},{"type":"Feature","properties":{"fid":2825.0,"DN":7},"geometry":{"type":"Polygon","coordinates":[[[-16.467435271361957,15.984457564908368],[-16.46743197604943,15.984005692732833],[-16.467242486105334,15.983645469903347],[-16.466774692866853,15.9835582820392],[-16.466771399232613,15.983106409691755],[-16.466491119237176,15.983108321098682],[-16.466395716936727,15.982837834689862],[-16.466675337907915,15.9827455489607],[-16.466858238518075,15.982202027759152],[-16.466850992897022,15.981207908481098],[-16.467037185685893,15.98111625960818],[-16.467125999973145,15.980483001019065],[-16.467501019511758,15.980661200625876],[-16.46796551037022,15.98029651524675],[-16.46796419211792,15.980115766352199],[-16.46824380851552,15.980023478937186],[-16.468524743366213,15.980111940031401],[-16.468713572139198,15.980381787516363],[-16.46872544328165,15.982008526865615],[-16.46844978110601,15.982643061559854],[-16.46836624632328,15.983999315522468],[-16.46846363048212,15.984540923936347],[-16.467810298850598,15.984635763269438],[-16.467718189946407,15.984817149795022],[-16.467435271361957,15.984457564908368]]]}},{"type":"Feature","properties":{"fid":2875.0,"DN":7},"geometry":{"type":"Polygon","coordinates":[[[-16.46664833649596,15.979040194687693],[-16.466923342060475,15.978315287530545],[-16.466825966497673,15.977773677517398],[-16.467012814852737,15.977772403409478],[-16.467010839092406,15.97750127988684],[-16.46738453524905,15.977498731230018],[-16.467289793812338,15.977318619458758],[-16.467570065646747,15.977316707684857],[-16.467760208104206,15.977767305356236],[-16.467764820706044,15.978399926669296],[-16.466925976400294,15.978676785546087],[-16.46692861080762,15.979038283549066],[-16.46664833649596,15.979040194687693]]]}},{"type":"Feature","properties":{"fid":2879.0,"DN":7},"geometry":{"type":"Polygon","coordinates":[[[-16.46710294590163,15.977319893772002],[-16.467102287289823,15.97722951926511],[-16.467289135116722,15.977228244959447],[-16.46710294590163,15.977319893772002]]]}},{"type":"Feature","properties":{"fid":2886.0,"DN":7},"geometry":{"type":"Polygon","coordinates":[[[-16.467008863370044,15.977230156357136],[-16.467008204804362,15.977139781845672],[-16.46710162868224,15.97713914475743],[-16.467008863370044,15.977230156357136]]]}},{"type":"Feature","properties":{"fid":2887.0,"DN":7},"geometry":{"type":"Polygon","coordinates":[[[-16.467195052555894,15.97713850762866],[-16.467194393910628,15.977048133123988],[-16.467287817738164,15.97704749595847],[-16.467195052555894,15.97713850762866]]]}},{"type":"Feature","properties":{"fid":2928.0,"DN":7},"geometry":{"type":"Polygon","coordinates":[[[-16.51203801983282,15.976828006362375],[-16.512212644976238,15.975199985257811],[-16.512307423649254,15.975380073938062],[-16.51249358700664,15.975288387876626],[-16.512589723868917,15.975649221695381],[-16.51277724538947,15.975738280653202],[-16.512781319723768,15.976280516449753],[-16.51259447665717,15.976281830182145],[-16.51259787163643,15.976733693363407],[-16.512411028133453,15.976735006972747],[-16.51250580782547,15.976915095463163],[-16.51203801983282,15.976828006362375]],[[-16.512685861131605,15.976010055429754],[-16.512499018307683,15.97601136905764],[-16.51259379767437,15.976191457543539],[-16.512685861131605,15.976010055429754]]]}},{"type":"Feature","properties":{"fid":2939.0,"DN":7},"geometry":{"type":"Polygon","coordinates":[[[-16.512117187771405,15.974929523849115],[-16.51211650906332,15.974839151179179],[-16.512209929950227,15.974838494598412],[-16.512117187771405,15.974929523849115]]]}},{"type":"Feature","properties":{"fid":2952.0,"DN":7},"geometry":{"type":"Polygon","coordinates":[[[-16.512396771711,15.974837181315301],[-16.512395414056517,15.97465643599652],[-16.51220857246332,15.974657749263997],[-16.51239269879975,15.97429494534951],[-16.512488834846597,15.974655779301989],[-16.51267635536444,15.974744838439397],[-16.512584292371923,15.97492624052048],[-16.512396771711,15.974837181315301]]]}},{"type":"Feature","properties":{"fid":2997.0,"DN":7},"geometry":{"type":"Polygon","coordinates":[[[-16.482114211624317,15.973149966715523],[-16.481926038672157,15.972970505701184],[-16.48201613444944,15.972517992620492],[-16.482577326337733,15.97260450538808],[-16.482580653152475,15.973056374948186],[-16.482114211624317,15.973149966715523]]]}},{"type":"Feature","properties":{"fid":3038.0,"DN":7},"geometry":{"type":"Polygon","coordinates":[[[-16.504337579811793,15.971549704795258],[-16.504332854436687,15.970917093616293],[-16.50451969324014,15.970915787483953],[-16.50452104349321,15.971096533523466],[-16.50470720723442,15.97100485420192],[-16.504710583340003,15.971456719252009],[-16.50452374405127,15.971458025593062],[-16.504711933812526,15.971637465266545],[-16.50461986449262,15.971818864484275],[-16.504337579811793,15.971549704795258]]]}},{"type":"Feature","properties":{"fid":3191.0,"DN":7},"geometry":{"type":"Polygon","coordinates":[[[-16.48411354470172,15.965544394888694],[-16.484205630941215,15.965363003014785],[-16.48439246631631,15.965361714788717],[-16.484301046070186,15.96563348063027],[-16.48411354470172,15.965544394888694]]]}},{"type":"Feature","properties":{"fid":3211.0,"DN":7},"geometry":{"type":"Polygon","coordinates":[[[-16.483921384088003,15.964822691520348],[-16.483920718476508,15.964732317595978],[-16.484014135885936,15.96473167365155],[-16.483921384088003,15.964822691520348]]]}},{"type":"Feature","properties":{"fid":3213.0,"DN":7},"geometry":{"type":"Polygon","coordinates":[[[-16.45029082644796,15.96505188094024],[-16.450662550194416,15.96477823740672],[-16.45066450230305,15.965049363230737],[-16.45029082644796,15.96505188094024]]]}},{"type":"Feature","properties":{"fid":3244.0,"DN":7},"geometry":{"type":"Polygon","coordinates":[[[-16.450752064666315,15.964235356242632],[-16.450938901806886,15.964234097131305],[-16.451031018701148,15.9640527169822],[-16.451032971212054,15.964323842780043],[-16.45084678475768,15.964415477251752],[-16.450752064666315,15.964235356242632]]]}},{"type":"Feature","properties":{"fid":3251.0,"DN":7},"geometry":{"type":"Polygon","coordinates":[[[-16.464951639636986,15.964139202042489],[-16.464949011362908,15.963777703218996],[-16.46504242913063,15.963777067542232],[-16.46532662584964,15.964317408408629],[-16.464951639636986,15.964139202042489]]]}},{"type":"Feature","properties":{"fid":3253.0,"DN":7},"geometry":{"type":"Polygon","coordinates":[[[-16.449909346336053,15.963969894303585],[-16.449908045696073,15.963789143676276],[-16.4501883008853,15.963787256098326],[-16.45028302024827,15.963967377422005],[-16.449909346336053,15.963969894303585]]]}},{"type":"Feature","properties":{"fid":3303.0,"DN":7},"geometry":{"type":"Polygon","coordinates":[[[-16.467892372907908,15.970264946854071],[-16.46723776986039,15.97017903159661],[-16.466486456492596,15.969641877920196],[-16.4666700069462,15.969188731786153],[-16.466574612682447,15.968918244587163],[-16.46694368583371,15.968283075917233],[-16.46693842076766,15.96756007918244],[-16.46590751844863,15.967115206866792],[-16.465622658139008,15.966484492706671],[-16.46524635290527,15.966125537900513],[-16.465333855885657,15.965311529924783],[-16.466268698041794,15.965395543711455],[-16.466546322059088,15.965032136131915],[-16.466826576892977,15.965030226755394],[-16.46681670802138,15.963674607356337],[-16.467002227354975,15.96349258509845],[-16.466904204418732,15.962860599183353],[-16.467181824131078,15.962497191089884],[-16.468397562956564,15.962669661341389],[-16.468677155590086,15.962577375264852],[-16.46886596600481,15.962847224401225],[-16.46914687641178,15.962935686804432],[-16.469148853148532,15.96320681043272],[-16.46942910511601,15.963204897881557],[-16.46925281438317,15.964652165460512],[-16.469440309477452,15.964741264781692],[-16.4694416277179,15.964922013813874],[-16.47008961980891,15.964104178841696],[-16.47008368556488,15.963290808347914],[-16.470269201371448,15.963108783544664],[-16.470267882546516,15.962928034549478],[-16.470081707559622,15.963019684835873],[-16.47017182796017,15.962567174445168],[-16.470638912853943,15.962563984562868],[-16.470640231979935,15.962744733533928],[-16.47101258069285,15.962561431928064],[-16.471013900153718,15.962742180868723],[-16.471294811102002,15.962830640402348],[-16.471113915163304,15.96364528721947],[-16.47120931221165,15.963915772232207],[-16.47139614734464,15.963914495395791],[-16.471121173426262,15.964639406209029],[-16.47196127420373,15.9645432848447],[-16.472151411516215,15.964993879338452],[-16.47205997440517,15.96526564136742],[-16.471781040288793,15.96544830641575],[-16.47178434132418,15.965900178484041],[-16.47141198753357,15.9660834818297],[-16.47132120906534,15.966445618069663],[-16.47133441058546,15.968253106432895],[-16.470869952320957,15.96861779664082],[-16.470687071911417,15.969161319974992],[-16.470220631395627,15.969254885691576],[-16.469850248538005,15.969709310295222],[-16.469196306236775,15.96971377539504],[-16.468642374025457,15.97062134608317],[-16.467892372907908,15.970264946854071]],[[-16.469905421606843,15.964466952566493],[-16.469812003723618,15.964467590379707],[-16.469812662996514,15.964557964883356],[-16.469905421606843,15.964466952566493]]]}},{"type":"Feature","properties":{"fid":3321.0,"DN":7},"geometry":{"type":"Polygon","coordinates":[[[-16.49044521997654,15.962698923054036],[-16.490537299199364,15.962517529019122],[-16.49016229813767,15.962339368150959],[-16.490160961540496,15.962158620773861],[-16.490439872549004,15.961975933644322],[-16.490814204521268,15.962063720408537],[-16.491002373616976,15.962243174017553],[-16.490912300879348,15.96269568917458],[-16.49044521997654,15.962698923054036]]]}},{"type":"Feature","properties":{"fid":3345.0,"DN":7},"geometry":{"type":"Polygon","coordinates":[[[-16.447182035027826,15.961457610208026],[-16.447181386036345,15.961367234764305],[-16.447274803427472,15.961366606887696],[-16.447182035027826,15.961457610208026]]]}},{"type":"Feature","properties":{"fid":3386.0,"DN":7},"geometry":{"type":"Polygon","coordinates":[[[-16.444958160708353,15.964003181804234],[-16.44486279782768,15.96373268222877],[-16.44439311351468,15.963374314278013],[-16.44429710397428,15.96301343880438],[-16.444110267414867,15.96301469205965],[-16.444015553855287,15.96283456751097],[-16.444013610975958,15.962563440831762],[-16.444385987690527,15.962380183302296],[-16.4441946179578,15.961748807682037],[-16.44400778256218,15.961750060751843],[-16.444192674976794,15.961477680997026],[-16.444189436758165,15.96102580317301],[-16.444931591882977,15.960297785192456],[-16.445865113230997,15.96020113926503],[-16.446239429345813,15.960289005468935],[-16.446240726395974,15.960469756449127],[-16.446707811425195,15.96046661887277],[-16.44670651395649,15.960285867929946],[-16.447639384576686,15.96009883894376],[-16.44828940545427,15.959552189431035],[-16.448756487933014,15.95954904758745],[-16.44903998613844,15.959999038910341],[-16.449042585227968,15.960360540428196],[-16.44970105369048,15.96098876650295],[-16.45044904090354,15.961074109044668],[-16.451004338148735,15.960347330371992],[-16.451192473159388,15.960526821921952],[-16.45194045881311,15.960612159374223],[-16.452310218689227,15.96006738800326],[-16.452497703155696,15.960156503101192],[-16.45240558910871,15.960337883684327],[-16.45277925587272,15.960335363028866],[-16.452598285008765,15.961150000525082],[-16.452786422129112,15.961329490489074],[-16.452696262331035,15.96178199686068],[-16.452981075722175,15.962412732321502],[-16.45242968960342,15.963681767138251],[-16.451870482429378,15.963866298210942],[-16.45168364570719,15.963867558102338],[-16.45158892520108,15.963687437493341],[-16.450935647873088,15.963782220774998],[-16.450933695562874,15.963511094951821],[-16.450557420252643,15.96315211172402],[-16.450090329798364,15.963155258163669],[-16.44990479416908,15.963337267094294],[-16.449906745072767,15.96360839304583],[-16.449627140281173,15.96370065556364],[-16.449529821115636,15.96315903255471],[-16.44934168479212,15.96297953967471],[-16.449061430620656,15.962981426057999],[-16.448966712844143,15.962801304051991],[-16.44831278685515,15.962805703859578],[-16.448036429468722,15.963349841257324],[-16.44785089166335,15.963531848582441],[-16.44757063653844,15.963533733089022],[-16.447379255658696,15.962902361280175],[-16.447193717585975,15.963084368061052],[-16.446726626591236,15.96308750719181],[-16.446536546339107,15.962636885273824],[-16.446533302617976,15.962185007967475],[-16.446906324881734,15.962092121768714],[-16.446905027095838,15.961911370869032],[-16.446624125345476,15.96182287849647],[-16.447461638197236,15.96136535101298],[-16.447459690871057,15.96109422471078],[-16.447086021817164,15.96109673625336],[-16.44708796864106,15.961367862600424],[-16.446807716430236,15.961369745865799],[-16.44680966291486,15.961640872239466],[-16.446528761583085,15.961552379705694],[-16.44633933211196,15.961192132874423],[-16.445685410581582,15.961196524273245],[-16.445222212336724,15.961741912902534],[-16.445041209590403,15.96255654657374],[-16.44560431107434,15.962914285987432],[-16.44551867287543,15.96399941911892],[-16.444958160708353,15.964003181804234]],[[-16.444386635471957,15.962470558849457],[-16.44429321744965,15.96247118551546],[-16.444293865193377,15.962561561065572],[-16.444386635471957,15.962470558849457]]]}},{"type":"Feature","properties":{"fid":3402.0,"DN":7},"geometry":{"type":"Polygon","coordinates":[[[-16.48011716014013,15.968373647086809],[-16.480207923013072,15.968011508457597],[-16.479737508173297,15.967562849806034],[-16.478988166279283,15.967296863956697],[-16.478423673871166,15.966758469749003],[-16.47841505220332,15.965583605950126],[-16.478037402026576,15.965043926934957],[-16.478035413091852,15.964772804441063],[-16.47765909115487,15.96441387287638],[-16.477268856831966,15.96215708210098],[-16.477080698972177,15.96197761544053],[-16.476972711219844,15.959990022973367],[-16.47678389360659,15.95972018156732],[-16.476777271920607,15.958816438934752],[-16.47705486776144,15.958453019940967],[-16.47733577450314,15.958541471904807],[-16.47733444974021,15.958360723409978],[-16.47752127920736,15.958359441693055],[-16.477430514186143,15.958721579543022],[-16.477711421433632,15.958810030969056],[-16.477714071730997,15.95917152787884],[-16.47818313556054,15.959439444918175],[-16.478463381146685,15.959437521051445],[-16.478365325839974,15.958805542984065],[-16.47855215563211,15.958804260338255],[-16.47864822249309,15.959165115711645],[-16.47930345437065,15.959341373105868],[-16.48135858573646,15.959327245682685],[-16.481920404708912,15.95950413745102],[-16.48220264375492,15.959773330828263],[-16.482304035204738,15.960857176163492],[-16.482875169226567,15.962299300918808],[-16.4832501649162,15.96247747503796],[-16.483623830461624,15.962474900534545],[-16.4837159160079,15.962293508901798],[-16.484748822041613,15.963009416581643],[-16.484940317214434,15.963640745332151],[-16.48447589612126,15.964005462082685],[-16.484294388088607,15.964729741575232],[-16.484014135885936,15.96473167365155],[-16.484012138951464,15.964460551885228],[-16.48419963923061,15.96454963781308],[-16.48419697635908,15.964188142147485],[-16.484010807683152,15.964279804037094],[-16.48391472816508,15.963918952241341],[-16.48372855957634,15.964010613878793],[-16.483732552602127,15.964552857496898],[-16.483921384088003,15.964822691520348],[-16.484116207661845,15.965905890522556],[-16.48374652940191,15.96645070993791],[-16.48365976704574,15.967355093008015],[-16.483195335426284,15.967719807795211],[-16.482447984670873,15.967724956311722],[-16.482356560941405,15.967996721582496],[-16.481982884941843,15.96799929475239],[-16.48189079562329,15.96818068590363],[-16.48133161017458,15.968365292248826],[-16.48011716014013,15.968373647086809]],[[-16.477148944851617,15.958542753475049],[-16.477055530019484,15.958543394199438],[-16.47705619228178,15.958633768457132],[-16.477148944851617,15.958542753475049]]]}},{"type":"Feature","properties":{"fid":3406.0,"DN":7},"geometry":{"type":"Polygon","coordinates":[[[-16.445665963111182,15.958485258756953],[-16.445665314926597,15.95839488322761],[-16.44575873100311,15.958394256122197],[-16.445665963111182,15.958485258756953]]]}},{"type":"Feature","properties":{"fid":3481.0,"DN":7},"geometry":{"type":"Polygon","coordinates":[[[-16.51065818073081,15.954785574746639],[-16.51065614928515,15.954514456045018],[-16.511029118066716,15.954421462374908],[-16.511311384773297,15.954690614995938],[-16.5111259163248,15.95487267148685],[-16.51065818073081,15.954785574746639]]]}},{"type":"Feature","properties":{"fid":3900.0,"DN":7},"geometry":{"type":"Polygon","coordinates":[[[-16.392199213781556,15.927113529545009],[-16.39219796793635,15.926932773758372],[-16.392291371622697,15.926932170998892],[-16.392199213781556,15.927113529545009]]]}},{"type":"Feature","properties":{"fid":3937.0,"DN":7},"geometry":{"type":"Polygon","coordinates":[[[-16.38208623140679,15.923472880382262],[-16.382085613155105,15.92338250207039],[-16.382272418044465,15.923381305524934],[-16.38208623140679,15.923472880382262]]]}},{"type":"Feature","properties":{"fid":4028.0,"DN":7},"geometry":{"type":"Polygon","coordinates":[[[-16.403321020515637,15.914568812226712],[-16.403319138389968,15.914297679522658],[-16.40369272797589,15.91429525086233],[-16.403601840595073,15.91465736831499],[-16.403321020515637,15.914568812226712]]]}},{"type":"Feature","properties":{"fid":4029.0,"DN":7},"geometry":{"type":"Polygon","coordinates":[[[-16.399086670329854,15.923544087670395],[-16.39908416692197,15.923182577039503],[-16.39889611204172,15.923003032786697],[-16.39796272113537,15.923099463403291],[-16.39805799897967,15.923369991386085],[-16.39787119535686,15.923371201593563],[-16.397872445983378,15.923551957001367],[-16.397777168273937,15.923281428928009],[-16.39721800756951,15.923465813776728],[-16.397120855878846,15.922924152129942],[-16.396562320105904,15.923198913009251],[-16.39600190930488,15.923202539225354],[-16.39600066038039,15.923021783666966],[-16.394879839347126,15.923029031649671],[-16.394318181208487,15.922851897768306],[-16.394223532183084,15.922671745553126],[-16.393849925599486,15.922674159065885],[-16.393665615909807,15.92303687706631],[-16.393386033696373,15.923129064457994],[-16.393290138837493,15.922768156010294],[-16.392915908860182,15.922680190020005],[-16.392725367649938,15.922139128257108],[-16.392072180058417,15.922233724743373],[-16.391884131845266,15.922054173793933],[-16.39160392749006,15.922055980883838],[-16.391509281217587,15.921875827242065],[-16.391693594054615,15.921513110821884],[-16.392253378483925,15.92141911822793],[-16.39234428861919,15.921057003903377],[-16.39280817869813,15.920602100859258],[-16.392711663563173,15.920150813964195],[-16.392898464621478,15.92014960845961],[-16.39299061916416,15.919968249804807],[-16.39355102171812,15.919964632122536],[-16.39364130578783,15.919512139541633],[-16.39429261292631,15.919146405410691],[-16.394384142219568,15.918874668403804],[-16.394102695701214,15.91869572261021],[-16.3941008254262,15.918424588938324],[-16.394287624778404,15.91842338235889],[-16.39437853030375,15.91806126747839],[-16.394657481490466,15.917878701480248],[-16.39465436331376,15.917426812096204],[-16.39511512110938,15.916520015684949],[-16.39548684425166,15.916246467324468],[-16.395484972423365,15.915975333751595],[-16.39585482181466,15.915430651317143],[-16.396135016477288,15.915428839442438],[-16.396227166205172,15.915247479732638],[-16.396786305927744,15.915063099063424],[-16.39668978576067,15.914611814221974],[-16.396781310209814,15.914340076509697],[-16.397060254110368,15.914157507928996],[-16.397527866789712,15.914244863358693],[-16.39771653660995,15.914514787480432],[-16.398090127495422,15.914512368480988],[-16.39855524028167,15.91423821056321],[-16.399302420697754,15.914233369098076],[-16.39977128568452,15.914501474989311],[-16.400237647840804,15.914408069010355],[-16.400425695158816,15.914587612778146],[-16.40042882564857,15.915039501163918],[-16.400803669626928,15.915217832714099],[-16.401177261316825,15.915215408269406],[-16.401363430606345,15.915123818166947],[-16.40136217755586,15.914943062888907],[-16.401735768648457,15.914940637518622],[-16.402764398123004,15.915114719588747],[-16.403046473376566,15.915384031498576],[-16.403700258698954,15.915379781462445],[-16.404076989030198,15.91582923962647],[-16.404078872362902,15.91610037220375],[-16.404456232933416,15.916640207007745],[-16.404458744864634,15.91700171702313],[-16.40474145316668,15.917361403767835],[-16.405954379399383,15.917172743898828],[-16.406049035448884,15.917352890424102],[-16.406235832853156,15.91735167358603],[-16.406237090460994,15.917532428444867],[-16.40679748307759,15.917528776917898],[-16.40652106045913,15.918072867355498],[-16.406147464347526,15.918075301470935],[-16.405965696052803,15.918799537740243],[-16.404564704929633,15.918808659142528],[-16.40400681970997,15.919173815172226],[-16.403828809975884,15.920440315266104],[-16.403642637294347,15.920531907755786],[-16.403554258996376,15.92125553523143],[-16.403368713136068,15.921437505055879],[-16.402340677950974,15.921353806141983],[-16.402249158811443,15.921625545696621],[-16.401970210441053,15.921808121313761],[-16.401409804796,15.921811761262436],[-16.40112584177965,15.92127131512895],[-16.400473289458528,15.92145631413884],[-16.400475795065468,15.921817824612033],[-16.401037454280626,15.921994942275505],[-16.401041214362856,15.922537207822298],[-16.4004820593645,15.922721600740463],[-16.400105322324904,15.922272136967143],[-16.399638942240873,15.92236554405469],[-16.39973735244714,15.923087959346375],[-16.39955117527016,15.92317954862809],[-16.399460903713432,15.923632042605544],[-16.399086670329854,15.923544087670395]],[[-16.397589739532542,15.923192261169186],[-16.39749633778656,15.923192866083909],[-16.397496962922787,15.923283243804207],[-16.397589739532542,15.923192261169186]]]}},{"type":"Feature","properties":{"fid":4036.0,"DN":7},"geometry":{"type":"Polygon","coordinates":[[[-16.39864050955897,15.913062694693762],[-16.398545862172988,15.912882544157778],[-16.39882542768155,15.912790351317984],[-16.398827303594366,15.913061484582913],[-16.39864050955897,15.913062694693762]]]}},{"type":"Feature","properties":{"fid":4108.0,"DN":7},"geometry":{"type":"Polygon","coordinates":[[[-16.41204104589214,15.906016104304262],[-16.411851736104996,15.905655816089885],[-16.411665580697083,15.905747414229317],[-16.41166305775821,15.905385904962062],[-16.41147501056512,15.90520637094968],[-16.41147311867803,15.904935238964503],[-16.41128570262644,15.904846082069918],[-16.411375311953563,15.904303207854463],[-16.412118035439835,15.903665683811367],[-16.412865172437346,15.903660798575919],[-16.41324126630429,15.90401986406832],[-16.413243160446093,15.904290995868944],[-16.41352586365951,15.904650671691941],[-16.413437523139244,15.90537430082751],[-16.41260140519294,15.906012440292747],[-16.41204104589214,15.906016104304262]]]}},{"type":"Feature","properties":{"fid":4246.0,"DN":7},"geometry":{"type":"Polygon","coordinates":[[[-16.4245568379074,15.892828667949084],[-16.42455111445696,15.892015275666369],[-16.424920206959207,15.891380175248235],[-16.424532038681935,15.889303967601512],[-16.424901127045537,15.888668867461336],[-16.425087896445003,15.888667636474093],[-16.425180009025432,15.88848626706471],[-16.426298714391688,15.888207746704236],[-16.426862204923275,15.888655934054698],[-16.42705152175772,15.889016208781303],[-16.427148728315125,15.889557853430537],[-16.427336772478032,15.889737374102154],[-16.42734314335952,15.890641142391232],[-16.426975333916833,15.891456999924266],[-16.425953817568697,15.89227717031002],[-16.425862977338493,15.892639293807353],[-16.425491340439468,15.892912888199524],[-16.4245568379074,15.892828667949084]]]}}]}