{"type":"FeatureCollection","name":"energie-gandon","features":[{"type":"Feature","properties":{"nom":"Nouvelle centrale à gaz"},"geometry":{"type":"Polygon","coordinates":[[[-16.42967,15.932165],[-16.427957,15.929719],[-16.430401,15.928216],[-16.432039,15.930705],[-16.42967,15.932165]]]}},{"type":"Feature","properties":{"nom":"Substation Senelec"},"geometry":{"type":"Polygon","coordinates":[[[-16.426569,15.930251],[-16.425803,15.929074],[-16.427788,15.927824],[-16.428634,15.928997],[-16.426569,15.930251]]]}}]}