{"type":"FeatureCollection","name":"zone-extension-planifiee","features":[{"type":"Feature","properties":{"nom":"Zone d'extension futur ( MT, LT)"},"geometry":{"type":"Polygon","coordinates":[[[-16.44224,15.951703],[-16.44267,15.951823],[-16.442949,15.951964],[-16.443117,15.952136],[-16.443227,15.952349],[-16.443265,15.952524],[-16.443259,15.952761],[-16.443276,15.952877],[-16.443323,15.952986],[-16.443365,15.953045],[-16.44331,15.953356],[-16.443236,15.95374],[-16.443154,15.954121],[-16.443066,15.954502],[-16.44297,15.954881],[-16.442759,15.955633],[-16.442643,15.956007],[-16.44252,15.95638],[-16.442366,15.956833],[-16.44193,15.958113],[-16.441835,15.95803],[-16.441013,15.957311],[-16.441144,15.957166],[-16.441177,15.957117],[-16.441214,15.957036],[-16.441237,15.95692],[-16.441221,15.956774],[-16.441189,15.956691],[-16.44114,15.956616],[-16.441123,15.956565],[-16.441112,15.956465],[-16.441087,15.956367],[-16.441049,15.956274],[-16.440999,15.956186],[-16.440936,15.956103],[-16.440928,15.956094],[-16.440949,15.955925],[-16.441006,15.955707],[-16.441221,15.954874],[-16.441293,15.954244],[-16.441281,15.953493],[-16.441409,15.952325],[-16.441553,15.951974],[-16.441759,15.951796],[-16.441964,15.951715],[-16.44224,15.951703]]]}},{"type":"Feature","properties":{"nom":"Zone d'extension futur ( MT, LT)"},"geometry":{"type":"Polygon","coordinates":[[[-16.439374,15.986636],[-16.439352,15.986794],[-16.43933,15.986952],[-16.439308,15.987111],[-16.439286,15.987269],[-16.439262,15.987292],[-16.439216,15.987337],[-16.439193,15.98736],[-16.439146,15.987405],[-16.439053,15.987451],[-16.43896,15.987497],[-16.438867,15.98752],[-16.438774,15.987543],[-16.43868,15.987589],[-16.438587,15.987635],[-16.438564,15.98768],[-16.438518,15.987771],[-16.438449,15.987907],[-16.438426,15.98793],[-16.438403,15.987953],[-16.43838,15.987975],[-16.438333,15.988021],[-16.43831,15.988044],[-16.438264,15.988089],[-16.438241,15.988157],[-16.438218,15.988225],[-16.438195,15.988293],[-16.438172,15.988361],[-16.438126,15.988497],[-16.43815,15.988564],[-16.438198,15.9887],[-16.438269,15.988902],[-16.438294,15.98906],[-16.438318,15.989218],[-16.438343,15.989376],[-16.438367,15.989534],[-16.438415,15.989625],[-16.438462,15.989715],[-16.438509,15.989759],[-16.438649,15.989781],[-16.43879,15.989803],[-16.43893,15.989847],[-16.439071,15.989891],[-16.439118,15.989981],[-16.439212,15.990071],[-16.439236,15.990116],[-16.439259,15.990161],[-16.439236,15.990207],[-16.439213,15.990252],[-16.439191,15.990342],[-16.439168,15.990433],[-16.439192,15.990523],[-16.439216,15.990613],[-16.439263,15.990658],[-16.43931,15.990703],[-16.439334,15.990748],[-16.439357,15.990793],[-16.439311,15.990884],[-16.439288,15.990907],[-16.439265,15.990929],[-16.439359,15.990974],[-16.439452,15.991018],[-16.4395,15.991063],[-16.439547,15.991153],[-16.439501,15.991244],[-16.439455,15.991335],[-16.439502,15.991425],[-16.439549,15.991379],[-16.439618,15.991356],[-16.439688,15.991333],[-16.439758,15.99131],[-16.439828,15.991287],[-16.439851,15.991264],[-16.439875,15.991242],[-16.439898,15.991196],[-16.439921,15.991151],[-16.440107,15.991059],[-16.4402,15.991081],[-16.440294,15.991103],[-16.440318,15.991126],[-16.440365,15.991171],[-16.440388,15.991193],[-16.440435,15.991215],[-16.440482,15.991238],[-16.440576,15.991327],[-16.440671,15.991507],[-16.440765,15.991597],[-16.440858,15.991642],[-16.441233,15.99173],[-16.442448,15.991812],[-16.442729,15.9919],[-16.443197,15.991988],[-16.443667,15.992015],[-16.439953,16.008099],[-16.439328,16.008192],[-16.439072,16.008352],[-16.438657,16.009101],[-16.438281,16.010142],[-16.437542,16.011322],[-16.437081,16.012228],[-16.43616,16.014042],[-16.435709,16.016305],[-16.435814,16.017931],[-16.436291,16.019374],[-16.437044,16.020001],[-16.437892,16.02099],[-16.438104,16.022753],[-16.438191,16.023609],[-16.43861,16.024196],[-16.439026,16.024779],[-16.439124,16.024812],[-16.438919,16.028174],[-16.438518,16.028566],[-16.438228,16.028851],[-16.437921,16.029432],[-16.437802,16.029829],[-16.437712,16.029812],[-16.436526,16.029589],[-16.436267,16.02954],[-16.435962,16.029482],[-16.43569,16.030166],[-16.435448,16.030191],[-16.435319,16.030204],[-16.434255,16.03031],[-16.434061,16.031508],[-16.433965,16.032103],[-16.433391,16.032862],[-16.433208,16.033716],[-16.433197,16.03395],[-16.433192,16.034063],[-16.433186,16.034191],[-16.433152,16.034666],[-16.433164,16.035356],[-16.433185,16.035824],[-16.433339,16.036188],[-16.433401,16.036517],[-16.43365,16.037392],[-16.433819,16.03811],[-16.433847,16.038524],[-16.433801,16.038806],[-16.433784,16.038909],[-16.433768,16.039001],[-16.433751,16.039109],[-16.433399,16.039294],[-16.432639,16.039446],[-16.432023,16.03957],[-16.430883,16.039798],[-16.429341,16.040486],[-16.429352,16.040636],[-16.429167,16.040877],[-16.429196,16.041003],[-16.429231,16.041153],[-16.42935,16.041266],[-16.429432,16.041344],[-16.429482,16.041464],[-16.429495,16.041607],[-16.42936,16.041753],[-16.4292,16.041753],[-16.429191,16.0419],[-16.429181,16.042054],[-16.42868,16.04219],[-16.428419,16.042192],[-16.428069,16.041905],[-16.428105,16.041665],[-16.428028,16.041378],[-16.427804,16.04117],[-16.427283,16.041401],[-16.427383,16.041418],[-16.427298,16.041671],[-16.427141,16.042004],[-16.426716,16.041879],[-16.426783,16.041622],[-16.425584,16.042446],[-16.425581,16.042551],[-16.425549,16.042658],[-16.425298,16.043091],[-16.425351,16.043308],[-16.425385,16.043446],[-16.425391,16.043573],[-16.425364,16.043737],[-16.425268,16.043908],[-16.425025,16.044291],[-16.424938,16.044428],[-16.424935,16.044537],[-16.424901,16.044648],[-16.424821,16.044778],[-16.424761,16.04485],[-16.424728,16.044922],[-16.424669,16.045015],[-16.424632,16.045073],[-16.424543,16.045155],[-16.424435,16.045212],[-16.424315,16.04524],[-16.424212,16.045237],[-16.424058,16.045233],[-16.424002,16.045233],[-16.423861,16.045457],[-16.423436,16.046588],[-16.421738,16.046547],[-16.420336,16.046535],[-16.420286,16.046611],[-16.420249,16.046665],[-16.420249,16.046921],[-16.420225,16.047766],[-16.420185,16.049212],[-16.420154,16.050332],[-16.419981,16.050853],[-16.419697,16.051184],[-16.419437,16.051477],[-16.419239,16.051696],[-16.418349,16.052679],[-16.417628,16.053475],[-16.417458,16.053167],[-16.417248,16.052723],[-16.417089,16.052288],[-16.41694,16.051601],[-16.416914,16.051331],[-16.416887,16.051046],[-16.416933,16.050616],[-16.417079,16.050307],[-16.417447,16.049627],[-16.417765,16.049105],[-16.418256,16.04838],[-16.418833,16.047588],[-16.419595,16.046599],[-16.420259,16.045857],[-16.420439,16.045656],[-16.420005,16.044756],[-16.420378,16.043816],[-16.420982,16.04328],[-16.421163,16.04312],[-16.421695,16.041691],[-16.42169,16.040976],[-16.421687,16.040488],[-16.42269,16.039372],[-16.422812,16.035736],[-16.4233,16.035244],[-16.42348,16.034575],[-16.423167,16.033934],[-16.422663,16.033453],[-16.422335,16.03314],[-16.422402,16.032522],[-16.422461,16.031971],[-16.42263,16.030408],[-16.422683,16.029915],[-16.42273,16.029472],[-16.42291,16.028907],[-16.422907,16.028495],[-16.423017,16.027838],[-16.423637,16.027095],[-16.424172,16.0263],[-16.424168,16.025695],[-16.423607,16.023834],[-16.423427,16.02271],[-16.423064,16.021592],[-16.422665,16.02093],[-16.422351,16.02023],[-16.422776,16.019253],[-16.423289,16.018485],[-16.424113,16.017882],[-16.42411,16.017364],[-16.423844,16.01647],[-16.424811,16.014264],[-16.424806,16.013484],[-16.425257,16.012105],[-16.424797,16.010818],[-16.424505,16.009407],[-16.42491,16.007991],[-16.424396,16.007836],[-16.423828,16.00755],[-16.423821,16.006442],[-16.424289,16.005996],[-16.42493,16.005681],[-16.425581,16.004947],[-16.426033,16.004023],[-16.426137,16.003337],[-16.426358,16.001882],[-16.426436,16.001365],[-16.426544,16.000656],[-16.426275,15.999081],[-16.425945,15.997982],[-16.426797,15.995286],[-16.427227,15.993926],[-16.427639,15.992623],[-16.427633,15.991821],[-16.426862,15.991395],[-16.425972,15.989972],[-16.425961,15.988425],[-16.425951,15.987022],[-16.425671,15.986096],[-16.425395,15.985182],[-16.425139,15.984333],[-16.425017,15.98393],[-16.425476,15.983481],[-16.425242,15.983115],[-16.425682,15.982642],[-16.426367,15.982396],[-16.427223,15.98163],[-16.427351,15.980303],[-16.427836,15.980143],[-16.428647,15.980137],[-16.429153,15.979266],[-16.430224,15.978921],[-16.430213,15.977396],[-16.430482,15.976198],[-16.431439,15.975902],[-16.431672,15.975345],[-16.431949,15.974683],[-16.432093,15.974071],[-16.432241,15.973437],[-16.432272,15.972545],[-16.432265,15.971551],[-16.432489,15.970977],[-16.432621,15.970111],[-16.432728,15.969402],[-16.432722,15.968538],[-16.432386,15.967931],[-16.432381,15.967227],[-16.432949,15.966279],[-16.432941,15.965103],[-16.433228,15.964668],[-16.433516,15.964232],[-16.433826,15.963763],[-16.434098,15.963352],[-16.434471,15.962788],[-16.434521,15.962547],[-16.434541,15.962452],[-16.434597,15.962183],[-16.434695,15.961714],[-16.434691,15.961218],[-16.434198,15.960604],[-16.43409,15.960469],[-16.43354,15.95996],[-16.432894,15.959965],[-16.432013,15.959602],[-16.432008,15.958882],[-16.432967,15.958683],[-16.432963,15.958107],[-16.432552,15.957441],[-16.432316,15.956578],[-16.432193,15.956124],[-16.431935,15.956057],[-16.431617,15.955973],[-16.431373,15.95591],[-16.431259,15.9558],[-16.431256,15.955434],[-16.431538,15.955187],[-16.432138,15.954662],[-16.433088,15.953926],[-16.435376,15.953911],[-16.436849,15.953714],[-16.437955,15.955118],[-16.439547,15.956737],[-16.43966,15.957013],[-16.439798,15.957171],[-16.439976,15.957288],[-16.440075,15.957328],[-16.440265,15.957366],[-16.441746,15.958655],[-16.444373,15.960683],[-16.444283,15.961131],[-16.444201,15.961234],[-16.444144,15.961302],[-16.44405,15.961418],[-16.443994,15.961484],[-16.443938,15.961549],[-16.443862,15.961638],[-16.443794,15.96172],[-16.443734,15.961796],[-16.443653,15.961912],[-16.443596,15.962013],[-16.443539,15.962168],[-16.443519,15.962285],[-16.443509,15.962459],[-16.443518,15.962598],[-16.443545,15.962756],[-16.44359,15.962889],[-16.443641,15.962997],[-16.443687,15.963078],[-16.443741,15.963159],[-16.4438,15.963238],[-16.443866,15.963314],[-16.444034,15.963478],[-16.444198,15.96359],[-16.444384,15.963663],[-16.444564,15.963735],[-16.444641,15.963785],[-16.444692,15.963835],[-16.444755,15.963942],[-16.444816,15.964139],[-16.444869,15.964317],[-16.444909,15.964408],[-16.444956,15.964475],[-16.445131,15.96462],[-16.445277,15.964698],[-16.445489,15.964775],[-16.445695,15.964825],[-16.445878,15.964857],[-16.446128,15.964886],[-16.446182,15.965346],[-16.446139,15.965803],[-16.446093,15.965939],[-16.446117,15.966006],[-16.446141,15.966074],[-16.446188,15.966119],[-16.446141,15.966164],[-16.446119,15.966277],[-16.446096,15.966391],[-16.446074,15.966504],[-16.446051,15.966617],[-16.446029,15.96673],[-16.446006,15.966843],[-16.446055,15.967069],[-16.446102,15.967159],[-16.446079,15.967204],[-16.446033,15.96734],[-16.445965,15.967612],[-16.445942,15.967634],[-16.445872,15.967703],[-16.44585,15.967793],[-16.445827,15.967884],[-16.445804,15.967974],[-16.445781,15.968065],[-16.445758,15.96811],[-16.445735,15.968155],[-16.445689,15.968246],[-16.445666,15.968314],[-16.445644,15.968382],[-16.445621,15.96845],[-16.445598,15.968518],[-16.445552,15.968654],[-16.445576,15.968721],[-16.4456,15.968789],[-16.445647,15.968834],[-16.445717,15.968856],[-16.445787,15.968878],[-16.445857,15.968855],[-16.445927,15.968832],[-16.44602,15.968786],[-16.446067,15.968854],[-16.446115,15.968921],[-16.446138,15.968989],[-16.446186,15.969147],[-16.44621,15.969237],[-16.446258,15.969417],[-16.446354,15.969688],[-16.44645,15.970049],[-16.446638,15.970228],[-16.446732,15.970408],[-16.446756,15.970385],[-16.446872,15.970272],[-16.446965,15.970226],[-16.447059,15.970361],[-16.447107,15.970496],[-16.447155,15.970722],[-16.44725,15.970947],[-16.447344,15.970992],[-16.447391,15.971036],[-16.447438,15.971127],[-16.447392,15.971217],[-16.447346,15.971263],[-16.447393,15.971308],[-16.447488,15.971488],[-16.447723,15.971712],[-16.44791,15.971801],[-16.447957,15.971846],[-16.448005,15.971981],[-16.447982,15.972049],[-16.448247,15.972196],[-16.444751,15.987187],[-16.444704,15.987142],[-16.444608,15.986781],[-16.44456,15.986691],[-16.444524,15.986601],[-16.444477,15.986511],[-16.444512,15.98642],[-16.444605,15.986329],[-16.44465,15.986148],[-16.444555,15.985968],[-16.444461,15.985924],[-16.44443,15.985879],[-16.444391,15.985691],[-16.444351,15.985504],[-16.444328,15.985302],[-16.444305,15.9851],[-16.444304,15.984992],[-16.4443,15.984942],[-16.44429,15.984872],[-16.444276,15.984807],[-16.444264,15.984767],[-16.444244,15.98472],[-16.444215,15.984664],[-16.444177,15.984608],[-16.444131,15.984551],[-16.444035,15.984453],[-16.443966,15.984392],[-16.443828,15.984272],[-16.443759,15.984212],[-16.443684,15.98414],[-16.443592,15.984044],[-16.443529,15.983977],[-16.44346,15.983906],[-16.443391,15.983834],[-16.443353,15.983797],[-16.443288,15.983735],[-16.443233,15.983689],[-16.44318,15.983648],[-16.44309,15.983585],[-16.443026,15.983541],[-16.44296,15.983497],[-16.442895,15.983453],[-16.442838,15.983419],[-16.442785,15.98339],[-16.442734,15.983366],[-16.442688,15.98335],[-16.442647,15.98334],[-16.442605,15.983336],[-16.442557,15.983346],[-16.442525,15.983365],[-16.442517,15.983372],[-16.442509,15.983378],[-16.442502,15.983387],[-16.442494,15.983395],[-16.442479,15.983414],[-16.442468,15.983431],[-16.442458,15.983449],[-16.442445,15.983473],[-16.442432,15.983498],[-16.442421,15.983524],[-16.44241,15.98355],[-16.442384,15.983621],[-16.442376,15.983653],[-16.442359,15.983692],[-16.442332,15.983768],[-16.442305,15.983845],[-16.442289,15.983886],[-16.442257,15.98397],[-16.442242,15.984013],[-16.442214,15.984105],[-16.442171,15.984263],[-16.442147,15.984349],[-16.442109,15.984479],[-16.442051,15.984631],[-16.441972,15.984765],[-16.44189,15.984862],[-16.441866,15.984887],[-16.441815,15.984934],[-16.44179,15.984957],[-16.441763,15.984979],[-16.441737,15.985001],[-16.441686,15.985034],[-16.441659,15.985062],[-16.44159,15.985118],[-16.441503,15.985186],[-16.441423,15.985249],[-16.441395,15.985274],[-16.441366,15.985299],[-16.44134,15.985324],[-16.4413,15.985364],[-16.441286,15.985379],[-16.441281,15.985371],[-16.441257,15.985364],[-16.441234,15.985358],[-16.441211,15.985381],[-16.441188,15.985403],[-16.441164,15.985426],[-16.441141,15.985449],[-16.441118,15.985494],[-16.441072,15.985585],[-16.441026,15.985653],[-16.441003,15.985676],[-16.440933,15.985699],[-16.440793,15.985745],[-16.440723,15.985768],[-16.440676,15.985791],[-16.440583,15.985837],[-16.440537,15.98586],[-16.44042,15.985883],[-16.440304,15.985906],[-16.440187,15.98593],[-16.44007,15.985953],[-16.439977,15.985999],[-16.439931,15.986022],[-16.439861,15.986067],[-16.439791,15.986136],[-16.439745,15.986181],[-16.439652,15.986272],[-16.439629,15.986318],[-16.439583,15.986408],[-16.439537,15.986476],[-16.43949,15.986522],[-16.439421,15.98659],[-16.439374,15.986636]],[[-16.430288,16.02087],[-16.430607,16.020667],[-16.430879,16.020494],[-16.431343,16.019949],[-16.431821,16.018902],[-16.432171,16.018136],[-16.432439,16.016417],[-16.432617,16.014072],[-16.432309,16.019623],[-16.432225,16.021118],[-16.432429,16.021083],[-16.432509,16.019379],[-16.432837,16.013338],[-16.433154,16.006858],[-16.433491,16.004159],[-16.433173,16.004045],[-16.433094,16.003398],[-16.432902,16.002676],[-16.432891,16.00114],[-16.433166,16.000415],[-16.433335,15.997973],[-16.433279,15.997283],[-16.433217,15.996518],[-16.43313,15.995444],[-16.432349,15.994902],[-16.432097,15.994728],[-16.431342,15.993648],[-16.431245,15.993107],[-16.431387,15.992206],[-16.431451,15.991806],[-16.431501,15.991361],[-16.431558,15.991128],[-16.431603,15.990845],[-16.431365,15.989169],[-16.431306,15.988587],[-16.431229,15.988368],[-16.431136,15.988106],[-16.43102,15.987776],[-16.43057,15.987579],[-16.430174,15.987406],[-16.429935,15.987301],[-16.429156,15.987928],[-16.428886,15.988359],[-16.428791,15.989689],[-16.428796,15.990411],[-16.428802,15.991225],[-16.428778,15.99209],[-16.428779,15.993097],[-16.428832,15.994115],[-16.428859,15.994637],[-16.429049,15.995065],[-16.429551,15.99523],[-16.430175,15.995456],[-16.430486,15.995564],[-16.431358,15.995866],[-16.431923,15.996537],[-16.431907,15.996868],[-16.431842,15.998164],[-16.431728,16.000231],[-16.431659,16.001244],[-16.431433,16.002521],[-16.4312,16.003443],[-16.430982,16.004182],[-16.430677,16.005222],[-16.430595,16.006849],[-16.430327,16.008568],[-16.4304,16.009973],[-16.430461,16.01149],[-16.43045,16.012725],[-16.430401,16.012921],[-16.430178,16.013811],[-16.429346,16.015082],[-16.42853,16.015929],[-16.42814,16.016355],[-16.427489,16.016811],[-16.426839,16.017358],[-16.426554,16.017919],[-16.426459,16.018104],[-16.426378,16.018265],[-16.426358,16.018494],[-16.426315,16.018993],[-16.426341,16.019586],[-16.426424,16.020141],[-16.426878,16.020929],[-16.427228,16.021536],[-16.428164,16.021779],[-16.42953,16.02135],[-16.429841,16.021153],[-16.430288,16.02087]]]}},{"type":"Feature","properties":{"nom":"Zone d'extension en cours  (CT)"},"geometry":{"type":"Polygon","coordinates":[[[-16.443417,16.022471],[-16.443413,16.022486],[-16.443409,16.0225],[-16.443406,16.022517],[-16.443403,16.022534],[-16.443401,16.022549],[-16.4434,16.022565],[-16.4434,16.022606],[-16.443409,16.022652],[-16.443424,16.022682],[-16.443439,16.022701],[-16.443469,16.022727],[-16.443493,16.022743],[-16.443521,16.022757],[-16.443553,16.022771],[-16.443588,16.022783],[-16.443627,16.022794],[-16.443668,16.022803],[-16.443713,16.022811],[-16.443737,16.022815],[-16.443775,16.022819],[-16.443812,16.022823],[-16.443866,16.022825],[-16.44392,16.022828],[-16.443978,16.022828],[-16.444036,16.022827],[-16.444097,16.022823],[-16.444157,16.02282],[-16.444218,16.022813],[-16.444245,16.022809],[-16.444279,16.022806],[-16.444338,16.022796],[-16.444397,16.022787],[-16.444453,16.022774],[-16.444479,16.022767],[-16.444548,16.022751],[-16.444587,16.02274],[-16.444657,16.022716],[-16.444721,16.02269],[-16.444776,16.022662],[-16.44479,16.022654],[-16.442452,16.03205],[-16.442378,16.032037],[-16.440643,16.031736],[-16.44081,16.029286],[-16.440919,16.028133],[-16.440807,16.027781],[-16.440329,16.027346],[-16.439908,16.027304],[-16.438919,16.028174],[-16.439124,16.024812],[-16.439354,16.02489],[-16.439704,16.02491],[-16.440077,16.024795],[-16.440718,16.024225],[-16.440798,16.023481],[-16.440894,16.022597],[-16.440886,16.021594],[-16.440883,16.021151],[-16.441345,16.020424],[-16.441472,16.019385],[-16.44161,16.018253],[-16.441533,16.017593],[-16.441214,16.015183],[-16.441849,16.012468],[-16.441649,16.010661],[-16.441362,16.009759],[-16.440892,16.009311],[-16.440489,16.008072],[-16.439953,16.008099],[-16.443667,15.992015],[-16.443945,15.992028],[-16.444692,15.991978],[-16.444878,15.991886],[-16.445064,15.991794],[-16.445204,15.991748],[-16.445344,15.991657],[-16.445436,15.991566],[-16.445529,15.99152],[-16.445622,15.991429],[-16.445528,15.991339],[-16.445434,15.991295],[-16.44534,15.99116],[-16.445386,15.991024],[-16.445432,15.990978],[-16.445385,15.990933],[-16.445336,15.990572],[-16.44538,15.99021],[-16.445426,15.990165],[-16.445379,15.99012],[-16.445285,15.99003],[-16.445096,15.98967],[-16.445049,15.989625],[-16.445234,15.989443],[-16.445187,15.989398],[-16.44514,15.989308],[-16.445186,15.989218],[-16.445232,15.989172],[-16.445418,15.98908],[-16.445558,15.988944],[-16.445603,15.988808],[-16.445509,15.988673],[-16.445323,15.988765],[-16.445205,15.988698],[-16.445041,15.988541],[-16.444713,15.988385],[-16.444666,15.988362],[-16.444611,15.988318],[-16.444562,15.988258],[-16.444568,15.987776],[-16.444614,15.987685],[-16.444706,15.987413],[-16.444752,15.987368],[-16.444658,15.987278],[-16.444751,15.987187],[-16.448247,15.972196],[-16.449902,15.967275],[-16.451527,15.968016],[-16.453016,15.96403],[-16.453674,15.964312],[-16.455031,15.954258],[-16.455665,15.955674],[-16.455655,15.956121],[-16.455499,15.957583],[-16.455194,15.959575],[-16.455704,15.961704],[-16.455619,15.963821],[-16.455751,15.965462],[-16.455908,15.966731],[-16.456095,15.967629],[-16.45691,15.970951],[-16.457654,15.973803],[-16.457825,15.974725],[-16.457799,15.974818],[-16.458486,15.976816],[-16.458659,15.977051],[-16.459201,15.978479],[-16.459174,15.979001],[-16.459804,15.980699],[-16.460787,15.983189],[-16.461551,15.984678],[-16.461934,15.985941],[-16.461919,15.986575],[-16.461624,15.987901],[-16.461576,15.988203],[-16.461022,15.989886],[-16.461152,15.992431],[-16.461241,15.993538],[-16.461257,15.995639],[-16.461275,15.998237],[-16.461197,16.000316],[-16.461085,16.000873],[-16.460818,16.001953],[-16.461022,16.002421],[-16.461363,16.003203],[-16.461283,16.003292],[-16.46096,16.002413],[-16.460145,16.002306],[-16.459434,16.002518],[-16.459068,16.003119],[-16.458655,16.003732],[-16.458331,16.00416],[-16.45707,16.004506],[-16.455833,16.004385],[-16.454873,16.003535],[-16.454709,16.00154],[-16.455162,15.999227],[-16.454347,15.997453],[-16.453636,15.995703],[-16.45324,15.994683],[-16.452524,15.994354],[-16.451465,15.993031],[-16.451189,15.991966],[-16.452009,15.990784],[-16.451708,15.989887],[-16.452317,15.988983],[-16.451809,15.987982],[-16.451651,15.986431],[-16.451226,15.985717],[-16.450729,15.985796],[-16.450471,15.986092],[-16.449924,15.986717],[-16.449805,15.987777],[-16.449667,15.989323],[-16.449586,15.991116],[-16.449456,15.991731],[-16.449161,15.993124],[-16.449012,15.995067],[-16.448366,15.996155],[-16.447901,15.99652],[-16.44715,15.995983],[-16.446861,15.99481],[-16.446389,15.99418],[-16.445922,15.994184],[-16.445456,15.994277],[-16.445086,15.994822],[-16.444999,15.995726],[-16.445381,15.996899],[-16.446038,15.997256],[-16.4467,15.998336],[-16.446724,15.998873],[-16.446831,15.999754],[-16.446963,16.000828],[-16.447078,16.001932],[-16.447202,16.003213],[-16.447177,16.003339],[-16.447147,16.003595],[-16.447144,16.003853],[-16.44717,16.00411],[-16.447223,16.004362],[-16.447259,16.004486],[-16.447302,16.004608],[-16.447352,16.004728],[-16.447442,16.004906],[-16.447539,16.005069],[-16.447666,16.005244],[-16.447778,16.005378],[-16.448002,16.00553],[-16.447693,16.00776],[-16.447438,16.009603],[-16.447207,16.011549],[-16.447275,16.012162],[-16.447483,16.012925],[-16.448289,16.01584],[-16.4486,16.016746],[-16.448633,16.016838],[-16.448001,16.017089],[-16.44753,16.017282],[-16.447402,16.017333],[-16.44736,16.017299],[-16.447327,16.017263],[-16.447303,16.017223],[-16.447286,16.017177],[-16.447277,16.017118],[-16.447276,16.017049],[-16.447282,16.016991],[-16.447287,16.016934],[-16.447292,16.016878],[-16.447299,16.016796],[-16.447298,16.01672],[-16.447285,16.016648],[-16.447266,16.016582],[-16.447239,16.016503],[-16.447224,16.016464],[-16.44719,16.016389],[-16.447153,16.016319],[-16.447112,16.016255],[-16.447046,16.01617],[-16.446983,16.016105],[-16.44691,16.016047],[-16.44685,16.016005],[-16.446808,16.015979],[-16.446766,16.015956],[-16.446723,16.015934],[-16.44666,16.015905],[-16.446619,16.01589],[-16.4466,16.015884],[-16.446578,16.015877],[-16.446539,16.015867],[-16.446501,16.015859],[-16.446464,16.015854],[-16.446429,16.015852],[-16.446396,16.015852],[-16.44638,16.015854],[-16.446365,16.015856],[-16.446365,16.015856],[-16.446336,16.015864],[-16.446306,16.015876],[-16.446274,16.015893],[-16.446251,16.015908],[-16.446229,16.015924],[-16.446196,16.015949],[-16.44618,16.015963],[-16.446157,16.015979],[-16.446132,16.016002],[-16.44609,16.016036],[-16.446047,16.01607],[-16.446014,16.016093],[-16.445999,16.016102],[-16.445955,16.016125],[-16.445928,16.016136],[-16.445901,16.016143],[-16.445872,16.016146],[-16.445856,16.016146],[-16.44584,16.016146],[-16.445803,16.016142],[-16.445766,16.016137],[-16.445728,16.016131],[-16.44569,16.016126],[-16.445652,16.016124],[-16.445636,16.016125],[-16.445619,16.016127],[-16.445606,16.01613],[-16.445594,16.016134],[-16.445584,16.016138],[-16.445574,16.016143],[-16.445564,16.016149],[-16.445554,16.016155],[-16.445544,16.016163],[-16.445535,16.016171],[-16.44552,16.016186],[-16.445506,16.016201],[-16.44548,16.016234],[-16.445454,16.016267],[-16.445429,16.016298],[-16.445405,16.01633],[-16.445389,16.016347],[-16.445374,16.016364],[-16.445361,16.016375],[-16.445349,16.016386],[-16.445333,16.016398],[-16.445305,16.016412],[-16.445285,16.01642],[-16.445264,16.016428],[-16.445218,16.016439],[-16.445192,16.016442],[-16.445166,16.016444],[-16.44514,16.016445],[-16.445114,16.016445],[-16.445059,16.016442],[-16.44499,16.016432],[-16.44492,16.016423],[-16.444843,16.016413],[-16.444766,16.016403],[-16.444697,16.016397],[-16.444652,16.016397],[-16.444592,16.016402],[-16.444572,16.016405],[-16.444499,16.016421],[-16.444447,16.016435],[-16.444395,16.016449],[-16.444347,16.016464],[-16.4443,16.016478],[-16.444257,16.016494],[-16.444213,16.01651],[-16.444135,16.016545],[-16.4441,16.016563],[-16.444034,16.016601],[-16.444003,16.01662],[-16.44395,16.016662],[-16.443914,16.016696],[-16.44389,16.016722],[-16.443868,16.016751],[-16.443837,16.016799],[-16.44379,16.01689],[-16.443761,16.016964],[-16.443735,16.017045],[-16.443721,16.017093],[-16.443695,16.017201],[-16.443681,16.017272],[-16.443667,16.017343],[-16.443657,16.017396],[-16.443644,16.017491],[-16.443645,16.017565],[-16.443657,16.017675],[-16.443671,16.017753],[-16.443697,16.017899],[-16.44371,16.017968],[-16.443715,16.018004],[-16.443721,16.01804],[-16.443724,16.018072],[-16.443727,16.018105],[-16.443728,16.018128],[-16.443728,16.018151],[-16.443726,16.018182],[-16.443722,16.01821],[-16.443719,16.018222],[-16.443715,16.018234],[-16.443707,16.018256],[-16.443701,16.018266],[-16.443695,16.018276],[-16.443682,16.018292],[-16.443666,16.018306],[-16.443647,16.018317],[-16.443624,16.018325],[-16.443597,16.018331],[-16.443565,16.018334],[-16.44353,16.018334],[-16.44349,16.018332],[-16.443378,16.018319],[-16.443315,16.018312],[-16.443252,16.018305],[-16.443197,16.018302],[-16.443163,16.018303],[-16.443133,16.018306],[-16.443108,16.018312],[-16.443084,16.018322],[-16.44306,16.018335],[-16.443038,16.018351],[-16.443017,16.01837],[-16.442997,16.018391],[-16.442979,16.018416],[-16.442963,16.018444],[-16.442948,16.018475],[-16.442935,16.018508],[-16.442923,16.018545],[-16.442913,16.018584],[-16.442905,16.018625],[-16.442901,16.018647],[-16.442898,16.018669],[-16.442893,16.018715],[-16.44289,16.018789],[-16.442889,16.018867],[-16.44289,16.018895],[-16.442891,16.018923],[-16.442899,16.01901],[-16.442915,16.019127],[-16.442938,16.019243],[-16.443002,16.019461],[-16.443052,16.019577],[-16.443084,16.019636],[-16.44317,16.019742],[-16.443232,16.019791],[-16.443311,16.019839],[-16.443406,16.019888],[-16.443475,16.019919],[-16.44361,16.019981],[-16.443735,16.020042],[-16.443792,16.020075],[-16.443846,16.020111],[-16.443913,16.020168],[-16.443933,16.020188],[-16.443955,16.020215],[-16.443978,16.020243],[-16.444004,16.020278],[-16.444054,16.020349],[-16.444078,16.020385],[-16.444099,16.02042],[-16.44412,16.020456],[-16.444157,16.020525],[-16.444187,16.020593],[-16.444211,16.020657],[-16.444228,16.020719],[-16.444233,16.020743],[-16.444238,16.020768],[-16.444241,16.020806],[-16.44424,16.020826],[-16.44424,16.020845],[-16.444235,16.020886],[-16.444221,16.020948],[-16.444215,16.020969],[-16.444199,16.021013],[-16.444179,16.021058],[-16.444147,16.02112],[-16.444122,16.021161],[-16.444097,16.021202],[-16.444068,16.021245],[-16.44404,16.021287],[-16.443935,16.021431],[-16.44388,16.021508],[-16.443756,16.021691],[-16.443728,16.021742],[-16.443615,16.021989],[-16.443569,16.02209],[-16.443526,16.022187],[-16.443482,16.022284],[-16.44345,16.022365],[-16.443438,16.022404],[-16.443425,16.022443],[-16.443417,16.022471]]]}}]}