{"type":"FeatureCollection","name":"economie-gandiol","features":[{"type":"Feature","properties":{"nom":"Projet Agrofish"},"geometry":{"type":"Polygon","coordinates":[[[-16.486431,15.879182],[-16.486848,15.87742],[-16.488668,15.877824],[-16.48846,15.878705],[-16.488251,15.879586],[-16.486431,15.879182]]]}},{"type":"Feature","properties":{"nom":"Kapio"},"geometry":{"type":"Polygon","coordinates":[[[-16.488408,15.897806],[-16.488985,15.894743],[-16.491865,15.894865],[-16.491675,15.896421],[-16.490599,15.896349],[-16.490541,15.896766],[-16.489885,15.896702],[-16.489699,15.897861],[-16.488408,15.897806]],[[-16.491201,15.896043],[-16.4912,15.895907],[-16.491025,15.895908],[-16.491013,15.896044],[-16.491201,15.896043]]]}},{"type":"Feature","properties":{"nom":"Agropharm"},"geometry":{"type":"Polygon","coordinates":[[[-16.481523,15.900354],[-16.481043,15.898601],[-16.482307,15.898013],[-16.482786,15.899732],[-16.481523,15.900354]]]}},{"type":"Feature","properties":{"nom":"KOM Senegal"},"geometry":{"type":"Polygon","coordinates":[[[-16.486662,15.883996],[-16.487248,15.881245],[-16.491465,15.881984],[-16.490929,15.884631],[-16.486662,15.883996]]]}},{"type":"Feature","properties":{"nom":"Projet Afscor Afrique"},"geometry":{"type":"Polygon","coordinates":[[[-16.486848,15.87742],[-16.487161,15.876099],[-16.488981,15.876503],[-16.488668,15.877824],[-16.486848,15.87742]]]}},{"type":"Feature","properties":{"nom":"Projet Agricole"},"geometry":{"type":"Polygon","coordinates":[[[-16.482896,15.899653],[-16.481612,15.895367],[-16.482458,15.895155],[-16.483863,15.899201],[-16.482896,15.899653]]]}},{"type":"Feature","properties":{"nom":"Future Zone Economique Specialisée"},"geometry":{"type":"Polygon","coordinates":[[[-16.444378,15.883708],[-16.438742,15.877594],[-16.437388,15.869445],[-16.436577,15.868504],[-16.436576,15.868503],[-16.436627,15.868357],[-16.437276,15.867459],[-16.437658,15.867553],[-16.440344,15.863537],[-16.445075,15.864192],[-16.451908,15.867561],[-16.451929,15.871095],[-16.44856,15.880259],[-16.44798,15.880801],[-16.446994,15.881724],[-16.44454,15.882143],[-16.444378,15.883708]]]}},{"type":"Feature","properties":{"nom":"Projet SCI  La Conlomb"},"geometry":{"type":"Polygon","coordinates":[[[-16.49883,15.827725],[-16.501268,15.82399],[-16.501346,15.823919],[-16.503691,15.825354],[-16.501559,15.82862],[-16.501418,15.828604],[-16.501268,15.829066],[-16.501198,15.829174],[-16.49883,15.827725]]]}},{"type":"Feature","properties":{"nom":"Projet Albatros"},"geometry":{"type":"Polygon","coordinates":[[[-16.488251,15.879586],[-16.48846,15.878705],[-16.49119,15.879311],[-16.490982,15.880191],[-16.488251,15.879586]]]}},{"type":"Feature","properties":{"nom":"Centre de Formation Professionelle"},"geometry":{"type":"Polygon","coordinates":[[[-16.505261,15.877441],[-16.505265,15.876118],[-16.505872,15.87585],[-16.505868,15.877311],[-16.505261,15.877441]]]}},{"type":"Feature","properties":{"nom":"Centre de Santé"},"geometry":{"type":"Polygon","coordinates":[[[-16.505261,15.877441],[-16.50404,15.877703],[-16.504005,15.876673],[-16.505265,15.876118],[-16.505261,15.877441]]]}},{"type":"Feature","properties":{"nom":"Future Lycee de la COMMUNE"},"geometry":{"type":"Polygon","coordinates":[[[-16.505872,15.87585],[-16.505265,15.876118],[-16.504005,15.876673],[-16.50377,15.875784],[-16.505637,15.874961],[-16.505872,15.87585]]]}},{"type":"Feature","properties":{"nom":"Centre de Foot Ball Professionnel"},"geometry":{"type":"Polygon","coordinates":[[[-16.488399,15.889501],[-16.486904,15.888873],[-16.487372,15.887325],[-16.489762,15.88822],[-16.489499,15.889613],[-16.488399,15.889501]]]}}]}