{"type":"FeatureCollection","name":"economie-gandon","features":[{"type":"Feature","properties":{"nom":"Future Zone Economique Specialisée"},"geometry":{"type":"Polygon","coordinates":[[[-16.436576,15.868503],[-16.436577,15.868504],[-16.437388,15.869445],[-16.438742,15.877594],[-16.444378,15.883708],[-16.444355,15.883933],[-16.44326,15.885212],[-16.44326,15.88643],[-16.442209,15.887586],[-16.441715,15.889525],[-16.439065,15.893194],[-16.429087,15.893189],[-16.430338,15.890991],[-16.428262,15.889588],[-16.428519,15.888644],[-16.428509,15.887957],[-16.428718,15.886931],[-16.430156,15.882447],[-16.432162,15.880275],[-16.431991,15.877509],[-16.433508,15.874718],[-16.435954,15.870291],[-16.436576,15.868503]]]}},{"type":"Feature","properties":{"nom":"Future Zone Economique Specialisée"},"geometry":{"type":"Polygon","coordinates":[[[-16.375823,15.956126],[-16.35646,15.953887],[-16.363291,15.935471],[-16.372278,15.935468],[-16.375823,15.956126]]]}},{"type":"Feature","properties":{"nom":"Projet de construction d'un Hôtel"},"geometry":{"type":"Polygon","coordinates":[[[-16.483699,15.970379],[-16.48157,15.968567],[-16.479992,15.968809],[-16.4791,15.966678],[-16.483811,15.967625],[-16.48451,15.968789],[-16.483699,15.970379]]]}},{"type":"Feature","properties":{"nom":"Projet de Construction d'un Hôpital"},"geometry":{"type":"Polygon","coordinates":[[[-16.48213,15.973317],[-16.481604,15.972192],[-16.479992,15.968809],[-16.48157,15.968567],[-16.483699,15.970379],[-16.483247,15.972487],[-16.48213,15.973317]]]}}]}