{"type":"FeatureCollection","name":"future-autoroute","features":[{"type":"Feature","properties":{"nom":"Future autoroute (corridor projeté)"},"geometry":{"type":"Polygon","coordinates":[[[-16.461238,15.760121],[-16.461237,15.760123],[-16.449727,15.780211],[-16.449727,15.780212],[-16.440222,15.796702],[-16.42792,15.818172],[-16.427918,15.818174],[-16.423967,15.824968],[-16.42262,15.831356],[-16.42304,15.834618],[-16.423556,15.837954],[-16.423561,15.838012],[-16.423832,15.851831],[-16.424493,15.863573],[-16.425305,15.86874],[-16.427935,15.876917],[-16.429709,15.881817],[-16.429716,15.881836],[-16.430206,15.883421],[-16.430218,15.883472],[-16.430883,15.887079],[-16.430885,15.887091],[-16.431981,15.894209],[-16.431981,15.894213],[-16.434386,15.910764],[-16.436301,15.923593],[-16.438155,15.929223],[-16.441078,15.936483],[-16.443074,15.941445],[-16.443092,15.941501],[-16.444527,15.947162],[-16.44454,15.947271],[-16.444527,15.951466],[-16.444496,15.951626],[-16.444408,15.951765],[-16.439514,15.957071],[-16.438048,15.961311],[-16.437626,15.964201],[-16.438889,15.966076],[-16.438915,15.966121],[-16.440117,15.968444],[-16.440166,15.968622],[-16.440438,15.973513],[-16.440421,15.97366],[-16.439515,15.976781],[-16.439467,15.976889],[-16.436712,15.981388],[-16.435652,15.983966],[-16.435,15.986806],[-16.434898,15.991399],[-16.434896,15.991429],[-16.434493,15.995805],[-16.434274,16.00178],[-16.434274,16.00179],[-16.433535,16.01423],[-16.433229,16.020301],[-16.433229,16.020313],[-16.432589,16.02837],[-16.43257,16.028467],[-16.43078,16.03417],[-16.430711,16.034303],[-16.428207,16.037651],[-16.428166,16.037698],[-16.421273,16.044668],[-16.418372,16.048014],[-16.416693,16.051026],[-16.414873,16.056495],[-16.413889,16.059721],[-16.413826,16.059849],[-16.413726,16.059951],[-16.413597,16.060019],[-16.413453,16.060045],[-16.413308,16.060027],[-16.413176,16.059966],[-16.41307,16.059869],[-16.413,16.059745],[-16.412973,16.059606],[-16.412992,16.059465],[-16.413978,16.056234],[-16.413981,16.056223],[-16.415817,16.050709],[-16.41585,16.050633],[-16.417572,16.047544],[-16.417626,16.047468],[-16.420566,16.044076],[-16.420587,16.044054],[-16.427468,16.037096],[-16.429908,16.033835],[-16.431661,16.028251],[-16.432296,16.020251],[-16.432601,16.014184],[-16.432602,16.01418],[-16.433341,16.001743],[-16.433559,15.99576],[-16.433561,15.995736],[-16.433964,15.991364],[-16.434066,15.986742],[-16.434078,15.986653],[-16.434748,15.983734],[-16.43477,15.983665],[-16.435858,15.981021],[-16.43589,15.980957],[-16.438632,15.976479],[-16.439501,15.973487],[-16.439238,15.968765],[-16.438091,15.966548],[-16.436748,15.964553],[-16.436683,15.964404],[-16.436677,15.964243],[-16.437129,15.961144],[-16.437148,15.961064],[-16.438658,15.956696],[-16.438753,15.956538],[-16.443593,15.951291],[-16.443606,15.947323],[-16.442192,15.941745],[-16.440207,15.936811],[-16.43728,15.929538],[-16.43727,15.929511],[-16.4354,15.923832],[-16.435382,15.923759],[-16.433461,15.910893],[-16.433461,15.910891],[-16.431057,15.89434],[-16.429962,15.887231],[-16.429304,15.883656],[-16.428824,15.882106],[-16.427051,15.877209],[-16.427046,15.877194],[-16.424403,15.868976],[-16.424388,15.86891],[-16.423567,15.863687],[-16.423562,15.863644],[-16.422899,15.851872],[-16.422898,15.851856],[-16.422628,15.838059],[-16.422115,15.834747],[-16.422114,15.834736],[-16.421684,15.831394],[-16.42169,15.831248],[-16.423067,15.824718],[-16.423117,15.824587],[-16.427104,15.817732],[-16.439406,15.796263],[-16.439406,15.796262],[-16.448912,15.779772],[-16.460421,15.759685],[-16.463487,15.754296],[-16.463577,15.754185],[-16.463698,15.754105],[-16.463838,15.754066],[-16.463984,15.754071],[-16.464121,15.754119],[-16.464237,15.754206],[-16.464318,15.754323],[-16.464359,15.754458],[-16.464354,15.7546],[-16.464305,15.754733],[-16.461238,15.760121]]]}}]}