{"type":"FeatureCollection","name":"conservation-zones.geojson","features":[{"type":"Feature","properties":{"categorie":"Protection Naturel"},"geometry":{"type":"Polygon","coordinates":[[[-16.477636,16.026889],[-16.477629,16.026853],[-16.477782,16.026829],[-16.477925,16.027235],[-16.478602,16.028064],[-16.480562,16.030323],[-16.482882,16.033052],[-16.485285,16.035764],[-16.485704,16.036118],[-16.486124,16.036276],[-16.486664,16.036338],[-16.486904,16.036294],[-16.487295,16.036126],[-16.487535,16.035927],[-16.490174,16.032484],[-16.49156,16.031764],[-16.491597,16.031865],[-16.491601,16.031875],[-16.491509,16.031918],[-16.490871,16.032322],[-16.490256,16.032713],[-16.489954,16.033134],[-16.489948,16.033418],[-16.489613,16.034023],[-16.489205,16.035052],[-16.488986,16.035102],[-16.488691,16.035348],[-16.488632,16.035591],[-16.488579,16.03604],[-16.488211,16.036549],[-16.488166,16.036782],[-16.4885,16.036839],[-16.488588,16.036965],[-16.488423,16.037205],[-16.488196,16.037391],[-16.488177,16.037386],[-16.487821,16.037295],[-16.487626,16.037257],[-16.487189,16.037255],[-16.487188,16.037256],[-16.487033,16.03728],[-16.487031,16.037276],[-16.486866,16.036961],[-16.486755,16.036752],[-16.486604,16.036652],[-16.486599,16.036665],[-16.486493,16.036933],[-16.486454,16.037122],[-16.485961,16.037352],[-16.485952,16.037344],[-16.485576,16.036992],[-16.485296,16.036806],[-16.484943,16.036804],[-16.4846,16.036644],[-16.484337,16.036506],[-16.484312,16.036506],[-16.484041,16.036512],[-16.483752,16.036553],[-16.483742,16.036551],[-16.483316,16.036471],[-16.48299,16.036359],[-16.482666,16.036315],[-16.482419,16.036225],[-16.482425,16.035922],[-16.482228,16.03559],[-16.482359,16.035286],[-16.482415,16.03496],[-16.48243,16.034693],[-16.482309,16.034522],[-16.482159,16.034351],[-16.482077,16.034134],[-16.482226,16.033885],[-16.482368,16.033781],[-16.482507,16.033604],[-16.482628,16.033351],[-16.48278,16.033148],[-16.482557,16.03283],[-16.482552,16.032859],[-16.482504,16.033129],[-16.482392,16.033388],[-16.482181,16.033701],[-16.482077,16.033774],[-16.481975,16.033856],[-16.481914,16.034017],[-16.481877,16.03424],[-16.481917,16.034387],[-16.482028,16.034502],[-16.482115,16.034587],[-16.482206,16.034677],[-16.482239,16.034777],[-16.482168,16.035237],[-16.482101,16.035306],[-16.481946,16.035431],[-16.481919,16.035555],[-16.481932,16.035625],[-16.482029,16.035771],[-16.482095,16.035871],[-16.482132,16.036008],[-16.482107,16.036178],[-16.48204,16.036351],[-16.48193,16.036364],[-16.481583,16.036445],[-16.481203,16.036462],[-16.481199,16.036461],[-16.480964,16.036421],[-16.480813,16.036239],[-16.480716,16.035997],[-16.480456,16.035675],[-16.480337,16.035189],[-16.480318,16.035059],[-16.480408,16.034824],[-16.480522,16.034525],[-16.480566,16.034221],[-16.480609,16.033825],[-16.480662,16.033453],[-16.480677,16.033186],[-16.480605,16.032802],[-16.480098,16.032004],[-16.479841,16.031559],[-16.479501,16.03133],[-16.479223,16.030969],[-16.479141,16.030689],[-16.47902,16.030449],[-16.478444,16.02976],[-16.478409,16.029386],[-16.47819,16.028777],[-16.478065,16.028395],[-16.477869,16.027894],[-16.477726,16.027441],[-16.477763,16.027218],[-16.477664,16.026962],[-16.477636,16.026889]]]}},{"type":"Feature","properties":{"categorie":"Protection Naturel"},"geometry":{"type":"Polygon","coordinates":[[[-16.496947,16.011828],[-16.496919,16.011516],[-16.497314,16.010976],[-16.497453,16.010416],[-16.497326,16.00831],[-16.497376,16.007059],[-16.497336,16.006129],[-16.49734,16.005951],[-16.497514,16.005871],[-16.497587,16.005747],[-16.49767,16.005583],[-16.497785,16.005316],[-16.497782,16.004989],[-16.497759,16.004702],[-16.497704,16.004416],[-16.497734,16.004252],[-16.497796,16.004037],[-16.497878,16.003678],[-16.498023,16.003176],[-16.498052,16.00292],[-16.498135,16.002653],[-16.498155,16.002428],[-16.498312,16.002212],[-16.498447,16.001904],[-16.498582,16.001575],[-16.498644,16.001319],[-16.498683,16.00095],[-16.498755,16.000643],[-16.498742,16.000387],[-16.498677,16.00007],[-16.498738,15.999783],[-16.498831,15.999445],[-16.498924,15.999199],[-16.49905,15.999075],[-16.49906,15.999075],[-16.499086,15.999075],[-16.499173,15.999074],[-16.499198,15.999074],[-16.499252,15.999237],[-16.499211,15.999412],[-16.499234,15.999565],[-16.499298,15.999698],[-16.499258,15.999974],[-16.499238,16.000148],[-16.499292,16.000312],[-16.499336,16.000516],[-16.49938,16.00072],[-16.499507,16.000822],[-16.499551,16.000975],[-16.499551,16.001047],[-16.499552,16.001139],[-16.499607,16.001415],[-16.499735,16.001578],[-16.499842,16.001679],[-16.499928,16.001842],[-16.499972,16.002067],[-16.500015,16.00221],[-16.500101,16.002332],[-16.500313,16.002484],[-16.500462,16.002596],[-16.500612,16.002759],[-16.500665,16.002881],[-16.500635,16.003055],[-16.500562,16.00325],[-16.500459,16.003517],[-16.500397,16.003773],[-16.500325,16.004009],[-16.500242,16.004265],[-16.50018,16.004481],[-16.500098,16.004778],[-16.500089,16.005044],[-16.499996,16.005301],[-16.499872,16.00567],[-16.499654,16.006255],[-16.499549,16.00644],[-16.499434,16.006553],[-16.499339,16.006646],[-16.499256,16.006872],[-16.499131,16.007057],[-16.499015,16.007181],[-16.4989,16.007355],[-16.498754,16.007602],[-16.498629,16.007838],[-16.498546,16.008074],[-16.498463,16.008371],[-16.498433,16.008525],[-16.498403,16.008761],[-16.498298,16.008895],[-16.498129,16.008906],[-16.498126,16.008905],[-16.498001,16.008835],[-16.497958,16.008672],[-16.497946,16.00858],[-16.497903,16.008416],[-16.49786,16.008314],[-16.497784,16.008141],[-16.49773,16.007998],[-16.497656,16.007958],[-16.497647,16.007966],[-16.497572,16.00804],[-16.4975,16.008348],[-16.49747,16.008583],[-16.497526,16.00891],[-16.497529,16.009412],[-16.497632,16.009568],[-16.497636,16.009575],[-16.497816,16.009512],[-16.497979,16.009432],[-16.497985,16.009429],[-16.498133,16.009448],[-16.498303,16.00955],[-16.498505,16.00964],[-16.498706,16.009721],[-16.498823,16.009812],[-16.498909,16.009944],[-16.498995,16.0102],[-16.499009,16.010548],[-16.499051,16.010743],[-16.499052,16.010752],[-16.499242,16.010679],[-16.499394,16.010589],[-16.4994,16.010586],[-16.499506,16.010605],[-16.499593,16.01085],[-16.499648,16.011147],[-16.499702,16.01131],[-16.499799,16.011535],[-16.499864,16.011698],[-16.499865,16.011851],[-16.499676,16.012006],[-16.49965,16.012006],[-16.499623,16.012007],[-16.499528,16.012059],[-16.499528,16.01213],[-16.499539,16.012191],[-16.499784,16.012405],[-16.499905,16.012422],[-16.499922,16.012424],[-16.500075,16.012377],[-16.500091,16.012372],[-16.500197,16.012422],[-16.50024,16.012494],[-16.500283,16.012606],[-16.500316,16.012718],[-16.500401,16.012851],[-16.500413,16.012953],[-16.50035,16.012994],[-16.500324,16.012994],[-16.500254,16.012995],[-16.500229,16.012995],[-16.500149,16.012996],[-16.500128,16.013067],[-16.500139,16.01317],[-16.50014,16.013293],[-16.50012,16.013436],[-16.500069,16.013743],[-16.499907,16.014645],[-16.499568,16.015472],[-16.499555,16.015442],[-16.499223,16.014671],[-16.499043,16.014341],[-16.498923,16.014159],[-16.498769,16.014069],[-16.498627,16.013956],[-16.498625,16.01375],[-16.498601,16.013693],[-16.499199,16.013118],[-16.499529,16.012967],[-16.498814,16.010538],[-16.49764,16.011552],[-16.497062,16.011976],[-16.496947,16.011828]]]}},{"type":"Feature","properties":{"categorie":"Protection Naturel"},"geometry":{"type":"Polygon","coordinates":[[[-16.472583,16.033488],[-16.472862,16.032867],[-16.473257,16.032415],[-16.473494,16.032144],[-16.473844,16.031705],[-16.474434,16.030783],[-16.474688,16.030323],[-16.474781,16.030156],[-16.475156,16.0296],[-16.475416,16.029406],[-16.475583,16.029282],[-16.47561,16.029262],[-16.475842,16.028892],[-16.475952,16.028391],[-16.475982,16.028185],[-16.476,16.027964],[-16.475862,16.027804],[-16.475982,16.02767],[-16.476,16.027725],[-16.476014,16.027882],[-16.47604,16.027991],[-16.476116,16.028124],[-16.476091,16.028233],[-16.476068,16.02839],[-16.476081,16.028535],[-16.476058,16.028826],[-16.476009,16.028947],[-16.476023,16.029093],[-16.476061,16.029129],[-16.47621,16.029079],[-16.47636,16.029054],[-16.476461,16.029114],[-16.476487,16.029198],[-16.476612,16.029234],[-16.476712,16.029282],[-16.476713,16.02939],[-16.476739,16.029511],[-16.47679,16.029571],[-16.476778,16.02962],[-16.47674,16.029681],[-16.476578,16.029694],[-16.47649,16.02967],[-16.476389,16.029538],[-16.476313,16.029381],[-16.476287,16.029224],[-16.476224,16.029188],[-16.476124,16.029249],[-16.476126,16.029455],[-16.476176,16.029515],[-16.476239,16.029575],[-16.476352,16.029659],[-16.476366,16.029804],[-16.476366,16.029865],[-16.476304,16.029926],[-16.476191,16.029915],[-16.476091,16.029867],[-16.476053,16.029758],[-16.476039,16.029661],[-16.476001,16.029553],[-16.475938,16.029553],[-16.475864,16.02965],[-16.475827,16.029772],[-16.475804,16.029917],[-16.475805,16.030111],[-16.475794,16.030268],[-16.475769,16.030353],[-16.47567,16.030463],[-16.475533,16.030609],[-16.475397,16.030864],[-16.475361,16.031022],[-16.475263,16.031252],[-16.475276,16.031422],[-16.475315,16.031506],[-16.475341,16.031639],[-16.475291,16.0317],[-16.475204,16.031785],[-16.475104,16.031871],[-16.474968,16.031981],[-16.474843,16.032102],[-16.474707,16.032249],[-16.47457,16.032334],[-16.474345,16.032457],[-16.474204,16.032511],[-16.474069,16.032638],[-16.474041,16.032831],[-16.474087,16.033458],[-16.474031,16.033879],[-16.473961,16.034102],[-16.473937,16.034099],[-16.473771,16.034081],[-16.473748,16.034081],[-16.473563,16.034085],[-16.473328,16.034176],[-16.473236,16.034287],[-16.473052,16.034486],[-16.472885,16.034596],[-16.472862,16.034594],[-16.472595,16.034579],[-16.47258,16.03458],[-16.4723,16.034594],[-16.472119,16.034607],[-16.47212,16.034605],[-16.472583,16.033488]]]}},{"type":"Feature","properties":{"categorie":"Protection Naturel"},"geometry":{"type":"Polygon","coordinates":[[[-16.459503,16.065248],[-16.460271,16.061807],[-16.457843,16.061261],[-16.456929,16.060604],[-16.456585,16.060228],[-16.458494,16.060344],[-16.459946,16.060124],[-16.461263,16.05995],[-16.461327,16.060799],[-16.462076,16.060707],[-16.462125,16.060852],[-16.463022,16.060973],[-16.463046,16.061001],[-16.46312,16.060994],[-16.463246,16.061083],[-16.463314,16.061298],[-16.463522,16.061528],[-16.463581,16.06172],[-16.463652,16.061862],[-16.463645,16.061927],[-16.463827,16.062522],[-16.463688,16.062799],[-16.463683,16.062887],[-16.463645,16.063032],[-16.463576,16.063022],[-16.463361,16.063448],[-16.463648,16.063608],[-16.463664,16.063658],[-16.464214,16.063999],[-16.464878,16.062922],[-16.467379,16.06011],[-16.467209,16.058868],[-16.467721,16.058465],[-16.467994,16.057551],[-16.46797,16.057168],[-16.4674,16.056951],[-16.466437,16.05692],[-16.466084,16.056811],[-16.465579,16.056165],[-16.465198,16.055756],[-16.464881,16.055174],[-16.46455,16.054741],[-16.464244,16.054411],[-16.464183,16.053794],[-16.464211,16.05322],[-16.463055,16.051502],[-16.462719,16.051115],[-16.462032,16.046764],[-16.462124,16.045157],[-16.462298,16.042152],[-16.462283,16.041791],[-16.462371,16.04179],[-16.462452,16.041631],[-16.462499,16.04136],[-16.46258,16.041153],[-16.46271,16.040994],[-16.462791,16.040803],[-16.462839,16.040628],[-16.46287,16.040389],[-16.462982,16.040039],[-16.463145,16.039831],[-16.463258,16.03964],[-16.463372,16.039417],[-16.463436,16.039178],[-16.463434,16.038908],[-16.463382,16.038591],[-16.463232,16.038306],[-16.463083,16.038117],[-16.463065,16.03791],[-16.463293,16.037623],[-16.463313,16.037601],[-16.466658,16.037114],[-16.467033,16.037023],[-16.467272,16.036919],[-16.467051,16.038025],[-16.467052,16.038044],[-16.467059,16.038174],[-16.467028,16.038325],[-16.467039,16.03861],[-16.467136,16.038782],[-16.467303,16.038937],[-16.467425,16.039036],[-16.467614,16.039034],[-16.467847,16.039024],[-16.467871,16.039023],[-16.468011,16.039125],[-16.468014,16.039127],[-16.468157,16.039114],[-16.468254,16.039063],[-16.468307,16.038929],[-16.468327,16.038849],[-16.468521,16.038752],[-16.468705,16.038718],[-16.468861,16.038616],[-16.469248,16.038353],[-16.469362,16.038314],[-16.46958,16.038307],[-16.469696,16.03829],[-16.469871,16.038154],[-16.469992,16.038034],[-16.470031,16.037865],[-16.470069,16.037697],[-16.4701,16.037685],[-16.470104,16.037684],[-16.470288,16.037696],[-16.470305,16.037697],[-16.470532,16.037659],[-16.470587,16.037539],[-16.470621,16.037434],[-16.470663,16.037244],[-16.470697,16.036942],[-16.47077,16.036793],[-16.471215,16.03646],[-16.471648,16.036204],[-16.471829,16.036064],[-16.471912,16.035779],[-16.47192,16.035396],[-16.471972,16.035166],[-16.472037,16.035043],[-16.472313,16.034929],[-16.472941,16.034891],[-16.4731,16.034839],[-16.473233,16.034761],[-16.473424,16.034522],[-16.47357,16.034357],[-16.473576,16.034351],[-16.473668,16.03438],[-16.474013,16.034409],[-16.474036,16.034411],[-16.474113,16.034335],[-16.474253,16.034084],[-16.474382,16.03339],[-16.474389,16.032716],[-16.475285,16.032065],[-16.475522,16.03176],[-16.475609,16.03152],[-16.475687,16.031175],[-16.475792,16.030906],[-16.476013,16.030745],[-16.476287,16.030576],[-16.476525,16.030371],[-16.476605,16.030044],[-16.476632,16.029888],[-16.476731,16.029874],[-16.476747,16.029872],[-16.477002,16.029938],[-16.477137,16.030079],[-16.477599,16.030612],[-16.477689,16.030738],[-16.477928,16.030779],[-16.478136,16.030944],[-16.478377,16.031264],[-16.47849,16.031494],[-16.478684,16.031784],[-16.47883,16.032019],[-16.478824,16.032483],[-16.478737,16.033023],[-16.47875,16.033258],[-16.478721,16.033888],[-16.47885,16.034302],[-16.478777,16.034772],[-16.478684,16.035489],[-16.478719,16.035868],[-16.478718,16.036297],[-16.47869,16.03721],[-16.478556,16.037881],[-16.478469,16.038385],[-16.478203,16.040265],[-16.478137,16.040822],[-16.477971,16.041771],[-16.47785,16.042189],[-16.477691,16.042409],[-16.477601,16.042511],[-16.477591,16.042706],[-16.47757,16.042821],[-16.477523,16.043052],[-16.477416,16.043202],[-16.47708,16.043403],[-16.476831,16.043657],[-16.476656,16.043809],[-16.476484,16.043891],[-16.476312,16.044164],[-16.476006,16.044721],[-16.475633,16.045181],[-16.475421,16.045384],[-16.475309,16.045443],[-16.475074,16.045483],[-16.475069,16.04548],[-16.47499,16.045435],[-16.47495,16.04537],[-16.474919,16.045294],[-16.474873,16.045211],[-16.474836,16.045159],[-16.474755,16.045108],[-16.474603,16.045047],[-16.47444,16.045037],[-16.474429,16.045038],[-16.474275,16.045052],[-16.474141,16.04508],[-16.47388,16.045104],[-16.473752,16.045156],[-16.473635,16.045208],[-16.473523,16.045258],[-16.473386,16.045305],[-16.473218,16.045328],[-16.473033,16.045337],[-16.472933,16.045384],[-16.472866,16.045449],[-16.472819,16.045517],[-16.472761,16.045634],[-16.47272,16.045762],[-16.472647,16.045833],[-16.472483,16.045899],[-16.472287,16.045987],[-16.472125,16.046053],[-16.471985,16.046127],[-16.471916,16.046204],[-16.47181,16.046213],[-16.471806,16.046211],[-16.471759,16.046191],[-16.471691,16.046146],[-16.471655,16.046108],[-16.471528,16.046],[-16.47148,16.045952],[-16.471325,16.045869],[-16.471199,16.045813],[-16.471092,16.045776],[-16.471044,16.045744],[-16.470943,16.045677],[-16.470878,16.045585],[-16.470863,16.045496],[-16.47082,16.045352],[-16.470813,16.045244],[-16.470708,16.045066],[-16.470699,16.044963],[-16.470722,16.044949],[-16.470814,16.044916],[-16.470912,16.044877],[-16.470987,16.044855],[-16.471096,16.044814],[-16.471155,16.044786],[-16.471289,16.044748],[-16.471351,16.044721],[-16.471353,16.04472],[-16.47142,16.044722],[-16.471545,16.044728],[-16.471566,16.044729],[-16.471642,16.04471],[-16.471675,16.044661],[-16.471666,16.044615],[-16.471626,16.04455],[-16.471581,16.044477],[-16.471516,16.044399],[-16.471504,16.044331],[-16.471526,16.044293],[-16.471551,16.044263],[-16.471616,16.044206],[-16.471646,16.044165],[-16.471744,16.044129],[-16.471788,16.044088],[-16.47183,16.044058],[-16.471878,16.044017],[-16.471925,16.043982],[-16.471969,16.043908],[-16.471949,16.043854],[-16.471907,16.043814],[-16.471851,16.043776],[-16.471833,16.043711],[-16.471839,16.043673],[-16.471897,16.043638],[-16.471922,16.043556],[-16.471921,16.04347],[-16.471943,16.043432],[-16.471982,16.043415],[-16.471999,16.043391],[-16.471993,16.043342],[-16.471973,16.043307],[-16.471953,16.043277],[-16.471929,16.043279],[-16.471911,16.04328],[-16.471875,16.043307],[-16.471819,16.043348],[-16.471822,16.04337],[-16.471853,16.043389],[-16.471876,16.043419],[-16.471876,16.043454],[-16.471876,16.043486],[-16.471874,16.043532],[-16.471866,16.043573],[-16.471838,16.043603],[-16.471782,16.043628],[-16.471769,16.043677],[-16.471788,16.043709],[-16.471808,16.043763],[-16.471848,16.043841],[-16.471913,16.043892],[-16.47191,16.043914],[-16.471869,16.043944],[-16.471821,16.043958],[-16.471771,16.043983],[-16.471737,16.044024],[-16.471718,16.04407],[-16.47166,16.0441],[-16.471612,16.044106],[-16.471581,16.044141],[-16.471551,16.044179],[-16.471501,16.044212],[-16.471448,16.044229],[-16.471411,16.044237],[-16.471375,16.044259],[-16.471361,16.044284],[-16.47137,16.044332],[-16.471398,16.044357],[-16.471432,16.044383],[-16.471455,16.044456],[-16.471486,16.044519],[-16.471543,16.04457],[-16.471582,16.044591],[-16.471602,16.044607],[-16.471613,16.044648],[-16.471594,16.044672],[-16.471571,16.044675],[-16.471555,16.044674],[-16.471526,16.044673],[-16.471482,16.044654],[-16.471439,16.044633],[-16.471389,16.04463],[-16.471378,16.044631],[-16.47135,16.044633],[-16.471313,16.044655],[-16.471249,16.044685],[-16.47121,16.044694],[-16.47116,16.04471],[-16.471093,16.044743],[-16.47104,16.044768],[-16.471012,16.044777],[-16.470945,16.044788],[-16.470864,16.044821],[-16.470805,16.044854],[-16.470763,16.044873],[-16.470742,16.044871],[-16.470707,16.044868],[-16.470623,16.044825],[-16.470558,16.044812],[-16.470496,16.044788],[-16.470401,16.044756],[-16.47033,16.044722],[-16.470243,16.044698],[-16.470145,16.044666],[-16.470064,16.044648],[-16.470038,16.044648],[-16.469994,16.044648],[-16.469929,16.044662],[-16.469859,16.044673],[-16.46984,16.044673],[-16.46975,16.044669],[-16.469725,16.044669],[-16.469674,16.044669],[-16.469649,16.044669],[-16.469562,16.04467],[-16.469453,16.044701],[-16.469322,16.044718],[-16.469313,16.044716],[-16.469153,16.044681],[-16.468942,16.044558],[-16.468855,16.044455],[-16.468748,16.044369],[-16.46863,16.04433],[-16.468604,16.04433],[-16.468523,16.04433],[-16.468456,16.044352],[-16.468381,16.044402],[-16.468356,16.044497],[-16.468388,16.044589],[-16.46845,16.044637],[-16.468498,16.04471],[-16.468498,16.04474],[-16.468425,16.044762],[-16.468327,16.044784],[-16.468271,16.044787],[-16.468233,16.044823],[-16.468211,16.044893],[-16.468211,16.044983],[-16.468206,16.045059],[-16.46817,16.045089],[-16.468147,16.045087],[-16.468069,16.045081],[-16.46803,16.045068],[-16.467934,16.045028],[-16.467825,16.04498],[-16.467796,16.044964],[-16.467784,16.044971],[-16.467735,16.044999],[-16.467673,16.045008],[-16.467655,16.045007],[-16.467617,16.045006],[-16.467617,16.045007],[-16.467587,16.045071],[-16.467554,16.045106],[-16.467529,16.045107],[-16.4675,16.045107],[-16.46743,16.045088],[-16.46742,16.045092],[-16.467397,16.045102],[-16.46731,16.045151],[-16.467218,16.045214],[-16.46714,16.045293],[-16.467046,16.045351],[-16.467047,16.045373],[-16.467049,16.045386],[-16.467096,16.045359],[-16.467149,16.045337],[-16.467196,16.045296],[-16.467261,16.045249],[-16.467327,16.045192],[-16.4674,16.045145],[-16.467449,16.045139],[-16.467467,16.045137],[-16.46753,16.045154],[-16.467543,16.045158],[-16.46759,16.045144],[-16.467618,16.045103],[-16.467654,16.04506],[-16.467721,16.045048],[-16.467763,16.045035],[-16.467801,16.045016],[-16.467814,16.04501],[-16.467875,16.045039],[-16.467926,16.045079],[-16.467982,16.04509],[-16.46803,16.045095],[-16.4681,16.045138],[-16.468144,16.045139],[-16.468165,16.04514],[-16.468235,16.045126],[-16.468268,16.045066],[-16.468305,16.045027],[-16.46831,16.045023],[-16.468385,16.045038],[-16.468458,16.04507],[-16.468512,16.045124],[-16.468574,16.045183],[-16.4686,16.045235],[-16.468592,16.045308],[-16.468567,16.045357],[-16.468522,16.045379],[-16.468452,16.045398],[-16.468354,16.04541],[-16.468324,16.045459],[-16.468357,16.045484],[-16.468366,16.045491],[-16.468391,16.04548],[-16.468433,16.04545],[-16.468472,16.04543],[-16.468481,16.045425],[-16.46852,16.045436],[-16.468538,16.045468],[-16.46854,16.045471],[-16.468565,16.045468],[-16.46859,16.045416],[-16.468618,16.045375],[-16.468656,16.045318],[-16.468656,16.045272],[-16.468644,16.045207],[-16.468582,16.045137],[-16.46852,16.045078],[-16.468481,16.045043],[-16.468329,16.044985],[-16.468295,16.044977],[-16.46827,16.044974],[-16.468253,16.044912],[-16.468283,16.044868],[-16.468336,16.044846],[-16.468381,16.044832],[-16.468445,16.044819],[-16.468507,16.04481],[-16.468546,16.044764],[-16.468548,16.044709],[-16.468539,16.04465],[-16.468517,16.044582],[-16.46848,16.044531],[-16.468454,16.044474],[-16.468501,16.044431],[-16.468563,16.044406],[-16.468616,16.044392],[-16.468652,16.044392],[-16.468678,16.044392],[-16.468725,16.044418],[-16.468773,16.044456],[-16.468869,16.044566],[-16.468963,16.044666],[-16.469087,16.044752],[-16.469241,16.044805],[-16.469359,16.044814],[-16.469375,16.044815],[-16.469476,16.0448],[-16.469565,16.044767],[-16.469719,16.04474],[-16.469852,16.044726],[-16.469857,16.044725],[-16.470029,16.044728],[-16.470164,16.044763],[-16.470328,16.044801],[-16.470452,16.044844],[-16.470557,16.044905],[-16.470591,16.044984],[-16.47066,16.045157],[-16.47072,16.045251],[-16.47074,16.045334],[-16.470763,16.045424],[-16.470764,16.045539],[-16.470772,16.045604],[-16.470806,16.045684],[-16.470892,16.045788],[-16.471046,16.045888],[-16.471122,16.045927],[-16.471216,16.046021],[-16.471302,16.0461],[-16.471359,16.046143],[-16.471434,16.046185],[-16.47155,16.046257],[-16.471651,16.046285],[-16.471726,16.046324],[-16.471818,16.046363],[-16.47182,16.046364],[-16.471955,16.046359],[-16.47207,16.046326],[-16.472186,16.046278],[-16.472297,16.046172],[-16.472349,16.046107],[-16.472378,16.046052],[-16.472453,16.046034],[-16.472565,16.04599],[-16.472691,16.045917],[-16.472754,16.045847],[-16.472836,16.045749],[-16.472888,16.045641],[-16.472894,16.045561],[-16.472939,16.045521],[-16.472984,16.045492],[-16.473015,16.045487],[-16.473032,16.045484],[-16.473101,16.045507],[-16.473107,16.045509],[-16.473182,16.045501],[-16.473288,16.045473],[-16.473294,16.045471],[-16.473383,16.045478],[-16.473467,16.045477],[-16.473492,16.045477],[-16.473716,16.04545],[-16.473854,16.045428],[-16.473992,16.04538],[-16.474164,16.045324],[-16.474279,16.045269],[-16.474402,16.045196],[-16.474521,16.045188],[-16.474642,16.045187],[-16.474667,16.045187],[-16.474705,16.045198],[-16.474769,16.045252],[-16.474795,16.045306],[-16.474811,16.045389],[-16.474823,16.045475],[-16.474831,16.045537],[-16.474853,16.045587],[-16.474917,16.045645],[-16.474993,16.045742],[-16.474987,16.045868],[-16.474941,16.04592],[-16.474881,16.046171],[-16.474698,16.046572],[-16.474615,16.046672],[-16.474621,16.046635],[-16.474672,16.046317],[-16.474571,16.046069],[-16.474451,16.045859],[-16.474242,16.045708],[-16.473876,16.04571],[-16.47354,16.045751],[-16.473195,16.045878],[-16.473018,16.046022],[-16.472811,16.046215],[-16.472486,16.04637],[-16.472101,16.046507],[-16.471756,16.046586],[-16.47146,16.046674],[-16.471392,16.046923],[-16.471296,16.047268],[-16.471181,16.047776],[-16.471147,16.048522],[-16.471022,16.049058],[-16.470995,16.049451],[-16.471001,16.050283],[-16.471043,16.050608],[-16.471136,16.051143],[-16.471259,16.051706],[-16.471469,16.052011],[-16.471618,16.052048],[-16.471923,16.051884],[-16.472129,16.051633],[-16.472374,16.051297],[-16.47256,16.05099],[-16.472757,16.050608],[-16.472774,16.050575],[-16.472846,16.050854],[-16.473165,16.051369],[-16.473502,16.052905],[-16.47379,16.053635],[-16.474075,16.054601],[-16.4743,16.055605],[-16.474284,16.056371],[-16.473728,16.058646],[-16.473555,16.058752],[-16.473264,16.059024],[-16.472998,16.059125],[-16.472343,16.059417],[-16.471827,16.05972],[-16.471266,16.060283],[-16.470926,16.060846],[-16.47084,16.061469],[-16.470859,16.061776],[-16.470327,16.062138],[-16.469132,16.062596],[-16.469111,16.062595],[-16.468899,16.06258],[-16.468881,16.062581],[-16.468551,16.062594],[-16.468262,16.062738],[-16.467752,16.063057],[-16.467085,16.063484],[-16.466696,16.063728],[-16.466144,16.063897],[-16.466186,16.063849],[-16.465997,16.063759],[-16.46584,16.063707],[-16.465809,16.063775],[-16.465621,16.063747],[-16.465564,16.063625],[-16.465494,16.063626],[-16.465337,16.063619],[-16.465258,16.063468],[-16.46514,16.063477],[-16.465141,16.063644],[-16.464976,16.063637],[-16.464866,16.063607],[-16.464961,16.063766],[-16.465032,16.063833],[-16.465096,16.063916],[-16.465189,16.063832],[-16.465267,16.063711],[-16.465401,16.063793],[-16.465418,16.06393],[-16.465457,16.064013],[-16.465583,16.064019],[-16.465693,16.064026],[-16.46574,16.063996],[-16.465873,16.063919],[-16.46591,16.063968],[-16.464985,16.06425],[-16.46437,16.064593],[-16.463305,16.065157],[-16.463281,16.065157],[-16.462504,16.065153],[-16.462079,16.065151],[-16.461471,16.065115],[-16.461466,16.065116],[-16.461146,16.0652],[-16.461009,16.065273],[-16.460782,16.065342],[-16.46078,16.065297],[-16.460613,16.065341],[-16.460222,16.06538],[-16.459503,16.065248]]]}},{"type":"Feature","properties":{"categorie":"Protection Naturel"},"geometry":{"type":"Polygon","coordinates":[[[-16.49495,16.058849],[-16.495279,16.060218],[-16.495252,16.061246],[-16.495222,16.062068],[-16.495159,16.063062],[-16.495198,16.06361],[-16.494917,16.063955],[-16.494209,16.064028],[-16.493501,16.064102],[-16.493117,16.064824],[-16.493192,16.065372],[-16.49317,16.067256],[-16.493421,16.067563],[-16.493743,16.068006],[-16.494102,16.068586],[-16.494286,16.06951],[-16.494468,16.07016],[-16.494825,16.070534],[-16.495503,16.07118],[-16.495402,16.071866],[-16.494862,16.072015],[-16.494764,16.071988],[-16.494665,16.071989],[-16.494553,16.072058],[-16.494357,16.072168],[-16.494146,16.072237],[-16.493977,16.072143],[-16.493934,16.072007],[-16.493875,16.071695],[-16.493789,16.071532],[-16.493802,16.07141],[-16.493753,16.07119],[-16.493954,16.071],[-16.493982,16.070891],[-16.493966,16.070646],[-16.493809,16.070443],[-16.493668,16.070349],[-16.493597,16.070323],[-16.493414,16.070229],[-16.493291,16.070145],[-16.493186,16.069947],[-16.493067,16.069749],[-16.492956,16.069621],[-16.492808,16.069487],[-16.492601,16.069382],[-16.492469,16.069326],[-16.492262,16.069228],[-16.492223266154006,16.06922227795457],[-16.49183402140098,16.068932868536855],[-16.491848,16.068847],[-16.491876,16.06874],[-16.49189,16.06862],[-16.491889,16.068499],[-16.491844,16.068414],[-16.49177,16.06835],[-16.491664,16.068382],[-16.491579,16.068281],[-16.491549,16.068245],[-16.491512,16.068203],[-16.491438,16.068125],[-16.491379,16.068047],[-16.491301,16.068063],[-16.491194,16.067928],[-16.49109,16.067857],[-16.490994,16.067787],[-16.490942,16.067688],[-16.490883,16.067589],[-16.490801,16.067454],[-16.490741,16.067305],[-16.490659,16.067135],[-16.490635,16.066951],[-16.49059,16.066844],[-16.490516,16.066745],[-16.490346,16.06664],[-16.490272,16.06652],[-16.490212,16.066335],[-16.490123,16.066222],[-16.490063,16.066137],[-16.49004,16.066002],[-16.490039,16.065825],[-16.490038,16.065661],[-16.490007,16.065498],[-16.489969,16.065385],[-16.489939,16.065278],[-16.489864,16.065065],[-16.489827,16.064966],[-16.489774,16.064867],[-16.489692,16.064669],[-16.489625,16.064605],[-16.489544,16.064513],[-16.489492,16.064471],[-16.489446,16.06423],[-16.489467,16.064059],[-16.489518,16.063966],[-16.489643,16.063951],[-16.489812,16.063992],[-16.489886,16.064056],[-16.490033,16.064119],[-16.490114,16.06414],[-16.490335,16.064145],[-16.490423,16.06413],[-16.490526,16.064123],[-16.490644,16.064122],[-16.490754,16.064128],[-16.490768,16.064107],[-16.490621,16.064086],[-16.490496,16.06403],[-16.490408,16.064024],[-16.490275,16.064032],[-16.490158,16.064018],[-16.489981,16.063949],[-16.489863,16.063885],[-16.48973,16.063801],[-16.4897,16.063716],[-16.489698,16.063538],[-16.489697,16.063382],[-16.489689,16.063226],[-16.489643,16.063077],[-16.489613,16.062963],[-16.489597,16.062736],[-16.489582,16.062679],[-16.489559,16.062573],[-16.489485,16.062474],[-16.48944,16.062417],[-16.489365,16.062233],[-16.489328,16.062126],[-16.489268,16.061978],[-16.48923,16.0618],[-16.489214,16.061658],[-16.489197,16.061424],[-16.489204,16.061324],[-16.489313,16.061217],[-16.489446,16.061273],[-16.48958,16.061414],[-16.489764,16.061526],[-16.489882,16.061582],[-16.490096,16.061652],[-16.490192,16.061765],[-16.490223,16.061928],[-16.490275,16.06207],[-16.490364,16.062148],[-16.490526,16.062203],[-16.490652,16.062281],[-16.490712,16.062451],[-16.490779,16.0626],[-16.490912,16.06272],[-16.491016,16.062818],[-16.491112,16.062875],[-16.491171,16.06291],[-16.491193,16.062931],[-16.491274,16.062895],[-16.491273,16.062817],[-16.4912,16.062774],[-16.491052,16.062704],[-16.490941,16.062584],[-16.490851,16.062379],[-16.490769,16.062216],[-16.49068,16.062124],[-16.490533,16.062075],[-16.490385,16.061941],[-16.490355,16.061828],[-16.490287,16.061643],[-16.490213,16.061537],[-16.49008,16.06146],[-16.489969,16.061447],[-16.489873,16.061398],[-16.489785,16.061341],[-16.489659,16.061179],[-16.489438,16.061102],[-16.489194,16.060969],[-16.489105,16.060827],[-16.489097,16.060721],[-16.489206,16.060599],[-16.489257,16.060506],[-16.489366,16.060385],[-16.489513,16.060305],[-16.489652,16.060219],[-16.489812,16.060104],[-16.489995,16.059954],[-16.490119,16.059797],[-16.490147,16.05969],[-16.490219,16.059433],[-16.49024,16.059291],[-16.490261,16.059092],[-16.490274,16.058893],[-16.490257,16.058665],[-16.490226,16.058417],[-16.490188,16.058211],[-16.490165,16.058083],[-16.490186,16.058005],[-16.49026,16.057955],[-16.490318,16.05789],[-16.49031,16.057862],[-16.4902,16.057863],[-16.490045,16.057828],[-16.48992,16.057729],[-16.489868,16.057666],[-16.489816,16.057588],[-16.48977,16.057432],[-16.489755,16.05734],[-16.489747,16.057183],[-16.489753,16.057048],[-16.489789,16.056956],[-16.489854,16.056841],[-16.489863,16.05665],[-16.489922,16.056581],[-16.49016,16.056242],[-16.49041,16.055979],[-16.490838,16.05574],[-16.491017,16.055536],[-16.491243,16.055297],[-16.491379,16.055103],[-16.491858,16.054659],[-16.491993,16.054844],[-16.492083,16.055016],[-16.492396,16.055243],[-16.492575,16.055357],[-16.49268,16.055528],[-16.492756,16.0557],[-16.492891,16.055914],[-16.4931,16.05607],[-16.493206,16.056313],[-16.493238,16.056658],[-16.493478,16.057086],[-16.493703,16.057415],[-16.493824,16.057615],[-16.493826,16.057887],[-16.493961,16.058188],[-16.494112,16.058474],[-16.494128,16.058603],[-16.494129,16.058803],[-16.494146,16.059004],[-16.494221,16.059147],[-16.49425,16.059032],[-16.494381,16.058802],[-16.494454,16.058557],[-16.494448,16.058514],[-16.49495,16.058849]]]}},{"type":"Feature","properties":{"categorie":"Protection Naturel"},"geometry":{"type":"Polygon","coordinates":[[[-16.49739,16.072435],[-16.497706,16.071987],[-16.497915,16.071506],[-16.497946,16.070855],[-16.497905,16.070204],[-16.497868,16.069896],[-16.498184,16.06962],[-16.498289,16.069345],[-16.498357,16.06907],[-16.498779,16.068588],[-16.499129,16.068037],[-16.499337,16.06735],[-16.499405,16.066939],[-16.499578,16.066423],[-16.499538,16.065841],[-16.499391,16.065191],[-16.499352,16.064609],[-16.499349,16.064198],[-16.499554,16.063396],[-16.499781,16.063639],[-16.499868,16.063924],[-16.499913,16.064264],[-16.499885,16.064305],[-16.499858,16.064496],[-16.49986,16.064741],[-16.499946,16.064958],[-16.500062,16.065379],[-16.500108,16.065868],[-16.500152,16.066154],[-16.500182,16.066439],[-16.500213,16.066711],[-16.500158,16.066943],[-16.500047,16.067189],[-16.500006,16.067366],[-16.49998,16.067625],[-16.499996,16.067815],[-16.500096,16.068018],[-16.500168,16.068222],[-16.500211,16.068371],[-16.500296,16.068507],[-16.500438,16.068615],[-16.500635,16.068668],[-16.50058,16.068763],[-16.500329,16.069105],[-16.500049,16.069339],[-16.49977,16.069667],[-16.499561,16.0699],[-16.499338,16.070146],[-16.499156,16.070338],[-16.498947,16.070598],[-16.498725,16.070953],[-16.498586,16.071186],[-16.498447,16.071445],[-16.498392,16.07165],[-16.498296,16.071991],[-16.49806,16.07236],[-16.497892,16.07251],[-16.497823,16.072688],[-16.497768,16.072906],[-16.497769259828203,16.073103163113945],[-16.497195039119553,16.073146158826983],[-16.497179,16.073128],[-16.496938,16.072993],[-16.49674,16.072859],[-16.49739,16.072435]]]}},{"type":"Feature","properties":{"categorie":"Protection Naturel"},"geometry":{"type":"Polygon","coordinates":[[[-16.494222,16.051557],[-16.494196,16.051557],[-16.494574,16.051202],[-16.494615,16.05116],[-16.494725,16.051012],[-16.494865,16.050906],[-16.49497,16.050799],[-16.495641,16.050342],[-16.495899,16.050251],[-16.496136,16.049836],[-16.496289,16.049566],[-16.496299,16.049541],[-16.496411,16.049323],[-16.496504,16.048927],[-16.496825,16.048795],[-16.496853,16.048804],[-16.496916,16.04875],[-16.496926,16.048763],[-16.496942,16.048749],[-16.49701,16.048845],[-16.496977,16.048835],[-16.496985,16.048845],[-16.497228,16.048922],[-16.497527,16.049593],[-16.497764,16.049705],[-16.497779,16.04991],[-16.49778,16.050033],[-16.497584,16.050238],[-16.497459,16.050334],[-16.497263,16.050499],[-16.497166,16.050717],[-16.497097,16.050949],[-16.497015,16.051235],[-16.496932,16.05144],[-16.496878,16.051794],[-16.496824,16.051999],[-16.496727,16.052217],[-16.496531,16.052327],[-16.496517,16.052436],[-16.495752,16.052403],[-16.495184,16.052167],[-16.494222,16.051557]]]}},{"type":"Feature","properties":{"categorie":"Protection Naturel"},"geometry":{"type":"Polygon","coordinates":[[[-16.499085,16.049908],[-16.499213,16.049948],[-16.499232,16.049986],[-16.499404,16.050316],[-16.499629,16.051393],[-16.499658,16.051444],[-16.499671,16.051595],[-16.49979,16.052161],[-16.499851,16.05222],[-16.500121,16.052425],[-16.500283,16.052676],[-16.500465,16.052858],[-16.500625,16.053033],[-16.500931,16.0533],[-16.501094,16.053532],[-16.501152,16.053732],[-16.501858,16.054721],[-16.502122,16.054847],[-16.502337,16.054949],[-16.502188,16.055691],[-16.502628,16.055943],[-16.503289,16.056319],[-16.503556,16.056869],[-16.503911,16.057544],[-16.504047,16.058137],[-16.504098,16.059026],[-16.504106,16.060044],[-16.504464,16.061058],[-16.504861,16.061437],[-16.50438,16.06161],[-16.504032,16.061951],[-16.503816,16.062334],[-16.503603,16.063183],[-16.503474,16.063566],[-16.503481,16.064414],[-16.503794,16.065301],[-16.50393,16.065894],[-16.503936,16.066614],[-16.503853,16.067293],[-16.503331,16.067848],[-16.502983,16.068104],[-16.502454,16.067811],[-16.502363,16.067304],[-16.502271,16.066711],[-16.502001,16.06578],[-16.501907,16.065018],[-16.502032,16.064042],[-16.502026,16.063279],[-16.501798,16.062179],[-16.501529,16.061376],[-16.501085,16.060531],[-16.500863,16.060236],[-16.500246,16.059689],[-16.499981,16.059479],[-16.499359,16.058424],[-16.499002,16.057579],[-16.498822,16.056902],[-16.498683,16.055885],[-16.498545,16.054996],[-16.498491,16.05364],[-16.498572,16.05275],[-16.498564,16.05169],[-16.498733,16.050799],[-16.49899,16.04993],[-16.499085,16.049908]]]}},{"type":"Feature","properties":{"categorie":"Protection Naturel"},"geometry":{"type":"Polygon","coordinates":[[[-16.505174,16.054188],[-16.505436,16.053026],[-16.505744,16.05228],[-16.505843,16.052089],[-16.505858,16.051974],[-16.505866,16.051809],[-16.505879,16.051625],[-16.505852,16.051257],[-16.505842,16.05111],[-16.505816,16.050908],[-16.505739,16.050762],[-16.505716,16.050689],[-16.50569,16.050606],[-16.505689,16.050468],[-16.505674,16.05028],[-16.505649,16.050137],[-16.505657,16.049944],[-16.50567,16.049747],[-16.505683,16.049558],[-16.50571,16.049379],[-16.505742,16.049263],[-16.505746,16.049103],[-16.505729,16.048841],[-16.505709,16.048662],[-16.505689,16.048556],[-16.505692,16.048531],[-16.505682,16.048529],[-16.505652,16.048416],[-16.505641,16.0483],[-16.505605,16.048208],[-16.505569,16.048156],[-16.505555,16.048122],[-16.505533,16.048068],[-16.505546,16.047965],[-16.505581,16.047814],[-16.505618,16.047612],[-16.505623,16.047392],[-16.505608,16.047163],[-16.505592,16.046971],[-16.50557,16.046855],[-16.505555,16.046766],[-16.505519,16.046636],[-16.505497,16.046554],[-16.505479,16.046489],[-16.505439,16.046435],[-16.505346,16.046346],[-16.505303,16.046278],[-16.505289,16.04622],[-16.505281,16.046138],[-16.505281,16.046059],[-16.50528,16.045963],[-16.505268,16.045826],[-16.505222,16.045669],[-16.505221,16.045494],[-16.505197,16.045209],[-16.505103,16.045202],[-16.505095,16.045147],[-16.505122,16.044847],[-16.50523,16.044818],[-16.505243,16.044658],[-16.505241,16.044421],[-16.505181,16.044128],[-16.505179,16.043836],[-16.505126,16.043466],[-16.505132,16.043299],[-16.505086,16.042993],[-16.505112,16.042505],[-16.505109,16.04217],[-16.505163,16.041654],[-16.505125,16.041375],[-16.505151,16.041019],[-16.50512,16.040706],[-16.505111,16.040546],[-16.505189,16.040329],[-16.505354,16.040174],[-16.505518,16.04002],[-16.505604,16.039964],[-16.505748,16.039865],[-16.505877,16.039773],[-16.505984,16.03971],[-16.506121,16.039604],[-16.506199,16.039513],[-16.506285,16.039394],[-16.506349,16.039268],[-16.506413,16.039163],[-16.506477,16.03903],[-16.506569,16.038897],[-16.506677,16.038792],[-16.506813,16.038638],[-16.50692,16.038532],[-16.506998,16.03835],[-16.507047,16.038127],[-16.507067,16.037953],[-16.50708,16.037799],[-16.507114,16.037506],[-16.507091,16.037283],[-16.507132,16.037074],[-16.507175,16.036976],[-16.507224,16.03678],[-16.507251,16.036501],[-16.50727,16.036181],[-16.50729,16.035936],[-16.507281,16.035762],[-16.507244,16.03563],[-16.507214,16.035512],[-16.507145,16.035349],[-16.507085,16.035123],[-16.507046,16.034983],[-16.50701,16.034874],[-16.506961,16.034758],[-16.506912,16.034678],[-16.506902,16.034625],[-16.506908,16.034522],[-16.506921,16.034418],[-16.506934,16.034298],[-16.506926,16.034132],[-16.506869,16.033922],[-16.50683,16.033763],[-16.50678,16.033603],[-16.506703,16.033421],[-16.506612,16.033165],[-16.506517,16.032963],[-16.506544,16.032839],[-16.506612,16.032692],[-16.506745,16.032538],[-16.506813,16.032388],[-16.506853,16.032218],[-16.50689,16.032088],[-16.506928,16.032016],[-16.506952,16.031928],[-16.506983,16.031808],[-16.507026,16.031689],[-16.507055,16.031599],[-16.507098,16.0315],[-16.507165,16.03137],[-16.507231,16.031046],[-16.507235,16.03098],[-16.507212,16.030836],[-16.507209,16.03077],[-16.50724,16.030606],[-16.507242,16.030498],[-16.507229,16.030411],[-16.507216,16.030368],[-16.507204,16.030319],[-16.507203,16.03026],[-16.50723,16.030191],[-16.507219,16.030134],[-16.507207,16.030078],[-16.507174,16.030007],[-16.507149,16.029908],[-16.507129,16.029767],[-16.507162,16.029637],[-16.507173,16.029441],[-16.507172,16.029294],[-16.507154,16.0292],[-16.507141,16.02912],[-16.507152,16.028995],[-16.507178,16.028895],[-16.507185,16.02881],[-16.507174,16.028716],[-16.507169,16.028607],[-16.507159,16.028546],[-16.507153,16.028456],[-16.507166,16.028296],[-16.507178,16.028161],[-16.507198,16.027986],[-16.507212,16.027859],[-16.507211,16.027734],[-16.507188,16.027543],[-16.507155,16.027401],[-16.507154,16.0273],[-16.507177,16.027167],[-16.507201,16.027075],[-16.50723,16.026964],[-16.507243,16.026843],[-16.507243,16.026782],[-16.507257,16.026699],[-16.50729,16.026605],[-16.507297,16.026546],[-16.507306,16.026435],[-16.507306,16.026345],[-16.507305,16.026255],[-16.50726,16.026152],[-16.507211,16.026093],[-16.507157,16.026051],[-16.507088,16.026011],[-16.507051,16.025978],[-16.507036,16.025879],[-16.50705,16.025811],[-16.50706,16.025768],[-16.507062,16.025723],[-16.507032,16.02566],[-16.507009,16.025577],[-16.50697,16.025514],[-16.50696,16.02546],[-16.506966,16.02537],[-16.50699,16.025306],[-16.507019,16.025254],[-16.507041,16.025188],[-16.507064,16.025114],[-16.507069,16.025072],[-16.507083,16.025034],[-16.507041,16.024935],[-16.506997,16.024897],[-16.506955,16.024851],[-16.506935,16.024822],[-16.506928,16.024789],[-16.506942,16.024742],[-16.506986,16.024695],[-16.507024,16.024652],[-16.507051,16.024609],[-16.507075,16.024569],[-16.507092,16.024517],[-16.507113,16.024458],[-16.507118,16.02438],[-16.507117,16.02428],[-16.507109,16.024191],[-16.507072,16.024108],[-16.507,16.024048],[-16.506973,16.024003],[-16.506965,16.02393],[-16.506994,16.023878],[-16.507033,16.023856],[-16.507086,16.023825],[-16.50713,16.023768],[-16.507144,16.023723],[-16.507154,16.023681],[-16.507158,16.023619],[-16.507138,16.023539],[-16.507113,16.023473],[-16.507037,16.023412],[-16.507029,16.023353],[-16.507056,16.023306],[-16.507095,16.02327],[-16.507133,16.023235],[-16.507172,16.023196],[-16.507184,16.023156],[-16.507196,16.023088],[-16.50719,16.023024],[-16.50719,16.02301],[-16.507187,16.022965],[-16.50718,16.022918],[-16.507147,16.02284],[-16.507113,16.022793],[-16.507091,16.022756],[-16.507081,16.022718],[-16.507097,16.022666],[-16.507134,16.022618],[-16.507177,16.022568],[-16.507228,16.0225],[-16.507271,16.022433],[-16.507298,16.022355],[-16.507336,16.02226],[-16.507362,16.022189],[-16.507391,16.022097],[-16.50739,16.021989],[-16.507348,16.021899],[-16.50733,16.021847],[-16.507335,16.021788],[-16.507361,16.021741],[-16.507415,16.02171],[-16.507463,16.021688],[-16.507505,16.021643],[-16.507517,16.021608],[-16.507511,16.021542],[-16.507504,16.021506],[-16.507501,16.021445],[-16.507522,16.021397],[-16.507546,16.021367],[-16.507602,16.021319],[-16.507638,16.021264],[-16.50766,16.021182],[-16.507701,16.021087],[-16.507707,16.021004],[-16.507685,16.020955],[-16.50767,16.020927],[-16.507653,16.020908],[-16.507645,16.020856],[-16.507662,16.020806],[-16.507708,16.020759],[-16.507764,16.020725],[-16.5078,16.020685],[-16.507819,16.020642],[-16.507838,16.020578],[-16.507833,16.020536],[-16.50784,16.020482],[-16.507864,16.020451],[-16.507876,16.020411],[-16.507883,16.020366],[-16.507883,16.020302],[-16.507867,16.020219],[-16.507862,16.020182],[-16.507867,16.020118],[-16.507883,16.020059],[-16.507907,16.020002],[-16.507926,16.019947],[-16.507943,16.019888],[-16.507955,16.019841],[-16.507955,16.019799],[-16.50794,16.019751],[-16.507915,16.019707],[-16.507914,16.019648],[-16.507919,16.0196],[-16.507928,16.01957],[-16.507965,16.019539],[-16.508004,16.019505],[-16.508009,16.019496],[-16.508047,16.019432],[-16.508063,16.019356],[-16.508085,16.019309],[-16.508124,16.019245],[-16.508126,16.019193],[-16.50812,16.019141],[-16.508096,16.019073],[-16.508012,16.019024],[-16.507973,16.018989],[-16.50797,16.018963],[-16.508006,16.018894],[-16.508043,16.018854],[-16.508067,16.018792],[-16.508078,16.018735],[-16.508095,16.018662],[-16.508133,16.018565],[-16.508154,16.018468],[-16.508182,16.018277],[-16.508218,16.018125],[-16.508233,16.017901],[-16.508256,16.017726],[-16.508301,16.017549],[-16.508368,16.01739],[-16.5084,16.017295],[-16.508413,16.017248],[-16.508388,16.017223],[-16.508518,16.016666],[-16.508601,16.014697],[-16.508212,16.011112],[-16.508003,16.010588],[-16.507995,16.008637],[-16.507684,16.007635],[-16.507861,16.007073],[-16.507866,16.00598],[-16.507916,16.005115],[-16.507652,16.003839],[-16.507776,16.002795],[-16.507773,16.001623],[-16.507929,16.000769],[-16.508047,16.00005],[-16.50802,16.000005],[-16.507883,15.999773],[-16.507962,15.999513],[-16.508107,15.999471],[-16.50812,15.999467],[-16.508413,15.999567],[-16.508496,15.999617],[-16.508501,15.99962],[-16.508728,15.999586],[-16.509056,15.999262],[-16.509192,15.998858],[-16.509359,15.997761],[-16.509077,15.995018],[-16.508938,15.993857],[-16.50906,15.993251],[-16.509055,15.993033],[-16.508879,15.992518],[-16.508404,15.992013],[-16.508406,15.991988],[-16.507993,15.991943],[-16.507992,15.991946],[-16.507967,15.992517],[-16.507942,15.992517],[-16.507809,15.992518],[-16.5078,15.991265],[-16.507873,15.991265],[-16.507899,15.991265],[-16.507893,15.991791],[-16.508372,15.991797],[-16.508397,15.991797],[-16.508738,15.991135],[-16.508806097484953,15.990989970761774],[-16.509491391530595,15.991538932481603],[-16.512627390616526,15.99161551474066],[-16.512377,15.992643],[-16.512277,15.993183],[-16.512024,15.994144],[-16.511997,15.994785],[-16.511913,15.995461],[-16.511877,15.996208],[-16.511902,15.996662],[-16.511883,15.996899],[-16.511748,15.997693],[-16.511615,15.998092],[-16.511504,15.998613],[-16.511469,15.998764],[-16.511393,15.999057],[-16.511209,15.999553],[-16.511118,15.999967],[-16.511106,16.000442],[-16.511135,16.00082],[-16.511193,16.001576],[-16.511211,16.001955],[-16.5113,16.002615],[-16.511301,16.002797],[-16.511272,16.00309],[-16.51115,16.003524],[-16.510885,16.004374],[-16.510783,16.004718],[-16.510684,16.005395],[-16.51057,16.006218],[-16.510515,16.006521],[-16.510548,16.006712],[-16.510523,16.006874],[-16.510449,16.007399],[-16.510374,16.00792],[-16.510331,16.008369],[-16.510281,16.008627],[-16.51023,16.008778],[-16.51019,16.009117],[-16.510124,16.009284],[-16.510124,16.009374],[-16.510125,16.009465],[-16.510085,16.009672],[-16.509951,16.010546],[-16.509917,16.01094],[-16.509833,16.011591],[-16.509772,16.012465],[-16.50975,16.012959],[-16.50974,16.013101],[-16.509727,16.013383],[-16.509681,16.013681],[-16.509677,16.013707],[-16.509624,16.014333],[-16.509653,16.01462],[-16.509669,16.014761],[-16.509655,16.014872],[-16.50962,16.01511],[-16.509678,16.015032],[-16.50977,16.014912],[-16.509745,16.015164],[-16.509677,16.01518],[-16.509631,16.01519],[-16.509636,16.015216],[-16.509653,16.015397],[-16.509675,16.015425],[-16.509695,16.015452],[-16.50967,16.015948],[-16.509618,16.016961],[-16.509646,16.017254],[-16.509647,16.017259],[-16.509681,16.017753],[-16.50962,16.018626],[-16.509542,16.019359],[-16.509521,16.02005],[-16.509472,16.021155],[-16.509473,16.021937],[-16.509455,16.022346],[-16.509401,16.023467],[-16.509394,16.023986],[-16.509388,16.024461],[-16.50936,16.024895],[-16.509349,16.025632],[-16.509309,16.025743],[-16.509408,16.025818],[-16.509397,16.026383],[-16.509324,16.027766],[-16.509325,16.027943],[-16.509296,16.028276],[-16.509267,16.028594],[-16.509242,16.02874],[-16.509269,16.028816],[-16.509269,16.028839],[-16.509258,16.029371],[-16.50918,16.029447],[-16.50914,16.030401],[-16.509113,16.031027],[-16.509077,16.031754],[-16.509054,16.032417],[-16.50903,16.033091],[-16.509002,16.03352],[-16.509034,16.033656],[-16.509068,16.03404],[-16.509039,16.034963],[-16.509027,16.035437],[-16.509113,16.035881],[-16.509129,16.035911],[-16.509164,16.036395],[-16.509145,16.036668],[-16.509134,16.037203],[-16.509181,16.037863],[-16.50917,16.038514],[-16.509156,16.038726],[-16.509143,16.039059],[-16.509135,16.039468],[-16.509137,16.03964],[-16.509118,16.039912],[-16.509119,16.040109],[-16.50911,16.040331],[-16.509096,16.040462],[-16.509045,16.040649],[-16.509038,16.041068],[-16.509031,16.041502],[-16.508992,16.041987],[-16.508984,16.042204],[-16.508965,16.042476],[-16.508878,16.042755],[-16.508822,16.042927],[-16.508903,16.043244],[-16.508925,16.043446],[-16.508937,16.043662],[-16.508935,16.044051],[-16.508911,16.044308],[-16.508903,16.044712],[-16.508874,16.045015],[-16.508824,16.045303],[-16.508775,16.045687],[-16.508735,16.045965],[-16.508743,16.046257],[-16.508828,16.046499],[-16.508883,16.046847],[-16.508871,16.047291],[-16.508847,16.047674],[-16.508854,16.047876],[-16.508891,16.047921],[-16.508882,16.048057],[-16.508811,16.048346],[-16.508771,16.048558],[-16.508768,16.048706],[-16.508767,16.048755],[-16.508763,16.048967],[-16.508718,16.049133],[-16.508671,16.049255],[-16.508625,16.049371],[-16.508601,16.049603],[-16.508592,16.049805],[-16.508604,16.049957],[-16.508627,16.050099],[-16.508707,16.050613],[-16.508753,16.051143],[-16.508754,16.051158],[-16.508738,16.0515],[-16.508624,16.052705],[-16.508659,16.0532],[-16.508719,16.054007],[-16.508714,16.054846],[-16.508557,16.054845],[-16.508499,16.055818],[-16.50848,16.056634],[-16.508506,16.057659],[-16.508563,16.059116],[-16.508595,16.05974],[-16.50865,16.060631],[-16.508672,16.061309],[-16.508643,16.061688],[-16.508518,16.062574],[-16.508251,16.064061],[-16.508134,16.064569],[-16.50787,16.065541],[-16.5076838562849,16.06630193914305],[-16.50717946268353,16.066588165214636],[-16.506214,16.066429],[-16.505968,16.065962],[-16.505884,16.065555],[-16.505809,16.065118],[-16.505673,16.06444],[-16.505577,16.063382],[-16.505567,16.061983],[-16.505555,16.060415],[-16.505502,16.059228],[-16.50536,16.057788],[-16.505218,16.056433],[-16.505101,16.055034],[-16.505126,16.055034],[-16.505089,16.054941],[-16.505174,16.054188]]]}},{"type":"Feature","properties":{"categorie":"Protection Naturel"},"geometry":{"type":"Polygon","coordinates":[[[-16.499147,15.98543],[-16.499087,15.985287],[-16.49913,15.985172],[-16.499375,15.985144],[-16.499397,15.985141],[-16.499965,15.985668],[-16.500088,15.985848],[-16.499432,15.985814],[-16.499433,15.985798],[-16.499252,15.985515],[-16.499147,15.98543]]]}},{"type":"Feature","properties":{"categorie":"Protection Naturel"},"geometry":{"type":"Polygon","coordinates":[[[-16.500565,15.995032],[-16.500572,15.994924],[-16.501728,15.994985],[-16.501975,15.99056],[-16.501981,15.99056],[-16.50215,15.990631],[-16.50231,15.990701],[-16.502522,15.990823],[-16.502605,15.990846],[-16.502628,15.990853],[-16.50268,15.990699],[-16.502542,15.990628],[-16.502489,15.990587],[-16.50254,15.990434],[-16.502646,15.990423],[-16.502773,15.99036],[-16.502825,15.990237],[-16.502771,15.990125],[-16.502696,15.990074],[-16.502671,15.990075],[-16.502538,15.990075],[-16.502347,15.990046],[-16.502322,15.990046],[-16.502157,15.990047],[-16.502131,15.990048],[-16.502003,15.990048],[-16.50201,15.989936],[-16.50241,15.989913],[-16.502575,15.989911],[-16.5026,15.989911],[-16.502706,15.989921],[-16.502887,15.990063],[-16.503027,15.9904],[-16.503083,15.990768],[-16.502885,15.991199],[-16.502415,15.99199],[-16.502195,15.99237],[-16.502082,15.99277],[-16.502083,15.992954],[-16.502085,15.993179],[-16.502129,15.993384],[-16.502215,15.993588],[-16.502513,15.99378],[-16.502713,15.993758],[-16.502797,15.993666],[-16.502892,15.993634],[-16.502935,15.993644],[-16.502968,15.993787],[-16.502969,15.993961],[-16.502918,15.994177],[-16.502762,15.994536],[-16.502394,15.994938],[-16.502079,15.995237],[-16.501806,15.995494],[-16.501607,15.995782],[-16.501346,15.996296],[-16.501043,15.99682],[-16.500835,15.997272],[-16.500563,15.997703],[-16.500543,15.997867],[-16.500439,15.998093],[-16.500377,15.998288],[-16.500305,15.998483],[-16.500126,15.998607],[-16.499954,15.998758],[-16.499926,15.998782],[-16.499705,15.998876],[-16.499514,15.998877],[-16.499174,15.998685],[-16.49917,15.998663],[-16.499393,15.998233],[-16.499655,15.997935],[-16.499833,15.997596],[-16.499884,15.99737],[-16.499987,15.99697],[-16.500247,15.996426],[-16.500454,15.995831],[-16.500536,15.995442],[-16.500565,15.995032]]]}},{"type":"Feature","properties":{"categorie":"Protection Naturel"},"geometry":{"type":"Polygon","coordinates":[[[-16.475577,16.056106],[-16.475466,16.056092],[-16.475173,16.056076],[-16.474934,16.053853],[-16.474581,16.052108],[-16.474341,16.051291],[-16.473941,16.050526],[-16.473807,16.049022],[-16.474063,16.048163],[-16.474815,16.04726],[-16.476509,16.045463],[-16.477696,16.044163],[-16.478692,16.043147],[-16.479006,16.042149],[-16.479234,16.040957],[-16.479485,16.039477],[-16.479867,16.037612],[-16.480092,16.036487],[-16.480096,16.036468],[-16.480663,16.036982],[-16.481429,16.037097],[-16.481446,16.037099],[-16.482073,16.036895],[-16.48208,16.036893],[-16.483084,16.036991],[-16.483825,16.037219],[-16.484418,16.037475],[-16.48477,16.037647],[-16.485035,16.037777],[-16.485892,16.037983],[-16.486813,16.038144],[-16.487457,16.038261],[-16.487604,16.038287],[-16.488346,16.038352],[-16.488368,16.038354],[-16.4887,16.038143],[-16.489309,16.037714],[-16.489647,16.037556],[-16.489673,16.037544],[-16.48963,16.038104],[-16.489617,16.038723],[-16.489577,16.040049],[-16.489655,16.040425],[-16.489454,16.041212],[-16.489533,16.041843],[-16.489534,16.042099],[-16.488708,16.043135],[-16.487967,16.04497],[-16.487534,16.046043],[-16.486563,16.047281],[-16.485177,16.048645],[-16.485114,16.048775],[-16.485093,16.048767],[-16.484892,16.048696],[-16.484766,16.048835],[-16.484483,16.049051],[-16.484183,16.04916],[-16.483963,16.049406],[-16.483697,16.049714],[-16.483303,16.050054],[-16.482927,16.0505],[-16.482502,16.050855],[-16.481998,16.051195],[-16.481526,16.051535],[-16.481036,16.051661],[-16.48072,16.051648],[-16.480576,16.051496],[-16.480686,16.051327],[-16.480904,16.050912],[-16.4809,16.050376],[-16.48085,16.050071],[-16.480533,16.04992],[-16.480389,16.049722],[-16.48026,16.049432],[-16.480069,16.049326],[-16.479831,16.049129],[-16.479719,16.048977],[-16.47975,16.048869],[-16.479749,16.048732],[-16.479731,16.048487],[-16.479444,16.048198],[-16.479271,16.048053],[-16.479173,16.04797],[-16.478745,16.047912],[-16.478525,16.048113],[-16.478323,16.048558],[-16.477964,16.049218],[-16.477604,16.049787],[-16.477229,16.050386],[-16.476854,16.051047],[-16.476463,16.051784],[-16.476076,16.052904],[-16.475782,16.05384],[-16.475614,16.054652],[-16.47546,16.055204],[-16.475573,16.055555],[-16.475843,16.055691],[-16.476224,16.055765],[-16.476446,16.055825],[-16.47659,16.056145],[-16.47686,16.056189],[-16.477001,16.055959],[-16.477188,16.055621],[-16.477454,16.055221],[-16.477753,16.05502],[-16.477802,16.055111],[-16.477676,16.055311],[-16.477583,16.05548],[-16.477474,16.055726],[-16.477396,16.05591],[-16.477351,16.056262],[-16.477321,16.056492],[-16.477085,16.056708],[-16.476627,16.056803],[-16.476265,16.05705],[-16.476077,16.057297],[-16.475919,16.057344],[-16.475839,16.057222],[-16.475885,16.057053],[-16.476009,16.056746],[-16.476007,16.056486],[-16.475768,16.056227],[-16.475577,16.056106]],[[-16.482226,16.048796],[-16.482374,16.048795],[-16.48254,16.048793],[-16.482791,16.048768],[-16.483043,16.048725],[-16.483276,16.048664],[-16.483441,16.048609],[-16.483686,16.048566],[-16.483852,16.048541],[-16.484073,16.04851],[-16.484152,16.04842],[-16.484145,16.048331],[-16.484077,16.048266],[-16.48393,16.048291],[-16.483789,16.048351],[-16.483624,16.048406],[-16.483415,16.048455],[-16.483207,16.04851],[-16.483041,16.048463],[-16.482918,16.048411],[-16.48272,16.048269],[-16.482615,16.048151],[-16.482441,16.047986],[-16.482336,16.047803],[-16.482193,16.04759],[-16.482118,16.047424],[-16.482061,16.047258],[-16.48177,16.046892],[-16.481497,16.046514],[-16.481273,16.046195],[-16.481117,16.045839],[-16.480974,16.045525],[-16.480744,16.04523],[-16.480454,16.045006],[-16.48022,16.044943],[-16.480122,16.044973],[-16.48,16.045116],[-16.479909,16.045283],[-16.479879,16.045385],[-16.479856,16.045539],[-16.479857,16.045747],[-16.479859,16.045955],[-16.479879,16.046145],[-16.479917,16.046364],[-16.479962,16.046614],[-16.479962,16.046616],[-16.480023,16.046601],[-16.48009,16.046524],[-16.480096,16.046423],[-16.480076,16.046274],[-16.480075,16.046108],[-16.480049,16.045954],[-16.480079,16.04587],[-16.480147,16.045905],[-16.48024,16.046012],[-16.480302,16.046118],[-16.480328,16.046231],[-16.480402,16.046296],[-16.480463,16.046254],[-16.480499,16.046129],[-16.480498,16.046051],[-16.480467,16.045963],[-16.480306,16.045839],[-16.480208,16.045774],[-16.480176,16.045697],[-16.480188,16.045608],[-16.480261,16.04553],[-16.48052,16.045671],[-16.480655,16.045694],[-16.480784,16.045705],[-16.480877,16.045787],[-16.48097,16.0459],[-16.481045,16.046054],[-16.481139,16.046255],[-16.48122,16.046439],[-16.481276,16.046557],[-16.481326,16.046634],[-16.481351,16.046711],[-16.481413,16.046794],[-16.481488,16.04693],[-16.481631,16.047154],[-16.48173,16.04735],[-16.481793,16.047545],[-16.481874,16.047723],[-16.481887,16.047824],[-16.48187,16.047984],[-16.48192,16.048037],[-16.482018,16.048049],[-16.48208,16.048137],[-16.482093,16.048262],[-16.482088,16.048399],[-16.481991,16.048548],[-16.48198,16.048655],[-16.482017,16.048732],[-16.482097,16.048761],[-16.482226,16.048796]]]}},{"type":"Feature","properties":{"categorie":"Protection Patrimoinel"},"geometry":{"type":"Polygon","coordinates":[[[-16.502211,16.038295],[-16.501967,16.038086],[-16.501777,16.037901],[-16.501964,16.03713],[-16.501944,16.037092],[-16.5019,16.037063],[-16.501908,16.036877],[-16.501933,16.036872],[-16.501999,16.036503],[-16.501895,16.03647],[-16.501961,16.03625],[-16.501963,16.036245],[-16.502112,16.036273],[-16.502136,16.036277],[-16.502165,16.036167],[-16.502227,16.035918],[-16.502294,16.035568],[-16.502328,16.035477],[-16.502405,16.035199],[-16.502354,16.035042],[-16.502369,16.03498],[-16.502513,16.034457],[-16.502604,16.034017],[-16.502773,16.033556],[-16.502884,16.03314],[-16.503041,16.032354],[-16.503053,16.031933],[-16.503118,16.031321],[-16.503136,16.030417],[-16.503195,16.029727],[-16.503218,16.028843],[-16.503203,16.028824],[-16.503235,16.028469],[-16.503269,16.027809],[-16.503276,16.027427],[-16.503303,16.027034],[-16.503324,16.02658],[-16.503373,16.026469],[-16.503437,16.026435],[-16.503506,16.026378],[-16.50352,16.026301],[-16.503559,16.026167],[-16.503563,16.026071],[-16.503538,16.025995],[-16.503503,16.025933],[-16.50351,16.025827],[-16.503568,16.0255],[-16.503541,16.025383],[-16.503589,16.025358],[-16.503609,16.025212],[-16.503497,16.025183],[-16.503538,16.024966],[-16.503567,16.024736],[-16.50357,16.02464],[-16.50357,16.024548],[-16.503683,16.024025],[-16.503752,16.02356],[-16.503889,16.022811],[-16.504068,16.02187],[-16.504092,16.021653],[-16.504151,16.021339],[-16.504243,16.020996],[-16.504182,16.020967],[-16.504201,16.020918],[-16.504204,16.020912],[-16.504253,16.020923],[-16.504277,16.020928],[-16.504336,16.020719],[-16.504336,16.020665],[-16.504378,16.020493],[-16.504504,16.020058],[-16.504576,16.019819],[-16.504643,16.019622],[-16.504655,16.019514],[-16.504672,16.019447],[-16.50468,16.019401],[-16.504719,16.019338],[-16.504753,16.019304],[-16.504796,16.019245],[-16.504843,16.019165],[-16.504958,16.019002],[-16.505018,16.01888],[-16.505047,16.018809],[-16.505094,16.0187],[-16.505107,16.018658],[-16.505145,16.018599],[-16.505244,16.018528],[-16.505292,16.018519],[-16.505327,16.018519],[-16.505352,16.018518],[-16.505443,16.018534],[-16.505568,16.01855],[-16.505672,16.018579],[-16.505854,16.018615],[-16.506218,16.018717],[-16.506334,16.018754],[-16.506516,16.01879],[-16.506659,16.018823],[-16.506806,16.018876],[-16.506893,16.018905],[-16.506932,16.018942],[-16.506989,16.018975],[-16.507071,16.018999],[-16.50714,16.019028],[-16.507197,16.019095],[-16.507223,16.019108],[-16.507223,16.019132],[-16.507206,16.019186],[-16.507228,16.019241],[-16.507203,16.019287],[-16.507151,16.019387],[-16.507105,16.01948],[-16.50705,16.019647],[-16.507029,16.01976],[-16.507027,16.020015],[-16.507006,16.020132],[-16.506994,16.020249],[-16.506995,16.020462],[-16.506996,16.020613],[-16.506951,16.020822],[-16.506849,16.021082],[-16.50676,16.021283],[-16.506726,16.021438],[-16.506735,16.021463],[-16.50666,16.021818],[-16.506589,16.022132],[-16.506539,16.022358],[-16.506518,16.022546],[-16.506499,16.02281],[-16.50647,16.023023],[-16.506497,16.023165],[-16.506489,16.023261],[-16.50646,16.023403],[-16.506474,16.023562],[-16.506475,16.023675],[-16.506476,16.023804],[-16.506438,16.023955],[-16.506418,16.024127],[-16.506427,16.024235],[-16.506428,16.024369],[-16.50643,16.024519],[-16.506417,16.024603],[-16.50638,16.024754],[-16.506381,16.024891],[-16.506399,16.024992],[-16.506395,16.025092],[-16.506353,16.025197],[-16.506323,16.02523],[-16.506284,16.025281],[-16.50628,16.025331],[-16.506289,16.025352],[-16.506311,16.025381],[-16.50635,16.025452],[-16.506351,16.025527],[-16.506341,16.025924],[-16.506357,16.026032],[-16.506352,16.026128],[-16.506384,16.026376],[-16.50641,16.026558],[-16.506466,16.026782],[-16.506497,16.026926],[-16.506503,16.027098],[-16.506504,16.027232],[-16.506486,16.027461],[-16.506483,16.027658],[-16.506484,16.027844],[-16.506455,16.027954],[-16.506432,16.028131],[-16.506393,16.028261],[-16.506381,16.02861],[-16.506348,16.028888],[-16.506311,16.02918],[-16.506328,16.029519],[-16.506297,16.029887],[-16.506242,16.030524],[-16.506209,16.030778],[-16.506171,16.030926],[-16.506113,16.031103],[-16.50611,16.031323],[-16.506091,16.031458],[-16.506048,16.031692],[-16.50601,16.031865],[-16.505992,16.032147],[-16.5059,16.032454],[-16.505819,16.032789],[-16.505758,16.033191],[-16.505759,16.033406],[-16.505824,16.03408],[-16.50585,16.034362],[-16.505877,16.034663],[-16.505919,16.034888],[-16.50592,16.034998],[-16.505922,16.035294],[-16.505939,16.035567],[-16.505989,16.035705],[-16.50607,16.035872],[-16.506115,16.036034],[-16.506132,16.036297],[-16.506124,16.036508],[-16.506057,16.036781],[-16.505944,16.036978],[-16.505949,16.036982],[-16.50595,16.037044],[-16.50598,16.037087],[-16.506054,16.037144],[-16.506094,16.037182],[-16.506154,16.037234],[-16.506184,16.037291],[-16.506209,16.037368],[-16.50621,16.037468],[-16.506201,16.037574],[-16.506201,16.03764],[-16.506187,16.037703],[-16.506163,16.037751],[-16.506144,16.037827],[-16.506149,16.037885],[-16.506204,16.03798],[-16.506289,16.03808],[-16.506329,16.038137],[-16.506339,16.038209],[-16.506335,16.03828],[-16.506251,16.038324],[-16.506202,16.038353],[-16.506182,16.03835],[-16.506138,16.038344],[-16.506058,16.038311],[-16.505979,16.038307],[-16.50591,16.038293],[-16.505884,16.038293],[-16.505836,16.038293],[-16.505618,16.038305],[-16.505579,16.038343],[-16.50553,16.038463],[-16.505338,16.038613],[-16.504913,16.038644],[-16.504632,16.038689],[-16.504607,16.038689],[-16.50438,16.038691],[-16.504221,16.038673],[-16.504127,16.038631],[-16.503627,16.038582],[-16.502954,16.038515],[-16.502568,16.038455],[-16.502211,16.038295]]]}}]}