{"type":"FeatureCollection","name":"geologie-cordons-littoraux.geojson","features":[{"type":"Feature","properties":{"Id":0},"geometry":{"type":"MultiPolygon","coordinates":[[[[-16.475389445385492,15.984813948084474],[-16.475497707104843,15.9859053527496],[-16.476251997441867,15.987691213208281],[-16.47771385347188,15.989942502001961],[-16.480393268607187,15.995188955687386],[-16.484458596782627,15.991953748255101],[-16.48526598924292,15.996364889484886],[-16.48487139405087,15.998872257490156],[-16.4816673321838,16.00434382696255],[-16.4798800366277,16.007746863236488],[-16.480249434064355,16.0157131849303],[-16.480061605438106,16.019872382825522],[-16.47694393793965,16.012312066933028],[-16.47453059049117,16.008703618723157],[-16.474467356191017,16.00755522629961],[-16.477097884028083,16.00388473198447],[-16.478430981503415,16.000190065041686],[-16.478795684938408,15.994334603737853],[-16.47434638578497,15.987778644828655],[-16.471276456223077,15.985658836000521],[-16.470494218033224,15.983439874116101],[-16.470503275933716,15.982815222609386],[-16.47087679679906,15.982531603096687],[-16.471200529572275,15.98092366384449],[-16.471802780149126,15.980743029058328],[-16.47437962017535,15.982399273285335],[-16.475151431966474,15.982304308040186],[-16.475918639619465,15.981581662401938],[-16.476803464698293,15.98142926966844],[-16.475389445385492,15.984813948084474]]],[[[-16.456083346099863,16.01412038931755],[-16.455960710282632,16.015894948868723],[-16.45456454134422,16.01915372924682],[-16.453249208752915,16.020174945724573],[-16.452478390248682,16.020110612639968],[-16.451829561045745,16.019703023956122],[-16.452862032686042,16.01724446939679],[-16.453353719273274,16.015234740488424],[-16.453303965291568,16.01496247913792],[-16.45587976506664,16.013927077494273],[-16.456083346099863,16.01412038931755]]],[[[-16.441053343755726,16.0382276227775],[-16.441313957104125,16.041960471422623],[-16.441108162918045,16.044828216049165],[-16.44131389286674,16.048101428127417],[-16.441190419627482,16.048122909649717],[-16.440735624855524,16.04714954472884],[-16.439522948601546,16.043570754457928],[-16.44067220781705,16.038326100910346],[-16.44115047328098,16.03667418706612],[-16.441053343755726,16.0382276227775]]],[[[-16.447536134970832,16.062302298084717],[-16.45112840809036,16.055220444975255],[-16.451258105200964,16.048167199529768],[-16.451795208333227,16.043748077779338],[-16.453063720881595,16.040411632513646],[-16.454172365138728,16.040840083507547],[-16.45465194895058,16.042398755193098],[-16.455553167201078,16.051553660802597],[-16.457655968247714,16.064366079561427],[-16.457501408514585,16.06756798197635],[-16.457255067164823,16.067605353967423],[-16.456054371441947,16.0674227785288],[-16.455940241012197,16.067354161398725],[-16.453482238397367,16.06703166501863],[-16.45254763221139,16.06715108583312],[-16.45138345870737,16.066734016338742],[-16.44846195875634,16.064917301034104],[-16.44749865230352,16.063029920993465],[-16.447416848643094,16.06280943081064],[-16.447536134970832,16.062302298084717]]]]}},{"type":"Feature","properties":{"Id":0},"geometry":{"type":"Polygon","coordinates":[[[-16.46609033855659,16.00101681972713],[-16.46678641329686,16.000616525374653],[-16.468396054595235,16.002926589871002],[-16.469219162082354,16.002168725594135],[-16.470776289573138,15.99962392753377],[-16.47099946087454,15.999554181040107],[-16.47093495650691,16.0011318736851],[-16.47130379643634,16.003933005755982],[-16.471259226730883,16.00601305175261],[-16.46976564020674,16.00771424191278],[-16.469484746927694,16.011238923517357],[-16.4687293787484,16.012666965205177],[-16.468121160872006,16.018101773949592],[-16.468348410158306,16.020196204676466],[-16.46986908936563,16.022780444043622],[-16.46808276996714,16.024084343665614],[-16.467843814012944,16.025803955264493],[-16.467243585556094,16.02651598725158],[-16.46613991524688,16.025573510103168],[-16.463927799809287,16.024190669820875],[-16.462530907861122,16.022886848163427],[-16.46247322704127,16.021164580583555],[-16.46337632115712,16.019809617678696],[-16.465174925478784,16.01788875061652],[-16.465414587392452,16.016097406224915],[-16.464777963113896,16.012863426927698],[-16.464751705130986,16.010585456935157],[-16.466061214245123,16.01011307883906],[-16.46610263178911,16.009012808803334],[-16.467108845009665,16.004605988571456],[-16.466803107537114,16.003364612422722],[-16.46630762719126,16.003224518399662],[-16.464628993060447,16.00357074894577],[-16.46503424917538,16.00207631038273],[-16.46609033855659,16.00101681972713]]]}},{"type":"Feature","properties":{"Id":0},"geometry":{"type":"Polygon","coordinates":[[[-16.486326522618874,16.014301194574983],[-16.485880840435215,16.014368988002616],[-16.485356236800314,16.014938253979984],[-16.48426343102159,16.012848143904808],[-16.485108474976467,16.009770856495585],[-16.484896849299997,16.008621158128946],[-16.483870094407774,16.00739249461738],[-16.48413487052706,16.00568806783132],[-16.486013422428698,16.00312211208517],[-16.487221074786415,16.00090889949558],[-16.487754462593852,15.999407103808133],[-16.48736923914848,15.993090664468347],[-16.4867609073436,15.986843980321932],[-16.488702564879162,15.985426399454584],[-16.489223017286047,15.985287528957487],[-16.49003805933104,15.985366480827569],[-16.488615511713977,15.986788669531903],[-16.488162422982956,15.987645525514512],[-16.489122396523612,15.988084458183206],[-16.488667271615192,15.989156514089462],[-16.488872780988086,15.990951807191403],[-16.488195851603823,15.9919501604625],[-16.489300772942897,15.992749068048974],[-16.489281780180832,15.994757589741226],[-16.489639695041312,15.996123794921246],[-16.48977038670755,15.997990161700402],[-16.489016567015486,15.999274794334102],[-16.488934266241333,16.000134932968393],[-16.490249525236557,16.00222699007114],[-16.489720896213086,16.003226660706346],[-16.488450628187017,16.004219770878997],[-16.486227762190122,16.00398487812153],[-16.485855586722987,16.004125059416367],[-16.48732799631799,16.005285920336714],[-16.487241616045164,16.006576456053175],[-16.486498614865642,16.006713356356002],[-16.48618731774424,16.00773914435272],[-16.48842866153076,16.00807441745731],[-16.488828519391035,16.011545330319397],[-16.488196339944608,16.013034299116896],[-16.488593951800613,16.016744319688247],[-16.489304843623383,16.017654511106798],[-16.49013336172146,16.01789139435895],[-16.48983438387389,16.019856099350907],[-16.485936677804098,16.016306432273463],[-16.486467391157905,16.015091569036834],[-16.486326522618874,16.014301194574983]]]}}]}