{"type":"FeatureCollection","name":"geologie-vasieres.geojson","features":[{"type":"Feature","properties":{"Id":0},"geometry":{"type":"Polygon","coordinates":[[[-16.473171562249707,16.04423869729888],[-16.473716890551387,16.043161629227185],[-16.474132382517727,16.043766880634518],[-16.476206590792952,16.044378079686513],[-16.475272477684975,16.045478957094524],[-16.475031920175308,16.045515348836012],[-16.474799694712733,16.045195011917993],[-16.474403741691354,16.045073124676403],[-16.472921648022798,16.045407553666184],[-16.473171562249707,16.04423869729888]]]}},{"type":"Feature","properties":{"Id":0},"geometry":{"type":"Polygon","coordinates":[[[-16.48978891475391,16.00802666185694],[-16.48842866153076,16.00807441745732],[-16.48618731774422,16.00773914435272],[-16.486498614865642,16.006713356356016],[-16.48724161604506,16.00657645605319],[-16.487327996317973,16.005285920336732],[-16.48585558672297,16.004125059416385],[-16.486227762190104,16.003984878121546],[-16.488450628187017,16.004219770878997],[-16.489720896213086,16.003226660706346],[-16.490249525236557,16.00222699007114],[-16.488934266241312,16.000134932968393],[-16.489016567015465,15.999274794334102],[-16.48977038670755,15.997990161700402],[-16.491166084960525,15.997179278852139],[-16.49230457036443,15.99704585909623],[-16.49274637505205,15.997384541551586],[-16.493960074617576,16.000945190439726],[-16.49335919038554,16.00618498410314],[-16.49268467852465,16.009008752305604],[-16.492433513966997,16.009425011576344],[-16.492736897259427,16.01002551131669],[-16.494157837809418,16.010097826812473],[-16.494214571804395,16.010636366850754],[-16.493525139325108,16.0116465850061],[-16.492776713673443,16.012357369904436],[-16.492211443491122,16.013308897993202],[-16.49113253881434,16.016288487485003],[-16.490390860695502,16.016281938459095],[-16.48991447433876,16.014364697196516],[-16.489748819445857,16.012270852745655],[-16.490018625788736,16.009881944146844],[-16.48978891475391,16.00802666185694]]]}},{"type":"Feature","properties":{"Id":0},"geometry":{"type":"Polygon","coordinates":[[[-16.47496808514742,16.058612271818422],[-16.475227084977266,16.057077350652982],[-16.474888104842368,16.053928537229364],[-16.47429475145043,16.051366062984975],[-16.473895469147823,16.05060037225092],[-16.47376060532627,16.04909677290718],[-16.47401669425984,16.0482368832156],[-16.477255322079927,16.044669744474128],[-16.476206590792916,16.044378079686513],[-16.477266496430193,16.044657896747406],[-16.478647063478867,16.043220564124805],[-16.478960789167783,16.04222238025398],[-16.48004720462582,16.03655910388754],[-16.480618683798756,16.037054175325398],[-16.481384730061063,16.037168587354863],[-16.482035443214976,16.03696444887588],[-16.483040428598795,16.037063393591108],[-16.48499170049177,16.0378488627674],[-16.4875606637675,16.038359294884227],[-16.48832496496427,16.03842578311768],[-16.48963074118383,16.037616018947784],[-16.48961195901572,16.040497543873943],[-16.489411185042602,16.041285036449295],[-16.489491025375703,16.042171947046146],[-16.4886650468425,16.043208414514446],[-16.487490975953254,16.046116821553078],[-16.486519766679578,16.0473549535155],[-16.48504946010328,16.048841786637244],[-16.484893779468592,16.049600089198634],[-16.485189733553838,16.0502971033514],[-16.484922455016093,16.050972971302482],[-16.483478564849598,16.05313313232448],[-16.482904365339916,16.05449778111079],[-16.48147972908646,16.05613113395637],[-16.48015248615802,16.058398290742687],[-16.47876818906249,16.059489474197193],[-16.477694459823635,16.05989059286443],[-16.47679890582734,16.05966218161346],[-16.476120257655317,16.059644759371547],[-16.475457154458574,16.05995346321073],[-16.474223687884063,16.05971668325407],[-16.47496808514742,16.058612271818422]]]}},{"type":"Feature","properties":{"Id":0},"geometry":{"type":"MultiPolygon","coordinates":[[[[-16.47795592521097,15.990416506778681],[-16.476715019614822,15.9884042841243],[-16.47738097567783,15.988615510462912],[-16.478594585466357,15.988262857061152],[-16.47903152058738,15.990791103481772],[-16.479047788479654,15.99255446829849],[-16.47795592521097,15.990416506778681]]],[[[-16.4790603736092,15.99257911072796],[-16.479048190676412,15.992589792566157],[-16.479047788479654,15.99255446829849],[-16.4790603736092,15.99257911072796]]],[[[-16.457637669052808,16.06474517533267],[-16.455553167216127,16.051553660957183],[-16.454651948736686,16.042398755574652],[-16.454172364887903,16.040840083563673],[-16.453063721134665,16.040411632825],[-16.451795207888278,16.04374807743441],[-16.45125810509046,16.048167199939556],[-16.45112840766852,16.05522044534869],[-16.447536135350706,16.062302298170035],[-16.44741684887336,16.06280943143128],[-16.446288017394053,16.05976682602754],[-16.443208268486405,16.05244156812163],[-16.44089013756561,16.04748023729854],[-16.44120934933287,16.04643813513745],[-16.441108162656096,16.04482821582849],[-16.441313957151067,16.041960471351178],[-16.44105334407813,16.038227623108334],[-16.441150473693543,16.036674185641136],[-16.442337045240926,16.032575804900485],[-16.443629896049583,16.026684526074852],[-16.444209733362133,16.02496845773532],[-16.445832137758497,16.018501041453593],[-16.446444633202447,16.017719744585396],[-16.453303965126167,16.014962479204407],[-16.453353719101447,16.015234740585313],[-16.452862033048184,16.01724446938638],[-16.451829561206125,16.01970302436029],[-16.45247839034231,16.02011061238751],[-16.453249208637466,16.0201749455601],[-16.45456454088138,16.019153729398887],[-16.455960710079268,16.015894949277392],[-16.456083345700232,16.01412038915434],[-16.45587976499428,16.01392707752336],[-16.459304606391093,16.012550384177153],[-16.464751705053043,16.010585456963273],[-16.46477796357942,16.012863427284913],[-16.46541458777926,16.016097406637666],[-16.46517492522877,16.017888750655263],[-16.463376320940114,16.019809617475204],[-16.46247322728452,16.021164580428508],[-16.46253090751993,16.022886848030744],[-16.463927799748834,16.024190669594134],[-16.466139915397985,16.02557351019048],[-16.46724358571169,16.026515987401133],[-16.467843813961075,16.0258039551361],[-16.468082770118713,16.02408434337043],[-16.46986908979197,16.02278044369994],[-16.468348410116516,16.02019620507905],[-16.468121161050778,16.018101774365405],[-16.468729379065906,16.01266696492856],[-16.46948474647421,16.011238923811607],[-16.4697258573667,16.008638743662377],[-16.470491692718607,16.007887477851632],[-16.471259226385033,16.006013052045557],[-16.471908275774418,16.002827697985417],[-16.472315169026114,16.00167717257522],[-16.47239932694197,16.00101663932899],[-16.472093230710584,15.999727516166125],[-16.472315940838495,15.998606947079047],[-16.471673786126296,15.995110731987348],[-16.471741986714452,15.992269592533107],[-16.472170336984842,15.989999862554935],[-16.472269106665603,15.986344278268877],[-16.4743463859138,15.987778645086836],[-16.478795685230356,15.994334603508433],[-16.47846582198149,15.997112398686403],[-16.477991534018717,15.998192045611312],[-16.478069556399987,16.000100167027558],[-16.477999080128377,16.00073397162339],[-16.47785250236823,16.000886738482766],[-16.477798297295006,16.001943559052574],[-16.477097884028083,16.00388473198447],[-16.47446778643928,16.00755462596737],[-16.47453065880698,16.008696445400822],[-16.475069205667396,16.009501697943303],[-16.4755375269501,16.0123033344099],[-16.4774209695302,16.01335985973414],[-16.479079304864815,16.017392020907007],[-16.477774472446356,16.01936239481154],[-16.47763729113884,16.020902316336652],[-16.476950006487233,16.022651221592753],[-16.476023448946798,16.023601503152413],[-16.47536696018507,16.023770175598493],[-16.474665625417877,16.023610839117765],[-16.474236181507997,16.022916120064515],[-16.472980977342175,16.022452785757142],[-16.472639265174625,16.022147335318333],[-16.471769715026085,16.022194339904686],[-16.471495563234605,16.022421937569128],[-16.47266499745246,16.022762750752126],[-16.472943966748065,16.02319175049214],[-16.473922613133453,16.023554385340432],[-16.474020398702987,16.02383871466431],[-16.474522846590492,16.02388079048376],[-16.47477052643919,16.024273666143966],[-16.475580164116515,16.024265064550626],[-16.476171532808454,16.024449180048638],[-16.477230041360247,16.023223845356934],[-16.477500108778784,16.022442237737646],[-16.478318459599997,16.021205420480957],[-16.47956527062554,16.018615486306974],[-16.480061673524,16.019865209524916],[-16.480163722756995,16.0176054746617],[-16.481184288809416,16.01566586883979],[-16.482301872987225,16.014734769806378],[-16.481898333927106,16.01467599673783],[-16.481412205560744,16.014925587917087],[-16.480754539922433,16.014930125221056],[-16.48018067112784,16.014221715804055],[-16.479880104754844,16.007739689927924],[-16.484871394050835,15.998872257490156],[-16.48526598924292,15.996364889484886],[-16.48445859678259,15.991953748255101],[-16.480393268607187,15.995188955687386],[-16.47959348872056,15.993641366871664],[-16.480304317488635,15.991644058997037],[-16.4803663810199,15.989868284292314],[-16.48144698080251,15.988903162269768],[-16.481885783375827,15.988068020574078],[-16.483186673304886,15.98748519091899],[-16.483480965066896,15.987167529960745],[-16.48335406747625,15.98604936587043],[-16.483567372737625,15.985438189692994],[-16.482760837643887,15.983633903605174],[-16.483014803465803,15.983505730774901],[-16.48405961444324,15.985783087128231],[-16.484354533023286,15.985941523040085],[-16.484642994998655,15.98658975143276],[-16.48483165771406,15.986248430014754],[-16.484569748453577,15.985856524918775],[-16.485545708694545,15.986070503984816],[-16.485739559523967,15.9864330459192],[-16.485015110992205,15.98687353472272],[-16.48496172532523,15.987160227224988],[-16.486108636279106,15.986305226916485],[-16.486729877080666,15.986086182315578],[-16.487342483863138,15.985533132123155],[-16.487233956058606,15.985277269888586],[-16.487662077607474,15.984927108082058],[-16.488057532101447,15.985194738170131],[-16.489999008390008,15.98332267934949],[-16.49081079994664,15.982014986784193],[-16.490929072997485,15.982100280388652],[-16.491423882537443,15.981447779896353],[-16.49175420901346,15.981330048275327],[-16.491727350957152,15.98095896427918],[-16.492146965568775,15.980637248497148],[-16.49227335084254,15.980337011068224],[-16.49280494868482,15.979946724245613],[-16.49312794697155,15.979963488894839],[-16.493558189342355,15.979416129125134],[-16.494142111908833,15.979354557913641],[-16.494576444471306,15.97966346974396],[-16.494920877481622,15.980697005685137],[-16.495273379212122,15.98116468252212],[-16.495221197624776,15.981478842910388],[-16.494885735362487,15.981788622326452],[-16.494901696181525,15.982161722709623],[-16.49451979658335,15.98330246274146],[-16.495581623696427,15.981122978897146],[-16.494991688668613,15.97971436297837],[-16.495025891659882,15.979249078122635],[-16.494923405804947,15.97907568054664],[-16.494277941217636,15.978917237493924],[-16.49400985604328,15.978149728490418],[-16.493906654376392,15.97709778586233],[-16.494175285197972,15.976216641224363],[-16.494759417817214,15.975818184460419],[-16.494790408933614,15.975841871710726],[-16.49568473272018,15.975727806544946],[-16.496023179655058,15.975213897216491],[-16.496048722942906,15.974951277528643],[-16.49603789015497,15.974946094914804],[-16.496186777079856,15.974844534070007],[-16.49639222942848,15.975159195436628],[-16.49618512077107,15.976538847148696],[-16.4962778840001,15.976896988484194],[-16.496743405601933,15.977113359664601],[-16.49645381769269,15.981170012115454],[-16.496809404678423,15.98201306372823],[-16.496915185705955,15.983334683028154],[-16.4971919719469,15.984414543950255],[-16.497952631010143,15.986003825095908],[-16.498028790465657,15.986529031298119],[-16.497776953063937,15.987232930836361],[-16.497856911907203,15.987817497139499],[-16.498329169968756,15.988282293401253],[-16.49853967029061,15.988119932397549],[-16.49875181232664,15.988176964507153],[-16.498528039421014,15.988588100290036],[-16.497233240344148,15.989357777365642],[-16.49694963042283,15.989857102159961],[-16.49689618058368,15.99048365314985],[-16.497641405039342,15.991461807044182],[-16.497979531384274,15.991532016717036],[-16.498114262350207,15.991993706049511],[-16.497600611246927,15.99353939439067],[-16.49759151698014,15.99483660626556],[-16.497771108846568,15.995025861602995],[-16.497649617845603,15.99634201258575],[-16.497847432614556,15.996458575040428],[-16.49759646267165,15.996759664943482],[-16.49746376903109,15.997830977379213],[-16.497634053960304,15.998029360853664],[-16.49759264090636,15.998764413492227],[-16.498132720696788,15.99950447580498],[-16.497829126033604,16.000295780515145],[-16.497854031909693,16.001121092337925],[-16.497440361966976,16.003500603554215],[-16.497302124057725,16.00598885256799],[-16.497746593577126,16.00535424873163],[-16.497696338036214,16.00429032746432],[-16.498116527012296,16.002465856866124],[-16.49854394998355,16.00161351342436],[-16.498716860374234,16.000681082365013],[-16.49863853449802,16.00010856159329],[-16.499011983419688,15.99911331633923],[-16.499214209450557,15.999275630522284],[-16.499199840562586,16.000186508214163],[-16.499569003924208,16.001452852269388],[-16.50006253790255,16.002370414776635],[-16.500627372823956,16.002919074592587],[-16.499615706209614,16.00629290796435],[-16.49859065207139,16.007875985357966],[-16.49836476747648,16.008798569491933],[-16.49825996349746,16.00893233277234],[-16.497963272040163,16.00887301658256],[-16.49761816119232,16.00799535386228],[-16.497432376957054,16.008620885921417],[-16.497598466608046,16.009612352942387],[-16.49809480897369,16.00948610439847],[-16.498668184429,16.009758398664882],[-16.4989574230795,16.010237338384535],[-16.499012557398686,16.010780757398557],[-16.49946830753562,16.010643098435217],[-16.499825621492086,16.011735580738936],[-16.499501310759154,16.012229049787344],[-16.49974625857723,16.01244223334863],[-16.500159025520187,16.012459811687705],[-16.50037459642261,16.012990447601915],[-16.500110402944443,16.013033232201472],[-16.499868785091962,16.014682472799606],[-16.499402173756174,16.015822159192922],[-16.499763523465614,16.01795239228287],[-16.500235083665768,16.01848355939345],[-16.500426590411934,16.018513044997604],[-16.50002385890245,16.01865976497857],[-16.500068746931806,16.01897805634499],[-16.499890243105778,16.01926708468485],[-16.50027417991623,16.019449405233004],[-16.499020290695366,16.020886825530297],[-16.498590348732822,16.02166066894362],[-16.498519722859548,16.022164800613233],[-16.499036609634057,16.02449431964036],[-16.49879337740696,16.026078827792414],[-16.498424817724953,16.026533637548603],[-16.498079083327855,16.026647060299293],[-16.496438540536097,16.029633579551852],[-16.49406982840148,16.030701141240897],[-16.490218473361242,16.032748927434245],[-16.48991601270997,16.033170105908596],[-16.48916791596974,16.03508804715594],[-16.488653557715956,16.0353837202962],[-16.48854204328122,16.036075853496015],[-16.488122953681934,16.036854271438944],[-16.488544860959077,16.03703660736797],[-16.488153100813797,16.03746298770624],[-16.48698938794005,16.037351825705233],[-16.486560815650495,16.036723670526655],[-16.486410460472907,16.037193948870296],[-16.485917198162994,16.037424102995146],[-16.485252638289886,16.036878219256923],[-16.484899006301024,16.03687620160256],[-16.484293168411558,16.036577810162402],[-16.48370838428587,16.036624483489206],[-16.482375368082963,16.036296519799627],[-16.48218371469633,16.035661461271253],[-16.48238605325579,16.03476465299196],[-16.482032423903455,16.034205893244334],[-16.482736090908162,16.033219199599987],[-16.482512876465346,16.03290163133763],[-16.481833075124815,16.034311354314795],[-16.482194505805964,16.034848338727837],[-16.482123430243963,16.035308782514235],[-16.481874689263012,16.035626635060158],[-16.48208778286742,16.036079742770877],[-16.481995796901572,16.036423313812275],[-16.48091933007589,16.03649270500998],[-16.480411042676177,16.035746521693557],[-16.480273355097268,16.03513015328208],[-16.480529071659525,16.034256875700635],[-16.480560799563225,16.032873512324112],[-16.4783992955838,16.0298304082646],[-16.477583867809074,16.026922500842517],[-16.476509059766418,16.02719651868474],[-16.476177559607613,16.02746670253202],[-16.475816790545895,16.027874396118012],[-16.475926345183865,16.02832547607948],[-16.476054784369012,16.028269405163734],[-16.475986022487145,16.029129170625016],[-16.47632364173014,16.029090535039856],[-16.47667573085221,16.029318098717532],[-16.476740790772038,16.029656516281666],[-16.47645332312489,16.029706921198503],[-16.476186964917655,16.029224639971726],[-16.476088805149626,16.02949158572243],[-16.476329609002512,16.029901447666866],[-16.47605428720423,16.029903342444516],[-16.475964378052137,16.02958923562901],[-16.47582743355743,16.029687029975022],[-16.475732485677614,16.03038967116178],[-16.475225979837592,16.031288789229382],[-16.475303919798208,16.03167554476669],[-16.474031941141074,16.03267467503732],[-16.47392469564459,16.034138381371278],[-16.473291258677882,16.034212673151316],[-16.47284867042348,16.034632020026123],[-16.472088504799462,16.034640722072897],[-16.471601085973948,16.035431265445308],[-16.471471975473914,16.03613031599824],[-16.470382065293556,16.036898349640957],[-16.470389013540533,16.037570103725603],[-16.470112019483604,16.037560149112615],[-16.469542825088553,16.038104002624255],[-16.46835064884177,16.038442738092105],[-16.467515827655053,16.03846924550587],[-16.46700388772382,16.03809704100507],[-16.46708913460769,16.038854737990718],[-16.467378086804935,16.039108109596427],[-16.468110104468064,16.039186335767297],[-16.46828037451349,16.038921792378847],[-16.4692013249057,16.038425339202387],[-16.46964922416128,16.038362505777847],[-16.469945745912547,16.03810585437922],[-16.4700225595655,16.037769397461613],[-16.470485749532262,16.037731449015812],[-16.47072394946967,16.03686456130593],[-16.471782202553495,16.03613560331751],[-16.471990791458865,16.03511412051842],[-16.47305352454392,16.034910596074166],[-16.47352967251019,16.034422583291153],[-16.474067610931513,16.0344061275427],[-16.474335906127315,16.033461164763885],[-16.474343447759626,16.03278680125082],[-16.475239372070877,16.032136343476314],[-16.475746186394954,16.03097710302829],[-16.47647925758087,16.030441596357562],[-16.476586595006786,16.029958627111622],[-16.476956886097412,16.030008572137056],[-16.47764374771778,16.030808483327533],[-16.47809878983671,16.03098049821884],[-16.478793065338362,16.03205494903101],[-16.478653362729876,16.037246161193718],[-16.47781315234513,16.042224298770556],[-16.477563833116065,16.042546580592592],[-16.47737923221888,16.04323795961885],[-16.476447261612677,16.043926665054165],[-16.476206590339526,16.044378079774795],[-16.47451191237037,16.04459066615563],[-16.474213234409287,16.04449530392084],[-16.473827813999293,16.045459882736974],[-16.474630613797228,16.045222883746973],[-16.47495039087834,16.045904077029615],[-16.47278595915721,16.049578556788617],[-16.472652968339645,16.05028300580349],[-16.473128301369243,16.051403986183225],[-16.47426334137803,16.055640150522766],[-16.474247304202827,16.056405969754714],[-16.473691421314278,16.058680590303645],[-16.47322795640801,16.059059131273845],[-16.471790857719075,16.05975506278887],[-16.471230000435288,16.0603181653707],[-16.47088943570424,16.06088057151215],[-16.470822217673085,16.061810584867743],[-16.470290392193363,16.062172279779677],[-16.469095845598794,16.06263096692843],[-16.468226218329,16.062772286184735],[-16.466660108766845,16.063762545771823],[-16.464949170297793,16.06428464542896],[-16.463269295289425,16.06519112700158],[-16.461430037097053,16.065150506612436],[-16.46018598760179,16.065414087212066],[-16.457637669052808,16.06474517533267]],[[-16.49013336172146,16.01789139435897],[-16.489304843623383,16.017654511106798],[-16.488593951800613,16.016744319688286],[-16.488196339944608,16.013034299116914],[-16.488828519391035,16.011545330319418],[-16.48842866153076,16.00807441745732],[-16.489140528055035,16.004932038413536],[-16.49200797197355,16.00026566021068],[-16.48977038670755,15.997990161700418],[-16.489639695041312,15.996123794921264],[-16.489281780180832,15.994757589741244],[-16.489300772942897,15.992749068048989],[-16.488195851603823,15.991950160462522],[-16.488872780988086,15.990951807191422],[-16.48866727161509,15.989156514089478],[-16.489122396523612,15.988084458183206],[-16.488162422982814,15.98764552551455],[-16.488615511713977,15.986788669531919],[-16.490038059331006,15.985366480827585],[-16.489223017286047,15.98528752895752],[-16.488702564879162,15.985426399454616],[-16.4867609073436,15.986843980321945],[-16.48775446259375,15.999407103808155],[-16.487221074786415,16.000908899495595],[-16.486013422428663,16.00312211208518],[-16.48413487052706,16.00568806783132],[-16.483870094407774,16.007392494617402],[-16.484896849299997,16.008621158128978],[-16.485108474976467,16.009770856495603],[-16.484263431021557,16.012848143904826],[-16.485356236800314,16.014938253980024],[-16.485880840435215,16.01436898800265],[-16.486326522618874,16.01430119457502],[-16.486467391157905,16.015091569036834],[-16.485936677804062,16.016306432273495],[-16.48983438387389,16.019856099350942],[-16.49013336172146,16.01789139435897]]],[[[-16.460777454266786,16.06855422481186],[-16.460767007615324,16.068548624198534],[-16.464983543123033,16.06837432816468],[-16.468624093964692,16.067626129948597],[-16.469037363385272,16.068462048197382],[-16.469222202511776,16.069550342436816],[-16.4672888613069,16.06968828916431],[-16.46728886130605,16.06968828916435],[-16.464091837090965,16.069489490200567],[-16.460777454266786,16.06855422481186]]]]}},{"type":"Feature","properties":{"Id":0},"geometry":{"type":"Polygon","coordinates":[[[-16.46915057213974,16.0380332993117],[-16.469591136377023,16.038019408854456],[-16.46840053584084,16.038645942239626],[-16.467515827335404,16.038469245490415],[-16.46915057213974,16.0380332993117]]]}},{"type":"Feature","properties":{"Id":0},"geometry":{"type":"Polygon","coordinates":[[[-16.470901299459882,16.045399612020546],[-16.47086982449693,16.045662659603646],[-16.470662847778776,16.04499856017806],[-16.47096309644971,16.04488315107418],[-16.470901299459882,16.045399612020546]]]}},{"type":"Feature","properties":{"Id":0},"geometry":{"type":"Polygon","coordinates":[[[-16.505583354179656,16.038357629839943],[-16.505303721839564,16.03866573893202],[-16.50431210717606,16.03874049818478],[-16.502532546407576,16.038508164740563],[-16.501741919390792,16.03795405201824],[-16.5019290482474,16.037182617316205],[-16.501963931700477,16.036555716643768],[-16.501859802950886,16.036522958564355],[-16.50219201790793,16.035970555361487],[-16.50300618791171,16.032405925072325],[-16.50328936083589,16.026630287410878],[-16.503523675161187,16.02621727799627],[-16.503534711142603,16.02459783183806],[-16.50414740346591,16.02101615898351],[-16.50464555943775,16.019449674908667],[-16.505110555264984,16.018648204023627],[-16.505303546321798,16.018561454684484],[-16.506624607806085,16.018871613942267],[-16.507188481854413,16.019157159316997],[-16.50648403241352,16.02259621775562],[-16.506245666757167,16.025381202329473],[-16.506449523644914,16.027894890083484],[-16.506174791114933,16.030829085501228],[-16.505723020421282,16.03324308913346],[-16.505904088075148,16.035619219730776],[-16.506095535938307,16.03631845930081],[-16.505915187379298,16.037097229816883],[-16.506174827484738,16.037420674727137],[-16.506114406498483,16.037937716045054],[-16.50630256496122,16.038298133193564],[-16.505583354179656,16.038357629839943]]]}},{"type":"Feature","properties":{"Id":0},"geometry":{"type":"Polygon","coordinates":[[[-16.499749005978607,16.0522358214202],[-16.500890971787303,16.05337565140594],[-16.50181789309993,16.054796909859945],[-16.502296921974672,16.055024342269366],[-16.502148058207734,16.055767218357552],[-16.503248808967864,16.056395405721705],[-16.503871791583773,16.05762043065594],[-16.50406593795333,16.060120284503085],[-16.504424298511108,16.061135204696967],[-16.504821729880668,16.061513940063318],[-16.504340761824896,16.061686887782756],[-16.503776254689676,16.06241154667154],[-16.503434760288204,16.06364337190265],[-16.503441128272474,16.064491196759967],[-16.5038906862842,16.065971788656267],[-16.50381351806835,16.06737129607504],[-16.502942734522662,16.0681829186407],[-16.502414399995573,16.067889854473364],[-16.50196071880638,16.06585816247167],[-16.50186730583716,16.065095731947437],[-16.501985790427835,16.063356768551543],[-16.501489227793538,16.061452550583223],[-16.5010444748703,16.060607798283836],[-16.499940537590625,16.05955570246921],[-16.499318840485408,16.058500224316735],[-16.49883945730829,16.057195887433025],[-16.49848467512223,16.054585717799156],[-16.498523136014843,16.05176524005841],[-16.49894923968944,16.050004970589423],[-16.49917222007913,16.050022825633746],[-16.499749005978607,16.0522358214202]]]}},{"type":"Feature","properties":{"Id":0},"geometry":{"type":"Polygon","coordinates":[[[-16.499638797618655,15.998940210940725],[-16.499133447375783,15.998749249412358],[-16.49979202768186,15.997659634918374],[-16.500413807981296,15.995894670127043],[-16.50054327423348,15.994808747615071],[-16.500991957327106,15.993956016402754],[-16.501104645523597,15.992041078980309],[-16.50004272635539,15.987694444870971],[-16.499666720223892,15.987008235772594],[-16.499376099222832,15.985833523951658],[-16.49904610505995,15.985347918242446],[-16.499356560350463,15.98520224153467],[-16.500314213821568,15.986300536906699],[-16.500937174513275,15.989452535472774],[-16.50137675960291,15.990217155374399],[-16.501824160611868,15.990613253748656],[-16.50258833111667,15.990914995111728],[-16.502640099588074,15.990761077937366],[-16.50244878377251,15.990649836162081],[-16.50273279833305,15.990422634542773],[-16.502731039583175,15.990187226503377],[-16.50160916627508,15.990164351850316],[-16.501735000430266,15.990009932073693],[-16.50266602384598,15.989982960016281],[-16.50284698257903,15.990125002628533],[-16.503042734460028,15.99082992416775],[-16.50204180185087,15.992832949929861],[-16.502174900572758,15.993650918141343],[-16.50247264118716,15.993843310182902],[-16.502894917421322,15.99370729801119],[-16.502877730147315,15.994239686623224],[-16.50272168052289,15.994599039295188],[-16.50156693784746,15.995845669032729],[-16.500264283124757,15.998546868811607],[-16.499638797618655,15.998940210940725]]]}},{"type":"Feature","properties":{"Id":0},"geometry":{"type":"Polygon","coordinates":[[[-16.497224841519216,16.050534262811954],[-16.496785796120342,16.052033998560187],[-16.496479515037876,16.052471530476122],[-16.496678008573884,16.05267423756108],[-16.49698694021853,16.052590406491987],[-16.497159980000227,16.051269418473005],[-16.49718361912668,16.052548224974448],[-16.49659756198415,16.05320543746904],[-16.49654351161731,16.0535051545005],[-16.49699280427773,16.055257185862466],[-16.496465052138703,16.056186067272936],[-16.49698143710779,16.057502266257963],[-16.497578180218035,16.05827363242327],[-16.49707887750453,16.059243152790195],[-16.496999338864274,16.05989679663533],[-16.497509538877054,16.060383059684153],[-16.498307147436048,16.06167005273167],[-16.498773713995668,16.061966097161065],[-16.498990784297558,16.06276734879392],[-16.49974335086807,16.063673697351902],[-16.500174445076002,16.06674561961803],[-16.49995757368255,16.067849248617794],[-16.50025825843409,16.06854103476827],[-16.500597190504912,16.06870194500314],[-16.498908976342406,16.07063222768234],[-16.498408737908306,16.071479308443976],[-16.498258020459215,16.07202460269333],[-16.498818330058484,16.072433915276466],[-16.49942578537635,16.072590048009623],[-16.498343847680708,16.073060139910414],[-16.498343847680076,16.07306013991046],[-16.496341709625995,16.07315371819247],[-16.49488649848014,16.07290365796864],[-16.493792717376085,16.07236942417141],[-16.493723878537217,16.072086047436247],[-16.493632093418725,16.071708211789357],[-16.493670413208058,16.07127976671087],[-16.493718312944722,16.07074421036276],[-16.493718312944722,16.070744210362744],[-16.493186331161894,16.07038665507375],[-16.492901171013905,16.06972631056963],[-16.49161747161207,16.068771860462046],[-16.49048564118132,16.0673045719632],[-16.489886022360857,16.066224941657097],[-16.48931060267047,16.06421183972612],[-16.489304107192353,16.063338814709827],[-16.488828588949474,16.06219811471975],[-16.488632610865555,16.06096510898766],[-16.48893879564647,16.060270543868118],[-16.490020840021845,16.059239442976267],[-16.490020840021845,16.059239442976253],[-16.489918705387094,16.0580660164034],[-16.489429419539704,16.05761288537136],[-16.48942941953599,16.057612885372826],[-16.489111201416385,16.057736726715834],[-16.490122436444064,16.056276962310154],[-16.491820465795694,16.05469421311716],[-16.493963006063527,16.051775933320897],[-16.494932103349942,16.050834375271997],[-16.49586100661294,16.050285957233758],[-16.496466408713797,16.048962037818978],[-16.496903688316547,16.04878489654274],[-16.49718975910198,16.048956984710404],[-16.49748948634654,16.049628469569154],[-16.49772590138126,16.049740714956254],[-16.497741962108474,16.050068051653522],[-16.497224841519216,16.050534262811954]]]}}]}