{"type":"FeatureCollection","name":"occupation-sol-2020","features":[{"type":"Feature","properties":{"categorie":"Prairie aquatique"},"geometry":{"type":"Polygon","coordinates":[[[-16.495915,15.97713],[-16.495827,15.977217],[-16.49592,15.977747],[-16.49534,15.977507],[-16.493993,15.977488],[-16.49427754030969,15.976146889528312],[-16.495012208479725,15.975645747335662],[-16.495157,15.975726],[-16.495662,15.975759],[-16.495996,15.975548],[-16.496121841806495,15.97488882863264],[-16.49612264483327,15.974888280860714],[-16.496347,15.974986],[-16.496453,15.975446],[-16.496137,15.976822],[-16.49701,15.977448],[-16.496765,15.978161],[-16.496303,15.977357],[-16.495915,15.97713]]]}},{"type":"Feature","properties":{"categorie":"Mangrove"},"geometry":{"type":"Polygon","coordinates":[[[-16.500924,15.994053],[-16.501038,15.993191],[-16.500949,15.992807],[-16.501115,15.992367],[-16.500915,15.991457],[-16.5005,15.990861],[-16.500343,15.987928],[-16.50067,15.988308],[-16.501475,15.990472],[-16.502463,15.990854],[-16.502756,15.99132],[-16.502586,15.991802],[-16.502006,15.992257],[-16.501826,15.99259],[-16.502173,15.99393],[-16.501958,15.994681],[-16.502235,15.994664],[-16.502623,15.993837],[-16.50292,15.993912],[-16.503005,15.99411],[-16.502574,15.994806],[-16.501818,15.995498],[-16.500145,15.99876],[-16.499786,15.998968],[-16.499401,15.998966],[-16.499241,15.998833],[-16.500403,15.99601],[-16.500615,15.994761],[-16.500924,15.994053]]]}},{"type":"Feature","properties":{"categorie":"Mare"},"geometry":{"type":"Polygon","coordinates":[[[-16.493307,15.985554],[-16.495914,15.98542],[-16.496093,15.985657],[-16.496167,15.987215],[-16.496022,15.988978],[-16.496469,15.995139],[-16.495576,15.996853],[-16.495081,15.998167],[-16.493787,15.99633],[-16.492622,15.994399],[-16.492417,15.993789],[-16.493159,15.991095],[-16.492999,15.98711],[-16.493307,15.985554]]]}},{"type":"Feature","properties":{"categorie":"Plaine inondable"},"geometry":{"type":"Polygon","coordinates":[[[-16.495958,15.98543],[-16.496621,15.985415],[-16.496557,15.984856],[-16.494749,15.984486],[-16.49455,15.983047],[-16.493338,15.980885],[-16.492575,15.981345],[-16.491457,15.981728],[-16.493233,15.979626],[-16.493978,15.979286],[-16.494553,15.979479],[-16.495196,15.980775],[-16.495243,15.98127],[-16.495579,15.981252],[-16.494929,15.978954],[-16.494703,15.978811],[-16.494284,15.978922],[-16.494105,15.978752],[-16.493993,15.977488],[-16.49534,15.977507],[-16.49592,15.977747],[-16.495915,15.97713],[-16.496303,15.977357],[-16.496765,15.978161],[-16.496663,15.978535],[-16.496893,15.979257],[-16.496379,15.98048],[-16.496337,15.981149],[-16.496518,15.981672],[-16.497018,15.982256],[-16.49703,15.983937],[-16.497763,15.985749],[-16.496494,15.985902],[-16.496113,15.986185],[-16.495958,15.98543]]]}},{"type":"Feature","properties":{"categorie":"Steppe"},"geometry":{"type":"Polygon","coordinates":[[[-16.509797,15.994711],[-16.509193,15.994878],[-16.509084,15.992782],[-16.508502,15.992371],[-16.508611,15.991963],[-16.508486,15.99143],[-16.508791137368185,15.990977986809071],[-16.509491391530595,15.991538932481603],[-16.51159747135671,15.991590363730918],[-16.511457,15.992729],[-16.511134,15.994916],[-16.509797,15.994711]]]}},{"type":"Feature","properties":{"categorie":"Prairie aquatique"},"geometry":{"type":"Polygon","coordinates":[[[-16.496912,16.048771],[-16.497812,16.049917],[-16.497721,16.050197],[-16.497253,16.050657],[-16.497149,16.052629],[-16.496668,16.053115],[-16.496487,16.052646],[-16.495573,16.052584],[-16.494099,16.05156],[-16.495351,16.05036],[-16.496154,16.049865],[-16.496543,16.049061],[-16.496912,16.048771]]]}},{"type":"Feature","properties":{"categorie":"Prairie aquatique"},"geometry":{"type":"Polygon","coordinates":[[[-16.463155,16.063818],[-16.464147,16.063836],[-16.464479,16.063547],[-16.4672,16.0603],[-16.467344,16.059689],[-16.468005,16.058788],[-16.468407,16.057852],[-16.468216,16.057208],[-16.467658,16.056889],[-16.467026,16.05675],[-16.46573,16.057117],[-16.464949,16.0568],[-16.465071,16.056413],[-16.46692,16.056242],[-16.468582,16.055741],[-16.469132,16.055323],[-16.469714,16.054467],[-16.470321,16.052895],[-16.470531,16.051208],[-16.470433,16.049732],[-16.469925,16.048413],[-16.469912,16.047678],[-16.470248,16.046833],[-16.470845,16.046523],[-16.47119,16.047933],[-16.470901,16.048976],[-16.471167,16.04987],[-16.471181,16.051771],[-16.471589,16.051804],[-16.471922,16.051659],[-16.472644,16.050614],[-16.473124,16.051796],[-16.473614,16.053627],[-16.474159,16.056552],[-16.473779,16.058299],[-16.473197,16.059143],[-16.471735,16.059912],[-16.470956,16.060758],[-16.470773,16.061247],[-16.471142,16.061869],[-16.470986,16.062231],[-16.468989,16.06276],[-16.466792,16.06386],[-16.464833,16.064451],[-16.463464,16.065148],[-16.462212,16.065138],[-16.463155,16.063818]]]}},{"type":"Feature","properties":{"categorie":"Prairie aquatique"},"geometry":{"type":"Polygon","coordinates":[[[-16.499013,16.049976],[-16.499325,16.050031],[-16.499572,16.050302],[-16.500054,16.052178],[-16.500671,16.053466],[-16.503292,16.056575],[-16.503948,16.058026],[-16.504211,16.060645],[-16.504172,16.06172],[-16.503999,16.062309],[-16.503471,16.062982],[-16.503234,16.063797],[-16.50335,16.064221],[-16.503974,16.065192],[-16.504189,16.066492],[-16.503757,16.067417],[-16.502967,16.067983],[-16.502546,16.06795],[-16.502076,16.067592],[-16.501693,16.06641],[-16.501592,16.065408],[-16.501808,16.06302],[-16.501098,16.060576],[-16.500739,16.060073],[-16.49981,16.059636],[-16.499434,16.059268],[-16.49886,16.0576],[-16.498295,16.055118],[-16.498241,16.053841],[-16.498267,16.05143],[-16.498659,16.050294],[-16.499013,16.049976]]]}},{"type":"Feature","properties":{"categorie":"Prairie aquatique"},"geometry":{"type":"Polygon","coordinates":[[[-16.50433625105104,16.06820159031372],[-16.503262653960775,16.06881081984554],[-16.502421533308848,16.070151855019596],[-16.502438,16.069833],[-16.502656,16.069257],[-16.503039,16.068824],[-16.504088,16.068228],[-16.50433625105104,16.06820159031372]]]}},{"type":"Feature","properties":{"categorie":"Prairie aquatique"},"geometry":{"type":"MultiPolygon","coordinates":[[[[-16.489273,16.061402],[-16.489311,16.060499],[-16.490087,16.059897],[-16.490329,16.059079],[-16.490285,16.058275],[-16.489803,16.057483],[-16.489772,16.057112],[-16.490048,16.056523],[-16.491355,16.055059],[-16.491607,16.055084],[-16.492641,16.055782],[-16.493701,16.057573],[-16.494019,16.058845],[-16.494291,16.058881],[-16.495044,16.060227],[-16.495221,16.062266],[-16.49513,16.062936],[-16.495461,16.063556],[-16.4954,16.063735],[-16.494216,16.063937],[-16.493539,16.06427],[-16.493297,16.064989],[-16.493435,16.066871],[-16.493722,16.068065],[-16.494595,16.069075],[-16.494885,16.070347],[-16.495306,16.070866],[-16.495491,16.07155],[-16.495203,16.072095],[-16.495324,16.072295],[-16.496872,16.072573],[-16.497571,16.071998],[-16.497943,16.06992],[-16.498462,16.068863],[-16.499375,16.068021],[-16.499431,16.067231],[-16.499724,16.066787],[-16.499746,16.066368],[-16.499181,16.06474],[-16.499069,16.062844],[-16.499592,16.063526],[-16.499931,16.064296],[-16.500232,16.06679],[-16.500028,16.067365],[-16.500059,16.068109],[-16.500317,16.068607],[-16.5007,16.068641],[-16.500488,16.069049],[-16.498672,16.07114],[-16.498194,16.072219],[-16.497823,16.07261],[-16.49780394890436,16.073100565712735],[-16.496866281395206,16.073170775098326],[-16.496169,16.072721],[-16.495514,16.072599],[-16.495016,16.072259],[-16.494834,16.071955],[-16.494443,16.072296],[-16.493911553719087,16.072427467220916],[-16.493792717376085,16.07236942417141],[-16.493632093418725,16.071708211789367],[-16.493718312944722,16.070744210362744],[-16.493186331161894,16.07038665507375],[-16.492901171013905,16.06972631056963],[-16.49161747161207,16.068771860462046],[-16.49048564118132,16.0673045719632],[-16.489886022360857,16.066224941657097],[-16.48931060267047,16.06421183972612],[-16.489304107192353,16.063338814709827],[-16.488966183865923,16.062528185168524],[-16.489273,16.061402]]],[[[-16.494607,16.072743],[-16.494991944460835,16.07292177756978],[-16.49488649848014,16.07290365796864],[-16.494548119688943,16.072738384143875],[-16.494607,16.072743]]]]}},{"type":"Feature","properties":{"categorie":"Prairie aquatique"},"geometry":{"type":"Polygon","coordinates":[[[-16.498593,16.0729],[-16.498917,16.072534],[-16.49957,16.072491],[-16.49959526923491,16.072516408843942],[-16.498577188514275,16.072958755480954],[-16.498593,16.0729]]]}},{"type":"Feature","properties":{"categorie":"Prairie aquatique"},"geometry":{"type":"Polygon","coordinates":[[[-16.489922,16.059601],[-16.48946,16.059814],[-16.489079,16.060204],[-16.489022686720986,16.06019060245006],[-16.48987592483407,16.059377535445247],[-16.489922,16.059601]]]}},{"type":"Feature","properties":{"categorie":"Carrière Mine Infrastructure"},"geometry":{"type":"Polygon","coordinates":[[[-16.459911,16.050821],[-16.457515,16.051009],[-16.457237,16.048181],[-16.459543,16.047813],[-16.458543,16.040074],[-16.460472,16.039861],[-16.460932,16.041334],[-16.461717,16.048839],[-16.462037,16.049685],[-16.461998,16.050345],[-16.462347,16.051685],[-16.462672,16.05446],[-16.463237,16.057374],[-16.463217,16.05961],[-16.463036,16.060221],[-16.463038,16.060957],[-16.461986,16.0611],[-16.46182,16.060224],[-16.461035,16.060112],[-16.459911,16.050821]]]}},{"type":"Feature","properties":{"categorie":"Culture irriguée"},"geometry":{"type":"Polygon","coordinates":[[[-16.453103,16.05391],[-16.452872,16.052922],[-16.452919,16.052171],[-16.453082,16.051884],[-16.453838,16.051562],[-16.454085,16.050344],[-16.454791,16.039631],[-16.455187,16.039569],[-16.455942,16.039791],[-16.456642,16.039658],[-16.456719,16.039497],[-16.456495,16.038998],[-16.457003,16.038041],[-16.458316,16.037129],[-16.458488,16.037401],[-16.458389,16.03778],[-16.457873,16.038242],[-16.457798,16.039058],[-16.457902,16.039284],[-16.458324,16.039446],[-16.458383,16.039863],[-16.459334,16.039723],[-16.459328,16.039984],[-16.458543,16.040074],[-16.459543,16.047813],[-16.457237,16.048181],[-16.457421,16.050054],[-16.456791,16.049974],[-16.456506,16.05049],[-16.455639,16.051298],[-16.455154,16.051574],[-16.454551,16.051588],[-16.454309,16.051891],[-16.454249,16.052389],[-16.455811,16.052725],[-16.456682,16.053924],[-16.454413,16.054192],[-16.453026,16.056569],[-16.452176,16.05607],[-16.451744,16.05532],[-16.451958,16.054521],[-16.452538,16.054007],[-16.453103,16.05391]]]}},{"type":"Feature","properties":{"categorie":"Culture irriguée"},"geometry":{"type":"MultiPolygon","coordinates":[[[[-16.44205,16.049025],[-16.442548,16.048773],[-16.442815,16.048944],[-16.442889,16.049204],[-16.442589,16.050431],[-16.442737,16.051378],[-16.442713212489206,16.051382034962383],[-16.44162715432773,16.04905762188292],[-16.44205,16.049025]]],[[[-16.444501,16.054657],[-16.445214,16.056015],[-16.445825,16.056334],[-16.446278,16.05725],[-16.446101,16.057543],[-16.446236,16.058027],[-16.446139,16.058686],[-16.446392,16.059473],[-16.446354669871276,16.059946478341537],[-16.446288017394053,16.05976682602754],[-16.444124685101553,16.054621287396323],[-16.444501,16.054657]]],[[[-16.448353,16.063246],[-16.448919,16.063177],[-16.449553,16.063534],[-16.449867,16.064192],[-16.449383583466574,16.065490407227593],[-16.44846195875634,16.064917301034104],[-16.44776742989848,16.06355652959929],[-16.448353,16.063246]]]]}},{"type":"Feature","properties":{"categorie":"Culture maraichère"},"geometry":{"type":"Polygon","coordinates":[[[-16.464938,16.033721],[-16.465591,16.033638],[-16.466987,16.032184],[-16.467126,16.031894],[-16.467019,16.031076],[-16.467272,16.030667],[-16.467439,16.030632],[-16.468026,16.031018],[-16.468323,16.030629],[-16.469135,16.030254],[-16.469497,16.029102],[-16.470104,16.028397],[-16.470108,16.028091],[-16.469847,16.027778],[-16.470819,16.027225],[-16.471115,16.026021],[-16.472048,16.026236],[-16.472438,16.027037],[-16.472625,16.027126],[-16.472934,16.027151],[-16.4735,16.026659],[-16.473812,16.026981],[-16.473371,16.027463],[-16.474293,16.028413],[-16.474594,16.029056],[-16.473729,16.029158],[-16.472452,16.030291],[-16.471367,16.030752],[-16.470157,16.030928],[-16.469072,16.031294],[-16.467067,16.033331],[-16.466673,16.033094],[-16.466438,16.033197],[-16.4665,16.033711],[-16.466242,16.034095],[-16.46539,16.034138],[-16.465449,16.034921],[-16.464713,16.035712],[-16.463885,16.035718],[-16.463347,16.036291],[-16.46234,16.036704],[-16.462601,16.036129],[-16.46319,16.035647],[-16.463406,16.034617],[-16.464938,16.033721]]]}},{"type":"Feature","properties":{"categorie":"Mangrove"},"geometry":{"type":"Polygon","coordinates":[[[-16.498327,16.0108],[-16.497402,16.011741],[-16.497044,16.011746],[-16.497305,16.01088],[-16.497959,16.010173],[-16.497514,16.009566],[-16.497565,16.009232],[-16.498902,16.009706],[-16.499046,16.010283],[-16.499574,16.011177],[-16.500374,16.013114],[-16.499648,16.015544],[-16.498979,16.014417],[-16.498418,16.013814],[-16.498602,16.01349],[-16.499489,16.012782],[-16.498761,16.010583],[-16.498327,16.0108]]]}},{"type":"Feature","properties":{"categorie":"Mangrove"},"geometry":{"type":"Polygon","coordinates":[[[-16.482467,16.036223],[-16.482533,16.03502],[-16.48219,16.034155],[-16.482745,16.033347],[-16.482473,16.033231],[-16.481816,16.03413],[-16.482085,16.035014],[-16.481939,16.035548],[-16.48213,16.036053],[-16.482049,16.036488],[-16.481751,16.036661],[-16.481236,16.036565],[-16.480775,16.036171],[-16.480529,16.035685],[-16.480703,16.03393],[-16.480507,16.032693],[-16.4801,16.031991],[-16.479271,16.031129],[-16.478311,16.028985],[-16.477678,16.027995],[-16.477638,16.027601],[-16.477923,16.027533],[-16.479146,16.028623],[-16.479479,16.029225],[-16.480198,16.029844],[-16.4854,16.035965],[-16.485855,16.03627],[-16.486766,16.036342],[-16.487382,16.036097],[-16.489197,16.033835],[-16.49006,16.032971],[-16.48989,16.034083],[-16.488781,16.035754],[-16.488512,16.037274],[-16.488234,16.037556],[-16.485755,16.037275],[-16.48434,16.036743],[-16.482674,16.036384],[-16.482467,16.036223]]]}},{"type":"Feature","properties":{"categorie":"Mangrove"},"geometry":{"type":"Polygon","coordinates":[[[-16.462201,16.044669],[-16.462197,16.045255],[-16.4622,16.044668],[-16.462207,16.043999],[-16.46223,16.043284],[-16.462354,16.042407],[-16.462609,16.042093],[-16.462861,16.040459],[-16.463641,16.039373],[-16.463919,16.03835],[-16.464535,16.037447],[-16.466764,16.037162],[-16.467428,16.038046],[-16.467837,16.038324],[-16.468766,16.038579],[-16.469362,16.03844],[-16.470027,16.037225],[-16.471,16.036139],[-16.472816,16.032755],[-16.473975,16.031282],[-16.474504,16.030854],[-16.476028,16.028407],[-16.476164,16.029022],[-16.476849,16.029518],[-16.477435,16.030408],[-16.478285,16.030994],[-16.478938,16.032219],[-16.478655,16.034984],[-16.478758,16.037577],[-16.478418,16.038438],[-16.478427,16.039667],[-16.478212,16.040924],[-16.477249,16.043344],[-16.475814,16.045216],[-16.475041,16.04561],[-16.474893,16.046106],[-16.473851,16.04522],[-16.473042,16.045127],[-16.47264,16.045297],[-16.472043,16.046153],[-16.470568,16.046615],[-16.470167,16.046952],[-16.469884,16.048118],[-16.470478,16.050037],[-16.470414,16.052448],[-16.469793,16.054324],[-16.469181,16.055267],[-16.468605,16.05573],[-16.46692,16.056242],[-16.465152,16.056415],[-16.464695,16.056266],[-16.464322,16.055808],[-16.46411,16.055048],[-16.464376,16.054277],[-16.464423,16.053556],[-16.464293,16.053318],[-16.463513,16.052833],[-16.463432,16.050724],[-16.462864,16.048941],[-16.462931,16.047193],[-16.463228,16.046022],[-16.462863,16.045215],[-16.462201,16.044669]]]}},{"type":"Feature","properties":{"categorie":"Mangrove"},"geometry":{"type":"Polygon","coordinates":[[[-16.475127,16.056003],[-16.474848,16.053619],[-16.473991,16.050172],[-16.473979,16.048591],[-16.474449,16.047702],[-16.477596,16.044815],[-16.478539,16.043453],[-16.479282,16.041459],[-16.479986,16.038056],[-16.479978,16.036963],[-16.48035,16.036816],[-16.481279,16.03727],[-16.482446,16.037135],[-16.483662,16.037226],[-16.485772,16.038215],[-16.487026,16.038523],[-16.488277,16.038369],[-16.48973,16.0376],[-16.489527,16.039292],[-16.489691,16.041161],[-16.489501,16.042039],[-16.488077,16.045357],[-16.487199,16.046692],[-16.486114,16.047874],[-16.485074,16.048731],[-16.484914,16.049061],[-16.484367,16.04848],[-16.483937,16.048277],[-16.482355,16.048084],[-16.481968,16.04817],[-16.481696,16.048469],[-16.481595,16.048939],[-16.481704,16.049448],[-16.48199,16.049792],[-16.482563,16.050048],[-16.482855,16.049496],[-16.483445,16.049222],[-16.483988,16.049504],[-16.483857,16.049892],[-16.482745,16.050949],[-16.480707,16.052492],[-16.480373,16.052511],[-16.48007,16.051956],[-16.47973,16.051857],[-16.478942,16.052052],[-16.478401,16.052449],[-16.478509,16.052701],[-16.480774,16.054862],[-16.480948,16.05539],[-16.480672,16.055997],[-16.479748,16.056772],[-16.478704,16.056846],[-16.479514,16.056082],[-16.479563,16.055277],[-16.479361,16.055132],[-16.478436,16.055292],[-16.478131,16.055223],[-16.47767,16.053476],[-16.477447,16.053309],[-16.476895,16.053521],[-16.476368,16.05397],[-16.476165,16.054505],[-16.476133,16.055271],[-16.476478,16.056064],[-16.477802,16.056229],[-16.477836,16.056906],[-16.477301,16.057185],[-16.476535,16.057164],[-16.475677,16.056175],[-16.475127,16.056003]]]}},{"type":"Feature","properties":{"categorie":"Mangrove"},"geometry":{"type":"MultiPolygon","coordinates":[[[[-16.452917,16.066831],[-16.453929,16.066818],[-16.454995764042796,16.067230243546938],[-16.453482238397367,16.06703166501863],[-16.45287009309474,16.067109882873083],[-16.452917,16.066831]]],[[[-16.457075,16.067609],[-16.457123129991395,16.067625369912257],[-16.45653878994133,16.067714019061718],[-16.456150779839582,16.0674807408757],[-16.457075,16.067609]]],[[[-16.462593,16.068424],[-16.463652,16.06823],[-16.464219,16.068629],[-16.465366,16.068358],[-16.465814,16.068451],[-16.464940480872325,16.06954226099397],[-16.464091837090965,16.069489490200567],[-16.46111900605754,16.068737336071784],[-16.46055325034191,16.068434025579197],[-16.462593,16.068424]]]]}},{"type":"Feature","properties":{"categorie":"Plaine inondable"},"geometry":{"type":"Polygon","coordinates":[[[-16.461303,16.037918],[-16.460905,16.038489],[-16.460192,16.038885],[-16.460472,16.039861],[-16.459328,16.039984],[-16.458924,16.037948],[-16.459472,16.037815],[-16.459455,16.036625],[-16.459588,16.036381],[-16.45994,16.036207],[-16.460676,16.036489],[-16.460986,16.036823],[-16.461213,16.03749],[-16.461448,16.037501],[-16.461603,16.036945],[-16.46209,16.036888],[-16.463347,16.036291],[-16.463885,16.035718],[-16.464713,16.035712],[-16.465449,16.034921],[-16.465369,16.034161],[-16.465635,16.034044],[-16.465967,16.034193],[-16.466278,16.034066],[-16.466506,16.033673],[-16.466372,16.033293],[-16.466622,16.033091],[-16.467067,16.033331],[-16.466535,16.034265],[-16.466508,16.035343],[-16.466659,16.035517],[-16.467229,16.035586],[-16.467247,16.036903],[-16.467944,16.037461],[-16.468153,16.038068],[-16.46844,16.038147],[-16.469079,16.037979],[-16.470027,16.037225],[-16.469498,16.038302],[-16.468908,16.038581],[-16.46823,16.038477],[-16.467597,16.038191],[-16.466764,16.037162],[-16.464535,16.037447],[-16.463919,16.03835],[-16.463641,16.039373],[-16.462861,16.040459],[-16.462609,16.042093],[-16.462354,16.042407],[-16.462319,16.04144],[-16.461373,16.039919],[-16.461303,16.037918]]]}},{"type":"Feature","properties":{"categorie":"Plaine inondable"},"geometry":{"type":"Polygon","coordinates":[[[-16.473938,16.045272],[-16.474893,16.046106],[-16.47486,16.04637],[-16.47299,16.048832],[-16.472644,16.050614],[-16.471922,16.051659],[-16.471589,16.051804],[-16.471181,16.051771],[-16.471167,16.04987],[-16.470901,16.048976],[-16.47119,16.047933],[-16.470845,16.046523],[-16.471991,16.046185],[-16.472662,16.045277],[-16.473194,16.045111],[-16.473938,16.045272]]]}},{"type":"Feature","properties":{"categorie":"Plaine inondable"},"geometry":{"type":"Polygon","coordinates":[[[-16.474179,16.059227],[-16.474975,16.058218],[-16.475204,16.05753],[-16.475127,16.056003],[-16.475864,16.056295],[-16.476577,16.057177],[-16.477356,16.057173],[-16.477863,16.056851],[-16.477774,16.056207],[-16.476566,16.056104],[-16.47626,16.055776],[-16.476129,16.054756],[-16.476439,16.053879],[-16.477071,16.053425],[-16.477579,16.053343],[-16.478131,16.055223],[-16.478436,16.055292],[-16.479361,16.055132],[-16.479563,16.055277],[-16.479514,16.056082],[-16.478704,16.056846],[-16.479491,16.056851],[-16.480071,16.056589],[-16.480815,16.055775],[-16.480948,16.05539],[-16.480884,16.055068],[-16.480266,16.054274],[-16.478509,16.052701],[-16.478418,16.052417],[-16.47902,16.052019],[-16.479786,16.051858],[-16.48009,16.051978],[-16.480373,16.052511],[-16.480707,16.052492],[-16.482745,16.050949],[-16.483857,16.049892],[-16.483988,16.049504],[-16.483445,16.049222],[-16.482855,16.049496],[-16.482563,16.050048],[-16.48199,16.049792],[-16.481704,16.049448],[-16.481595,16.048939],[-16.481696,16.048469],[-16.481968,16.04817],[-16.482282,16.048082],[-16.48355,16.048198],[-16.484367,16.04848],[-16.484914,16.049061],[-16.484893,16.049582],[-16.485237,16.050564],[-16.48512,16.051107],[-16.48228,16.055113],[-16.479692,16.059098],[-16.479145,16.059635],[-16.478306,16.05993],[-16.475502,16.059977],[-16.474579,16.060218],[-16.47426,16.06004],[-16.474179,16.059227]]]}},{"type":"Feature","properties":{"categorie":"Plaine inondable"},"geometry":{"type":"Polygon","coordinates":[[[-16.494903,16.055488],[-16.495134,16.055915],[-16.495254,16.058555],[-16.495903,16.060291],[-16.495837,16.060533],[-16.495462,16.060648],[-16.495233,16.060908],[-16.495522,16.062334],[-16.495144,16.062662],[-16.495221,16.062266],[-16.495044,16.060227],[-16.494291,16.058881],[-16.49437,16.058246],[-16.494221,16.057865],[-16.494536,16.057635],[-16.494617,16.056848],[-16.494306,16.055459],[-16.494584,16.055279],[-16.494903,16.055488]]]}},{"type":"Feature","properties":{"categorie":"Plaine inondable"},"geometry":{"type":"Polygon","coordinates":[[[-16.462577,16.051254],[-16.462065,16.048934],[-16.462201,16.044669],[-16.462832,16.045176],[-16.463213,16.04588],[-16.462931,16.047193],[-16.462852,16.048827],[-16.463432,16.050724],[-16.463513,16.052833],[-16.464293,16.053318],[-16.464423,16.053556],[-16.464376,16.054277],[-16.464113,16.055002],[-16.464268,16.0557],[-16.464621,16.056204],[-16.465071,16.056413],[-16.464949,16.0568],[-16.46573,16.057117],[-16.467026,16.05675],[-16.467658,16.056889],[-16.468216,16.057208],[-16.468407,16.057852],[-16.468005,16.058788],[-16.467344,16.059689],[-16.4672,16.0603],[-16.464147,16.063836],[-16.463155,16.063818],[-16.463725,16.062498],[-16.463693,16.061992],[-16.463181,16.06092],[-16.463627,16.059371],[-16.462577,16.051254]]]}},{"type":"Feature","properties":{"categorie":"Plaine inondable"},"geometry":{"type":"Polygon","coordinates":[[[-16.494333,16.068772],[-16.493722,16.068065],[-16.493435,16.066871],[-16.493297,16.064989],[-16.493539,16.06427],[-16.494216,16.063937],[-16.4954,16.063735],[-16.495461,16.063556],[-16.49524,16.06322],[-16.496651,16.063832],[-16.497431,16.06509],[-16.496763,16.06709],[-16.496752,16.06741],[-16.496948,16.067757],[-16.496729,16.068267],[-16.495405,16.068905],[-16.494333,16.068772]]]}},{"type":"Feature","properties":{"categorie":"Plaine inondable"},"geometry":{"type":"Polygon","coordinates":[[[-16.494658,16.069355],[-16.495131,16.069416],[-16.495997,16.069867],[-16.496434,16.069847],[-16.496924,16.069587],[-16.497367,16.06966],[-16.496559,16.071728],[-16.49616,16.072025],[-16.495315,16.07189],[-16.495479,16.071457],[-16.495233,16.070706],[-16.494885,16.070347],[-16.494658,16.069355]]]}},{"type":"Feature","properties":{"categorie":"Plaine inondable"},"geometry":{"type":"Polygon","coordinates":[[[-16.467025,16.068235],[-16.468301,16.067554],[-16.468611,16.067642],[-16.468925,16.068267],[-16.469116,16.069133],[-16.46914912234298,16.069602073643384],[-16.46728886130605,16.06968828916435],[-16.464940480872325,16.06954226099397],[-16.465814,16.068451],[-16.467025,16.068235]]]}},{"type":"Feature","properties":{"categorie":"Sol nu"},"geometry":{"type":"Polygon","coordinates":[[[-16.506375,16.050163],[-16.50621,16.049835],[-16.505646,16.049826],[-16.505682,16.04875],[-16.506664,16.049139],[-16.506835,16.050386],[-16.507127,16.050674],[-16.507482,16.050689],[-16.508069,16.050432],[-16.508739,16.049765],[-16.508479,16.056439],[-16.508643,16.061688],[-16.508278,16.063941],[-16.50768638671309,16.066300503211828],[-16.506660914667783,16.06688242343099],[-16.506519,16.065954],[-16.506796,16.064171],[-16.506506,16.062795],[-16.50704,16.059828],[-16.506753,16.058194],[-16.507036,16.057278],[-16.506734,16.056609],[-16.506938,16.055999],[-16.506931,16.054951],[-16.506657,16.054035],[-16.507038,16.053179],[-16.507074,16.052162],[-16.506385,16.051397],[-16.506375,16.050163]]]}},{"type":"Feature","properties":{"categorie":"Sol nu"},"geometry":{"type":"Polygon","coordinates":[[[-16.509209924715467,16.032718096094634],[-16.50937630950843,16.03440282755343],[-16.509268854087143,16.036053077535357],[-16.509403528487788,16.03669030238552],[-16.509365,16.037616],[-16.509386961012666,16.03770897151177],[-16.509269215034486,16.042147890473597],[-16.509052064381002,16.044659598092686],[-16.5090152535986,16.047227653598917],[-16.508999,16.047326],[-16.508828,16.038584],[-16.509209924715467,16.032718096094634]]]}},{"type":"Feature","properties":{"categorie":"Sol nu"},"geometry":{"type":"Polygon","coordinates":[[[-16.470847,16.01634],[-16.469297,16.015741],[-16.468829,16.015422],[-16.468231,16.014726],[-16.468493,16.014049],[-16.468437,16.013053],[-16.468569,16.012839],[-16.468709,16.012696],[-16.468878,16.013434],[-16.469328,16.013494],[-16.469628,16.013936],[-16.471564,16.014601],[-16.473537,16.016016],[-16.474428,16.016253],[-16.474827,16.015912],[-16.47448,16.015019],[-16.474509,16.014649],[-16.475279,16.013452],[-16.475138,16.012858],[-16.474874,16.012469],[-16.474933,16.01184],[-16.475045,16.011479],[-16.47538,16.011399],[-16.475639,16.012319],[-16.475584,16.014022],[-16.476554,16.014843],[-16.476823,16.015749],[-16.477175,16.015963],[-16.477754,16.015923],[-16.477907,16.016278],[-16.476726,16.016351],[-16.476444,16.016842],[-16.474992,16.018273],[-16.473701,16.018857],[-16.47336,16.018565],[-16.473833,16.017909],[-16.473685,16.017063],[-16.473104,16.016578],[-16.470847,16.01634]]]}},{"type":"Feature","properties":{"categorie":"Steppe"},"geometry":{"type":"Polygon","coordinates":[[[-16.495541,16.07239],[-16.495203,16.072095],[-16.495315,16.07189],[-16.49605,16.072048],[-16.496509,16.071797],[-16.497358,16.069639],[-16.496956,16.069582],[-16.496402,16.069855],[-16.495882,16.069846],[-16.495131,16.069416],[-16.494658,16.069355],[-16.494333,16.068772],[-16.495405,16.068905],[-16.496729,16.068267],[-16.496948,16.067757],[-16.496752,16.06741],[-16.496763,16.06709],[-16.49743,16.065008],[-16.496675,16.063853],[-16.495288,16.063248],[-16.49514,16.062988],[-16.495144,16.062662],[-16.495522,16.062334],[-16.495219,16.060955],[-16.495462,16.060648],[-16.495837,16.060533],[-16.495903,16.060291],[-16.495254,16.058555],[-16.495059,16.05572],[-16.49468,16.055288],[-16.494315,16.055419],[-16.494615,16.056986],[-16.494536,16.057635],[-16.494221,16.057865],[-16.493363,16.056129],[-16.492598,16.055041],[-16.492349,16.054311],[-16.492849,16.053046],[-16.494099,16.05156],[-16.495573,16.052584],[-16.496487,16.052646],[-16.496668,16.053115],[-16.496444,16.053538],[-16.49691,16.055205],[-16.496518,16.056493],[-16.49729,16.05777],[-16.497402,16.058258],[-16.496974,16.059319],[-16.496946,16.059822],[-16.498053,16.061329],[-16.498803,16.062048],[-16.498776,16.062435],[-16.499069,16.062844],[-16.499296,16.065307],[-16.499746,16.066368],[-16.499724,16.066787],[-16.499431,16.067231],[-16.499436,16.067901],[-16.498462,16.068863],[-16.497943,16.06992],[-16.497597,16.071948],[-16.496943,16.072549],[-16.495541,16.07239]]]}},{"type":"Feature","properties":{"categorie":"Steppe"},"geometry":{"type":"Polygon","coordinates":[[[-16.505646,16.049826],[-16.50621,16.049835],[-16.506375,16.050163],[-16.506385,16.051397],[-16.507074,16.052162],[-16.507038,16.053179],[-16.506657,16.054035],[-16.506931,16.054951],[-16.506938,16.055999],[-16.506734,16.056609],[-16.507036,16.057278],[-16.506753,16.058194],[-16.50704,16.059828],[-16.506506,16.062795],[-16.506796,16.064171],[-16.506519,16.065954],[-16.506660914667783,16.06688242343099],[-16.506095843105562,16.06720308216453],[-16.506103,16.06636],[-16.505725,16.065605],[-16.505579,16.064829],[-16.505471,16.058006],[-16.505139,16.054863],[-16.505646,16.049826]]]}},{"type":"Feature","properties":{"categorie":"Steppe"},"geometry":{"type":"Polygon","coordinates":[[[-16.456382,16.060406],[-16.456066,16.059351],[-16.454145,16.059987],[-16.451283,16.060176],[-16.450925,16.060423],[-16.450651,16.060862],[-16.450374,16.060276],[-16.450692,16.05765],[-16.450124,16.05725],[-16.450062,16.056893],[-16.450417,16.056193],[-16.451179,16.055941],[-16.451959,16.056925],[-16.452618,16.057296],[-16.454413,16.054192],[-16.456682,16.053924],[-16.455843,16.052747],[-16.454277,16.052404],[-16.454205,16.052236],[-16.454492,16.05163],[-16.455154,16.051574],[-16.455545,16.05137],[-16.456506,16.05049],[-16.456791,16.049974],[-16.457421,16.050054],[-16.457515,16.051009],[-16.459911,16.050821],[-16.461035,16.060112],[-16.46182,16.060224],[-16.461986,16.0611],[-16.463038,16.060957],[-16.463036,16.060221],[-16.463217,16.05961],[-16.463237,16.057374],[-16.462672,16.05446],[-16.462347,16.051685],[-16.461998,16.050345],[-16.462037,16.049685],[-16.461717,16.048839],[-16.460932,16.041334],[-16.460192,16.038885],[-16.460905,16.038489],[-16.461303,16.037918],[-16.461373,16.039919],[-16.462205,16.041161],[-16.462377,16.041729],[-16.462034,16.048564],[-16.462577,16.051254],[-16.463612,16.058567],[-16.463583,16.059706],[-16.463181,16.06092],[-16.463693,16.061992],[-16.463698,16.06267],[-16.463045,16.064021],[-16.462212,16.065138],[-16.4607,16.065474],[-16.459737,16.065462],[-16.459002,16.064645],[-16.459518,16.062086],[-16.45766,16.061573],[-16.456382,16.060406]]]}},{"type":"Feature","properties":{"categorie":"Steppe"},"geometry":{"type":"Polygon","coordinates":[[[-16.440332,16.045427],[-16.440943,16.044937],[-16.441454,16.044858],[-16.441682,16.044971],[-16.441918,16.045467],[-16.442317,16.045597],[-16.444195,16.044849],[-16.445375,16.044085],[-16.446024,16.044093],[-16.446694,16.044349],[-16.446481,16.044916],[-16.446464,16.045949],[-16.445495,16.046296],[-16.444997,16.04867],[-16.445162,16.049081],[-16.44626,16.050242],[-16.446487,16.051245],[-16.446376,16.051692],[-16.445581,16.05192],[-16.444712,16.051942],[-16.443825,16.053661],[-16.44373879999389,16.053703450254265],[-16.443208268486405,16.05244156812163],[-16.44306763299226,16.052140575970732],[-16.442595,16.050611],[-16.442866,16.049019],[-16.442548,16.048773],[-16.44205,16.049025],[-16.44163124081081,16.049066367892173],[-16.440735624855524,16.04714954472884],[-16.440147248915874,16.04541315871357],[-16.440332,16.045427]]]}},{"type":"Feature","properties":{"categorie":"Cours d'eau"},"geometry":{"type":"MultiPolygon","coordinates":[[[[-16.453024,16.06521],[-16.453854,16.064987],[-16.456467,16.064719],[-16.4596,16.06529],[-16.459737,16.065462],[-16.4607,16.065474],[-16.461884,16.06514],[-16.46324,16.065203],[-16.464833,16.064451],[-16.466792,16.06386],[-16.468989,16.06276],[-16.470986,16.062231],[-16.471142,16.061869],[-16.470773,16.061247],[-16.470956,16.060758],[-16.471735,16.059912],[-16.473355,16.058988],[-16.473779,16.058299],[-16.474117,16.057166],[-16.474137,16.056073],[-16.473855,16.05462],[-16.473124,16.051796],[-16.472639,16.050597],[-16.472908,16.049068],[-16.473285,16.048324],[-16.474731,16.04666],[-16.474976,16.045692],[-16.475814,16.045216],[-16.477415,16.043045],[-16.478212,16.040924],[-16.478427,16.039667],[-16.478418,16.038438],[-16.478758,16.037577],[-16.478655,16.034984],[-16.478916,16.032131],[-16.478254,16.030958],[-16.477435,16.030408],[-16.476849,16.029518],[-16.476164,16.029022],[-16.47603,16.027554],[-16.477031,16.027045],[-16.477788,16.027006],[-16.477933,16.027483],[-16.477638,16.027601],[-16.477678,16.027995],[-16.478311,16.028985],[-16.479271,16.031129],[-16.4801,16.031991],[-16.480507,16.032693],[-16.480703,16.03393],[-16.480499,16.035441],[-16.480634,16.035973],[-16.480954,16.036378],[-16.481601,16.036653],[-16.482049,16.036488],[-16.48213,16.036053],[-16.481939,16.035548],[-16.482085,16.035014],[-16.481816,16.03413],[-16.481973,16.033777],[-16.482613,16.033212],[-16.482756,16.033491],[-16.48219,16.034155],[-16.482533,16.03502],[-16.482505,16.036276],[-16.48434,16.036743],[-16.485475,16.037214],[-16.488047,16.037567],[-16.488512,16.037274],[-16.488671,16.036026],[-16.48989,16.034083],[-16.49006,16.032971],[-16.491082,16.032222],[-16.492916,16.031288],[-16.495737,16.030202],[-16.496752,16.029365],[-16.498856,16.025361],[-16.498932,16.024488],[-16.49857,16.022527],[-16.498594,16.021939],[-16.498824,16.02145],[-16.500068,16.020069],[-16.500225,16.019691],[-16.500087,16.018479],[-16.499637,16.017675],[-16.499433,16.016664],[-16.500357,16.013028],[-16.499046,16.010283],[-16.498918,16.009721],[-16.497679,16.0093],[-16.497475,16.008993],[-16.497844,16.008363],[-16.498166,16.008951],[-16.498476,16.008841],[-16.498717,16.007924],[-16.499361,16.007085],[-16.499348,16.006566],[-16.499835,16.005891],[-16.499915,16.004878],[-16.500681,16.003044],[-16.499897,16.00227],[-16.499883,16.001841],[-16.499258,16.000353],[-16.499215,15.999138],[-16.498993,15.999141],[-16.498666,15.99967],[-16.498851,16.000823],[-16.498626,16.001368],[-16.498554,16.001128],[-16.497876,16.002945],[-16.497727,16.004916],[-16.49735,16.005967],[-16.497869,16.000347],[-16.498124,15.999386],[-16.497639,15.998769],[-16.497484,15.998059],[-16.497332,15.997967],[-16.497721,15.996323],[-16.497433,15.995358],[-16.4974,15.994681],[-16.497851,15.992554],[-16.497659,15.991823],[-16.496944,15.991096],[-16.496591,15.990176],[-16.496718,15.989642],[-16.497507,15.988923],[-16.49793,15.988106],[-16.497813,15.987393],[-16.497937,15.986525],[-16.49703,15.983937],[-16.497018,15.982256],[-16.496518,15.981672],[-16.496337,15.981149],[-16.496379,15.98048],[-16.496893,15.979257],[-16.496672,15.978418],[-16.497049,15.977575],[-16.496925,15.977349],[-16.496307,15.977046],[-16.496137,15.976822],[-16.496453,15.975446],[-16.496385,15.975049],[-16.496122556843616,15.974888340881455],[-16.49632370176971,15.974751133073338],[-16.496620848896217,15.97482080402659],[-16.497071637007565,15.975606782134037],[-16.499876795234737,15.983837062967895],[-16.508813109681704,15.990995587952833],[-16.508475,15.991532],[-16.508611,15.991963],[-16.508502,15.992371],[-16.509084,15.992782],[-16.509345,15.996377],[-16.509596,15.997478],[-16.509526,15.998211],[-16.509152,15.999325],[-16.50831,16.000009],[-16.507928,16.00073],[-16.50772,16.002833],[-16.50792,16.009492],[-16.508782,16.016102],[-16.508123,16.01908],[-16.50792,16.020654],[-16.507209,16.023117],[-16.507049,16.024158],[-16.507246,16.026768],[-16.507259,16.030989],[-16.50663,16.033153],[-16.507174,16.035788],[-16.507135,16.036909],[-16.506839,16.038529],[-16.506433,16.039273],[-16.505295,16.0407],[-16.505081,16.042057],[-16.505198,16.045201],[-16.505682,16.04875],[-16.505578,16.051082],[-16.505139,16.054863],[-16.505471,16.058006],[-16.505579,16.064829],[-16.505725,16.065605],[-16.506103,16.06636],[-16.506095843105562,16.06720308216453],[-16.50435362021612,16.06819173390818],[-16.504221,16.068141],[-16.503039,16.068824],[-16.502656,16.069257],[-16.502438,16.069833],[-16.502421533308848,16.070151855019596],[-16.50202098169292,16.070790471851502],[-16.50037908862816,16.072152117155017],[-16.50017494128843,16.07226454670939],[-16.49959526923491,16.072516408843942],[-16.49957,16.072491],[-16.498917,16.072534],[-16.498593,16.0729],[-16.498577188514275,16.072958755480954],[-16.498343847680708,16.073060139910414],[-16.49780394890436,16.073100565712735],[-16.497823,16.07261],[-16.498194,16.072219],[-16.498672,16.07114],[-16.500303,16.069321],[-16.5007,16.068641],[-16.500317,16.068607],[-16.500059,16.068109],[-16.500028,16.067365],[-16.500232,16.06679],[-16.499931,16.064296],[-16.499765,16.063881],[-16.498796,16.062486],[-16.498778,16.061997],[-16.498053,16.061329],[-16.496936,16.059774],[-16.497399,16.058207],[-16.497251,16.057693],[-16.496529,16.056548],[-16.496913,16.055149],[-16.496444,16.053538],[-16.497149,16.052629],[-16.497253,16.050657],[-16.497721,16.050197],[-16.497812,16.049917],[-16.496912,16.048771],[-16.496543,16.049061],[-16.496154,16.049865],[-16.495351,16.05036],[-16.494099,16.05156],[-16.492849,16.053046],[-16.492376,16.054094],[-16.492598,16.055041],[-16.493363,16.056129],[-16.494312,16.05803],[-16.494318,16.058861],[-16.494019,16.058845],[-16.493701,16.057573],[-16.492641,16.055782],[-16.491607,16.055084],[-16.491132,16.055187],[-16.489799,16.056977],[-16.489803,16.057483],[-16.490142,16.057905],[-16.490335,16.058609],[-16.490087,16.059897],[-16.489311,16.060499],[-16.489079,16.060204],[-16.48946,16.059814],[-16.489922,16.059601],[-16.48987592483407,16.059377535445247],[-16.490020840021845,16.059239442976253],[-16.489918705387094,16.0580660164034],[-16.489429419539704,16.05761288537136],[-16.488895563257884,16.05782371231777],[-16.48377933172794,16.06306069165901],[-16.479065794014595,16.066578767975944],[-16.478913576271065,16.066545222560656],[-16.477096030801366,16.068627673210965],[-16.472879229358583,16.069429198378444],[-16.46914912234298,16.069602073643384],[-16.469116,16.069133],[-16.468925,16.068267],[-16.468611,16.067642],[-16.468301,16.067554],[-16.467025,16.068235],[-16.465814,16.068451],[-16.465366,16.068358],[-16.464402,16.068625],[-16.464104,16.068594],[-16.463652,16.06823],[-16.462817,16.068409],[-16.460682,16.068466],[-16.460575627426394,16.068446022284366],[-16.45862102164379,16.067398127536936],[-16.457123129991395,16.067625369912257],[-16.457075,16.067609],[-16.45616354648737,16.06748841639864],[-16.455940241012197,16.067354161398725],[-16.45503990128818,16.06723603446912],[-16.453929,16.066818],[-16.453006,16.066777],[-16.452839830950108,16.067113749667477],[-16.45254763221139,16.06715108583312],[-16.45138345870737,16.066734016338742],[-16.45102325500313,16.066510026062087],[-16.453024,16.06521]],[[-16.502235,15.994664],[-16.501958,15.994681],[-16.502173,15.99393],[-16.501826,15.99259],[-16.502006,15.992257],[-16.502586,15.991802],[-16.502756,15.99132],[-16.502463,15.990854],[-16.501475,15.990472],[-16.50067,15.988308],[-16.500343,15.987928],[-16.500529,15.989696],[-16.500482,15.990731],[-16.501019,15.991816],[-16.501035,15.993248],[-16.500916,15.994083],[-16.500538,15.99493],[-16.500456,15.995851],[-16.499271,15.998913],[-16.499733,15.998979],[-16.500145,15.99876],[-16.501818,15.995498],[-16.502953,15.994308],[-16.502983,15.993972],[-16.502667,15.993828],[-16.502235,15.994664]],[[-16.478306,16.05993],[-16.478847,16.059791],[-16.479405,16.059426],[-16.480516,16.05799],[-16.48228,16.055113],[-16.485037,16.051262],[-16.485237,16.050564],[-16.484893,16.049582],[-16.484991,16.048867],[-16.486587,16.047401],[-16.487763,16.045901],[-16.489501,16.042039],[-16.489691,16.041161],[-16.489527,16.039292],[-16.48973,16.0376],[-16.488277,16.038369],[-16.487026,16.038523],[-16.485772,16.038215],[-16.483662,16.037226],[-16.482446,16.037135],[-16.481279,16.03727],[-16.48035,16.036816],[-16.479978,16.036963],[-16.479986,16.038056],[-16.479282,16.041459],[-16.478539,16.043453],[-16.477596,16.044815],[-16.474449,16.047702],[-16.474144,16.048128],[-16.473925,16.048853],[-16.47404,16.050461],[-16.474557,16.052175],[-16.474946,16.054214],[-16.475228,16.056978],[-16.475058,16.058073],[-16.474225,16.059127],[-16.474155,16.059751],[-16.474438,16.060201],[-16.475502,16.059977],[-16.478306,16.05993]],[[-16.501639,16.037987],[-16.501828,16.038284],[-16.50314,16.038709],[-16.505149,16.038713],[-16.505679,16.038411],[-16.506072,16.03848],[-16.50622,16.038271],[-16.50576,16.038003],[-16.50601,16.037703],[-16.505782,16.037145],[-16.506056,16.036248],[-16.505614,16.033458],[-16.506417,16.028374],[-16.5064,16.027334],[-16.506127,16.025809],[-16.506388,16.023304],[-16.50722,16.01961],[-16.506965,16.019242],[-16.505784,16.018762],[-16.505082,16.01864],[-16.504412,16.020272],[-16.503994,16.021757],[-16.503465,16.02599],[-16.503193,16.027095],[-16.503293,16.031785],[-16.502899,16.032772],[-16.501639,16.037987]],[[-16.501614,16.065869],[-16.501943,16.067312],[-16.502424,16.067887],[-16.502967,16.067983],[-16.503757,16.067417],[-16.504189,16.066492],[-16.503974,16.065192],[-16.50335,16.064221],[-16.503234,16.063797],[-16.503471,16.062982],[-16.503999,16.062309],[-16.504172,16.06172],[-16.504211,16.060645],[-16.503948,16.058026],[-16.503292,16.056575],[-16.500671,16.053466],[-16.500054,16.052178],[-16.499657,16.050446],[-16.499325,16.050031],[-16.499013,16.049976],[-16.498659,16.050294],[-16.498267,16.05143],[-16.498295,16.055118],[-16.499311,16.05907],[-16.49981,16.059636],[-16.500739,16.060073],[-16.501098,16.060576],[-16.501808,16.06302],[-16.501614,16.065869]]],[[[-16.495996,15.975548],[-16.495662,15.975759],[-16.495157,15.975726],[-16.495012208479725,15.975645747335662],[-16.496121841806495,15.97488882863264],[-16.495996,15.975548]]],[[[-16.494019,15.97718],[-16.494105,15.978752],[-16.494284,15.978922],[-16.494703,15.978811],[-16.494929,15.978954],[-16.495579,15.981252],[-16.495243,15.98127],[-16.495196,15.980775],[-16.494553,15.979479],[-16.493829,15.979314],[-16.493233,15.979626],[-16.492816,15.980062],[-16.489391,15.984352],[-16.487319,15.985885],[-16.485915,15.986366],[-16.48481,15.985766],[-16.483254,15.98419],[-16.482636,15.984165],[-16.481964,15.985186],[-16.481599,15.986055],[-16.480488,15.986182],[-16.480247,15.986991],[-16.480248,15.991325],[-16.479949,15.992762],[-16.47922,15.994411],[-16.479077,15.996026],[-16.479741,15.999429],[-16.4796,16.001283],[-16.47803,16.002101],[-16.477874,16.001923],[-16.477983,15.999969],[-16.477701,15.998649],[-16.478459,15.996775],[-16.478533,15.995251],[-16.478814,15.994126],[-16.478783,15.992674],[-16.479019,15.991218],[-16.478803,15.98788],[-16.479235,15.986155],[-16.479193,15.985509],[-16.478261,15.984834],[-16.475683,15.98209],[-16.475391668981693,15.982078024803155],[-16.475918639619465,15.981581662401938],[-16.477183947044967,15.981363739490506],[-16.478237352144255,15.981745083662343],[-16.479142858125016,15.98302416593607],[-16.4802293725119,15.983704180237764],[-16.482202717401314,15.983122662424325],[-16.483105678142508,15.982375144599912],[-16.483478048185376,15.982587790387683],[-16.484980770531337,15.985231723418742],[-16.485802332399498,15.986015165263138],[-16.48713240398045,15.98536032961599],[-16.489786146560576,15.983189826172808],[-16.491621457492613,15.980666282583456],[-16.49366747898144,15.976563033148192],[-16.494260041695004,15.976158825929655],[-16.494019,15.97718]]],[[[-16.494654,16.072754],[-16.49456449991897,16.07274638471406],[-16.493911553719087,16.072427467220916],[-16.494443,16.072296],[-16.494834,16.071955],[-16.495016,16.072259],[-16.495514,16.072599],[-16.496169,16.072721],[-16.496866281395206,16.073170775098326],[-16.496570050878685,16.07319295584188],[-16.495269421407734,16.072969458586822],[-16.494654,16.072754]]]]}},{"type":"Feature","properties":{"categorie":"Sol nu"},"geometry":{"type":"Polygon","coordinates":[[[-16.511134,15.994916],[-16.511457,15.992729],[-16.51159747135671,15.991590363730918],[-16.512960240246038,15.991623643051879],[-16.512247211310697,15.995980569506786],[-16.512173376280227,15.99686691072886],[-16.51189710300083,15.998639233778531],[-16.511611277758725,15.999650517324538],[-16.5116509586843,16.000218276263844],[-16.511109,16.003695],[-16.510720201275955,16.008519826719148],[-16.51019199671656,16.01092788319572],[-16.510293442885718,16.012652939699226],[-16.510075608448272,16.01464546525467],[-16.509902,16.015644],[-16.509521,16.014993],[-16.509324,16.012519],[-16.509962,16.003965],[-16.510185,15.99761],[-16.510325,15.996316],[-16.510759,15.994859],[-16.511134,15.994916]]]}},{"type":"Feature","properties":{"categorie":"Mangrove"},"geometry":{"type":"Polygon","coordinates":[[[-16.498785,15.999344],[-16.499186,15.99911],[-16.499264,16.000381],[-16.499883,16.001841],[-16.499897,16.00227],[-16.500681,16.003044],[-16.499915,16.004878],[-16.499835,16.005891],[-16.499348,16.006566],[-16.499361,16.007085],[-16.498826,16.007719],[-16.49849,16.008815],[-16.498247,16.008981],[-16.497844,16.008363],[-16.497755,16.008483],[-16.4974,16.00818],[-16.497244,16.00766],[-16.497376,16.005226],[-16.49735,16.005967],[-16.497727,16.004916],[-16.497876,16.002945],[-16.498554,16.001128],[-16.498626,16.001368],[-16.498862,16.000769],[-16.498673,16.000003],[-16.498785,15.999344]]]}},{"type":"Feature","properties":{"categorie":"Plaine inondable"},"geometry":{"type":"Polygon","coordinates":[[[-16.497484,15.998059],[-16.497639,15.998769],[-16.498124,15.999386],[-16.497869,16.000347],[-16.497244,16.00766],[-16.4974,16.00818],[-16.497755,16.008483],[-16.497475,16.008993],[-16.497508,16.009547],[-16.497967,16.010123],[-16.497796,16.010463],[-16.497305,16.01088],[-16.497039,16.011705],[-16.497102,16.011818],[-16.497382,16.011754],[-16.498376,16.010758],[-16.498817,16.010631],[-16.499489,16.012782],[-16.49865,16.013444],[-16.498415,16.013795],[-16.498979,16.014417],[-16.499648,16.015544],[-16.499433,16.016664],[-16.499106,16.015701],[-16.497036,16.012271],[-16.496829,16.011555],[-16.497153,16.009909],[-16.496965,16.00655],[-16.49739,15.999624],[-16.497332,15.997967],[-16.497484,15.998059]]]}},{"type":"Feature","properties":{"categorie":"Vasière"},"geometry":{"type":"Polygon","coordinates":[[[-16.473298,15.994007],[-16.473469,15.993057],[-16.473206,15.991619],[-16.472436,15.991157],[-16.472507,15.993217],[-16.472354,15.995188],[-16.472535,15.996967],[-16.47236,15.998595],[-16.473236,16.000831],[-16.473584,16.002464],[-16.473812,16.005436],[-16.473738,16.006892],[-16.473993,16.008933],[-16.473856,16.010313],[-16.473062,16.011315],[-16.471758,16.012173],[-16.470265,16.012518],[-16.469177,16.01249],[-16.468681,16.0127],[-16.468437,16.013053],[-16.468493,16.014049],[-16.468231,16.014726],[-16.468911,16.015497],[-16.469461,16.015809],[-16.470953,16.016371],[-16.4727,16.016448],[-16.473431,16.016773],[-16.473856,16.017579],[-16.47376,16.018129],[-16.473362,16.018535],[-16.473644,16.018857],[-16.474161,16.018747],[-16.474992,16.018273],[-16.476444,16.016842],[-16.476726,16.016351],[-16.477918,16.016247],[-16.477754,16.015923],[-16.477175,16.015963],[-16.476823,16.015749],[-16.476554,16.014843],[-16.475559,16.013967],[-16.475639,16.012319],[-16.475166,16.01047],[-16.475119,16.009214],[-16.475354,16.008001],[-16.475948,16.006244],[-16.477367,16.003459],[-16.477555,16.002446],[-16.477437,16.001579],[-16.477885,16.000532],[-16.477874,16.001923],[-16.47803,16.002101],[-16.4796,16.001283],[-16.479741,15.999429],[-16.479077,15.996026],[-16.47922,15.994411],[-16.479949,15.992762],[-16.480248,15.991325],[-16.480247,15.986991],[-16.480488,15.986182],[-16.481599,15.986055],[-16.481964,15.985186],[-16.482636,15.984165],[-16.483254,15.98419],[-16.48481,15.985766],[-16.485915,15.986366],[-16.486611,15.986215],[-16.487914,15.985528],[-16.48809,15.986584],[-16.48769,15.986772],[-16.487243,15.987257],[-16.486551,15.988665],[-16.486074,15.988786],[-16.485328,15.988554],[-16.484734,15.98884],[-16.483306,15.992217],[-16.482851,15.99411],[-16.482913,15.995903],[-16.484961,16.003226],[-16.485121,16.004581],[-16.485083,16.008223],[-16.484798,16.012713],[-16.484555,16.013948],[-16.483498,16.015298],[-16.483255,16.015873],[-16.483234,16.017265],[-16.482871,16.019824],[-16.482875,16.021978],[-16.482553,16.023093],[-16.482162,16.023673],[-16.481488,16.024237],[-16.478966,16.025195],[-16.478442,16.026031],[-16.478089,16.02628],[-16.477679,16.025877],[-16.477323,16.025208],[-16.475655,16.024322],[-16.475285,16.024297],[-16.475099,16.024457],[-16.47442,16.024083],[-16.47325,16.02385],[-16.471622,16.023937],[-16.471447,16.024353],[-16.471645,16.024674],[-16.473536,16.025177],[-16.473639,16.02645],[-16.473017,16.027105],[-16.472775,16.02717],[-16.472438,16.027037],[-16.472048,16.026236],[-16.471096,16.026036],[-16.470819,16.027225],[-16.469847,16.027778],[-16.470108,16.028091],[-16.470104,16.028397],[-16.469497,16.029102],[-16.469175,16.030204],[-16.468837,16.03048],[-16.468323,16.030629],[-16.468026,16.031018],[-16.467423,16.030624],[-16.467247,16.030689],[-16.467013,16.031115],[-16.467085,16.032052],[-16.465669,16.033574],[-16.465177,16.032841],[-16.464257,16.032355],[-16.464002,16.032025],[-16.462984,16.028018],[-16.462503,16.027113],[-16.460526,16.024593],[-16.460249,16.022853],[-16.459658,16.021186],[-16.459971,16.019685],[-16.460937,16.017016],[-16.462172,16.015164],[-16.464186,16.012985],[-16.464598,16.01178],[-16.464834165585142,16.010555711046475],[-16.466061214245123,16.01011307883906],[-16.46610263178911,16.009012808803334],[-16.467108845009665,16.004605988571456],[-16.466803107537114,16.003364612422722],[-16.46630762719126,16.003224518399662],[-16.464628993060447,16.00357074894577],[-16.465447563789112,16.000552154979076],[-16.465377901642878,15.997778745921446],[-16.467641410735325,15.996280705982006],[-16.46788442908191,15.995705139501732],[-16.467972139804033,15.994174122482889],[-16.47070125643416,15.986459739587279],[-16.469778754706237,15.982849238692186],[-16.469956725238653,15.981831728851018],[-16.47047698095869,15.981140679907432],[-16.471802780149126,15.980743029058328],[-16.47437962017535,15.982399273285335],[-16.475151431966474,15.982304308040186],[-16.475391668981693,15.982078024803155],[-16.475683,15.98209],[-16.478261,15.984834],[-16.479193,15.985509],[-16.479235,15.986155],[-16.478803,15.98788],[-16.479016,15.99141],[-16.478783,15.992674],[-16.478803,15.994213],[-16.478531,15.995299],[-16.478065,15.995181],[-16.477341,15.996121],[-16.475814,15.996854],[-16.475278,15.997699],[-16.475376,15.998394],[-16.476206,15.999418],[-16.476681,16.000464],[-16.476545,16.00123],[-16.47591,16.002403],[-16.475786,16.003335],[-16.475867,16.004184],[-16.475747,16.004347],[-16.475372,16.004124],[-16.47516,16.003303],[-16.47553,16.001538],[-16.47547,16.000906],[-16.474969,16.000177],[-16.473363,15.996465],[-16.473567,15.995062],[-16.473298,15.994007]]]}},{"type":"Feature","properties":{"categorie":"Culture pluviale"},"geometry":{"type":"Polygon","coordinates":[[[-16.473206,15.991619],[-16.473429,15.992822],[-16.473298,15.994007],[-16.473597,15.995261],[-16.47337,15.99622],[-16.47343,15.996681],[-16.474969,16.000177],[-16.47547,16.000906],[-16.47553,16.001538],[-16.47516,16.003303],[-16.475372,16.004124],[-16.475644,16.004339],[-16.475867,16.004184],[-16.475786,16.003335],[-16.47591,16.002403],[-16.476545,16.00123],[-16.476692,16.000617],[-16.476206,15.999418],[-16.475376,15.998394],[-16.475278,15.997699],[-16.475814,15.996854],[-16.477341,15.996121],[-16.478065,15.995181],[-16.478531,15.995251],[-16.478459,15.996775],[-16.477706,15.998603],[-16.477985,16.000088],[-16.477437,16.001579],[-16.477555,16.002446],[-16.477467,16.003124],[-16.475948,16.006244],[-16.475208,16.008608],[-16.475105,16.009856],[-16.47538,16.011399],[-16.475045,16.011479],[-16.474874,16.012469],[-16.475138,16.012858],[-16.475279,16.013452],[-16.474509,16.014649],[-16.47448,16.015019],[-16.474827,16.015912],[-16.474382,16.016257],[-16.473537,16.016016],[-16.471564,16.014601],[-16.469628,16.013936],[-16.469328,16.013494],[-16.468878,16.013434],[-16.468745,16.012766],[-16.469177,16.01249],[-16.470265,16.012518],[-16.471758,16.012173],[-16.473062,16.011315],[-16.473856,16.010313],[-16.473993,16.008933],[-16.473738,16.006892],[-16.473812,16.005436],[-16.473584,16.002464],[-16.473236,16.000831],[-16.47236,15.998595],[-16.472535,15.996967],[-16.472354,15.995188],[-16.472507,15.993217],[-16.472436,15.991157],[-16.473206,15.991619]]]}},{"type":"Feature","properties":{"categorie":"Tanne"},"geometry":{"type":"Polygon","coordinates":[[[-16.464598,16.01178],[-16.464186,16.012985],[-16.462172,16.015164],[-16.460937,16.017016],[-16.459971,16.019685],[-16.459658,16.021186],[-16.460249,16.022853],[-16.460526,16.024593],[-16.462503,16.027113],[-16.462984,16.028018],[-16.464002,16.032025],[-16.464257,16.032355],[-16.465177,16.032841],[-16.465669,16.033574],[-16.465775,16.033463],[-16.465679,16.033567],[-16.46562,16.033618],[-16.465476,16.033694],[-16.464838,16.03376],[-16.463569,16.034445],[-16.463344,16.034747],[-16.463145,16.035717],[-16.462601,16.036129],[-16.46234,16.036704],[-16.46209,16.036888],[-16.461604,16.036943],[-16.461988,16.035268],[-16.461857,16.034548],[-16.461982,16.033929],[-16.461317,16.03198],[-16.460303,16.03051],[-16.460291,16.029482],[-16.459826,16.029173],[-16.459243,16.029044],[-16.458357,16.029332],[-16.457984,16.029596],[-16.458042,16.031029],[-16.458284,16.031298],[-16.458874,16.031535],[-16.458377,16.034194],[-16.458575,16.035201],[-16.458531,16.035831],[-16.458199,16.036284],[-16.457901,16.036118],[-16.457246,16.036249],[-16.457025,16.036598],[-16.45676,16.036469],[-16.456641,16.035922],[-16.456181,16.03595],[-16.456309,16.037122],[-16.455486,16.037282],[-16.455671,16.038004],[-16.456331,16.037903],[-16.456488,16.03826],[-16.456936,16.038165],[-16.456495,16.038998],[-16.456719,16.039497],[-16.456642,16.039658],[-16.455942,16.039791],[-16.455187,16.039569],[-16.454791,16.039631],[-16.454291,16.048474],[-16.453862,16.051502],[-16.453498,16.051741],[-16.45349,16.051297],[-16.451982,16.049948],[-16.451218,16.050336],[-16.45235,16.051933],[-16.451781,16.052193],[-16.450924,16.052096],[-16.449785,16.051621],[-16.45011,16.050239],[-16.449769,16.049452],[-16.448162,16.049441],[-16.447763,16.04976],[-16.447319,16.04985],[-16.446989,16.049766],[-16.446921,16.049533],[-16.447004,16.049093],[-16.447558,16.048386],[-16.448804,16.048248],[-16.449028,16.045691],[-16.449499,16.044915],[-16.450815,16.043761],[-16.450706,16.042423],[-16.449061,16.039201],[-16.448624,16.039248],[-16.448506,16.038958],[-16.448563,16.037701],[-16.449001,16.036216],[-16.44888,16.033214],[-16.447827,16.03288],[-16.448244,16.03238],[-16.448274,16.031137],[-16.449,16.02898],[-16.449228,16.026259],[-16.449884,16.022966],[-16.450086,16.020932],[-16.450537,16.019226],[-16.451417,16.017789],[-16.451934,16.015924],[-16.45227488213502,16.01537614265403],[-16.459304606391093,16.012550384177153],[-16.464834165585142,16.010555711046475],[-16.464598,16.01178]]]}},{"type":"Feature","properties":{"categorie":"Culture pluviale"},"geometry":{"type":"Polygon","coordinates":[[[-16.451934,16.015924],[-16.451417,16.017789],[-16.450537,16.019226],[-16.450086,16.020932],[-16.449884,16.022966],[-16.449228,16.026259],[-16.449,16.02898],[-16.448274,16.031137],[-16.448244,16.03238],[-16.447827,16.03288],[-16.446564,16.032663],[-16.44585,16.032361],[-16.444599,16.032405],[-16.442469457186284,16.031972428482472],[-16.443629896049583,16.026684526074852],[-16.444209733362133,16.02496845773532],[-16.444795897643885,16.022631821796665],[-16.444846,16.022616],[-16.445315,16.021828],[-16.44595,16.021524],[-16.446279,16.020867],[-16.447279,16.02032],[-16.447925,16.019239],[-16.448144,16.018498],[-16.448138,16.01774],[-16.447421733283463,16.017326976855667],[-16.451462624838477,16.01570264805559],[-16.451934,16.015924]]]}},{"type":"Feature","properties":{"categorie":"Steppe"},"geometry":{"type":"Polygon","coordinates":[[[-16.451934,16.015924],[-16.451462624838477,16.01570264805559],[-16.45227488213502,16.01537614265403],[-16.451934,16.015924]]]}}]}