{"type":"FeatureCollection","name":"risques-erosion.geojson","features":[{"type":"Feature","properties":{"id":1,"risque":"Fort"},"geometry":{"type":"MultiLineString","coordinates":[[[-16.50860155967163,16.064604610643226],[-16.50911410835193,16.055445261202216],[-16.50910022169025,16.054740320414346]],[[-16.508988708987378,16.04907950326246],[-16.50886147173498,16.04262044700983],[-16.509321253708812,16.03384535931398]],[[-16.509957468652868,16.021702991310807],[-16.50996754343293,16.02151071087446]],[[-16.512893257405565,15.99203293823643],[-16.512933984180535,15.991623001869035]]]}}]}