{"type":"FeatureCollection","name":"risques-inondation.geojson","features":[{"type":"Feature","properties":{"Categorie":"Risque fort","Code":"IC2 (1,0-2,0m.)"},"geometry":{"type":"Polygon","coordinates":[[[-16.47485007986723,16.060191273458397,0.0],[-16.47389912641295,16.05984845456829,0.0],[-16.47519512091942,16.057983522548064,0.0],[-16.47367869262537,16.049838436675962,0.0],[-16.474142899234405,16.048481447602896,0.0],[-16.476652621541945,16.045865754595145,0.0],[-16.478644260361094,16.043428294403952,0.0],[-16.47921696337618,16.04148099338904,0.0],[-16.479648387096713,16.038748592514466,0.0],[-16.47964000857321,16.037613210028173,0.0],[-16.48022461670316,16.037281643991445,0.0],[-16.483070557658888,16.037414825152748,0.0],[-16.48513306642488,16.038470480713922,0.0],[-16.486557420029857,16.038722633390375,0.0],[-16.487729854249757,16.038496147548305,0.0],[-16.488672615697734,16.037747202786804,0.0],[-16.490217829694704,16.036033314645213,0.0],[-16.488994001483032,16.043018197864633,0.0],[-16.486053797744393,16.04845376270934,0.0],[-16.480078745484732,16.058801406348486,0.0],[-16.478732634376964,16.059989814788338,0.0],[-16.47485007986723,16.060191273458397,0.0]]]}},{"type":"Feature","properties":{"Categorie":"Risque fort","Code":"IC2 (1,0-2,0m.)"},"geometry":{"type":"Polygon","coordinates":[[[-16.48068798006091,16.03145143430501,0.0],[-16.48240240981164,16.034300026142326,0.0],[-16.48435603430357,16.035902328816398,0.0],[-16.48573844886041,16.036591485657873,0.0],[-16.487430969087697,16.036470574606618,0.0],[-16.488824626839826,16.035631160212468,0.0],[-16.491892474579362,16.03199305763298,0.0],[-16.49037929203737,16.034973180146668,0.0],[-16.489235702386715,16.036040138021317,0.0],[-16.48786526969102,16.03696673528,0.0],[-16.485927626124187,16.037526055749453,0.0],[-16.48302684064119,16.036083170284513,0.0],[-16.479819674975598,16.035952480286408,0.0],[-16.479913390535227,16.03335342150315,0.0],[-16.479223990731988,16.031720522397713,0.0],[-16.478129663471364,16.030286929543625,0.0],[-16.47755703433418,16.029177268270747,0.0],[-16.47723673177598,16.027072355339882,0.0],[-16.48068798006091,16.03145143430501,0.0]]]}},{"type":"Feature","properties":{"Categorie":"Risque fort","Code":"IC2 (1,0-2,0m.)"},"geometry":{"type":"Polygon","coordinates":[[[-16.476633225537007,16.02943473707806,0.0],[-16.477152542895254,16.03097055908295,0.0],[-16.478292022483245,16.032403845871915,0.0],[-16.478495174842458,16.03545940264455,0.0],[-16.47847062523043,16.038254503485152,0.0],[-16.477600011759577,16.042671256846095,0.0],[-16.475984648353176,16.044079852613425,0.0],[-16.473364449875156,16.047023828132165,0.0],[-16.47225218155107,16.049302357626726,0.0],[-16.47326077902039,16.055955227162876,0.0],[-16.473096007389977,16.059840333646303,0.0],[-16.47141495074854,16.05982186742078,0.0],[-16.470609108823812,16.060788161659485,0.0],[-16.470125161880276,16.062538318808468,0.0],[-16.465845992559203,16.0640961397446,0.0],[-16.462830981322654,16.06560157433913,0.0],[-16.460528967671777,16.065791976245436,0.0],[-16.460998149350818,16.065322350206745,0.0],[-16.461943052339393,16.064835518812178,0.0],[-16.462840235166492,16.063999641938526,0.0],[-16.463373720850967,16.062838715760922,0.0],[-16.46320464287586,16.061333223018085,0.0],[-16.46373125702192,16.059233417583737,0.0],[-16.46242316588722,16.05018062077753,0.0],[-16.46184207297508,16.04481304797859,0.0],[-16.46135008633832,16.042370823453826,0.0],[-16.461117279885862,16.03831099986051,0.0],[-16.466557817388562,16.038164676479514,0.0],[-16.46726444969782,16.03907693248517,0.0],[-16.468305125878256,16.039353668958952,0.0],[-16.46949697092836,16.03869043864531,0.0],[-16.472089586145643,16.035069802444365,0.0],[-16.476571842006365,16.027229780691936,0.0],[-16.476633225537007,16.02943473707806,0.0]],[[-16.474529503705508,16.045032829283652,0.0],[-16.472944753873502,16.045361726005016,0.0],[-16.472666002370065,16.045785477559928,0.0],[-16.47187727882681,16.046219221784416,0.0],[-16.470930640419947,16.045711405684518,0.0],[-16.47066927427483,16.044846812636997,0.0],[-16.470067093127437,16.044636780868508,0.0],[-16.469235319947753,16.044691157915207,0.0],[-16.468628501171402,16.044305929294804,0.0],[-16.468381060392275,16.04442444098769,0.0],[-16.46846651346106,16.044638018738663,0.0],[-16.468213003224967,16.04484418409115,0.0],[-16.46820738589871,16.04499348785684,0.0],[-16.46852393194529,16.045147074164902,0.0],[-16.46857026229165,16.04551667494841,0.0],[-16.46863851394434,16.045214431842197,0.0],[-16.468244009732338,16.04495429819105,0.0],[-16.468554561289523,16.044747741951333,0.0],[-16.46850525629696,16.04443007986145,0.0],[-16.468652654413773,16.044396620907673,0.0],[-16.46912533023948,16.044792503680966,0.0],[-16.470474615499572,16.044841658506225,0.0],[-16.47066496832567,16.045174576519752,0.0],[-16.470808396467536,16.04597183619599,0.0],[-16.470946895998992,16.04609743647621,0.0],[-16.470843879260002,16.046234429076385,0.0],[-16.470303090436015,16.0461602625414,0.0],[-16.470149575730897,16.04627488703243,0.0],[-16.470387309874013,16.046662643339108,0.0],[-16.470237507344834,16.046825915859664,0.0],[-16.470207263588094,16.04773469376608,0.0],[-16.46984956688152,16.04769009662964,0.0],[-16.469222330005877,16.047953989718646,0.0],[-16.46924298592913,16.048025235789204,0.0],[-16.46981972516338,16.047738974739797,0.0],[-16.47024825467568,16.047833381796277,0.0],[-16.47039692527219,16.047058454458952,0.0],[-16.470284328181695,16.04680450281594,0.0],[-16.470456226430485,16.04668001738423,0.0],[-16.470238957742726,16.04633754928744,0.0],[-16.470358918553885,16.046223154951377,0.0],[-16.47095341759184,16.046300197570737,0.0],[-16.470940112466746,16.04585898334271,0.0],[-16.471500179086124,16.046273729720628,0.0],[-16.47191020359471,16.046361770919642,0.0],[-16.47264567069177,16.045986800557305,0.0],[-16.473071414966178,16.045474426645676,0.0],[-16.474893506495988,16.04525097706552,0.0],[-16.474529503705508,16.045032829283652,0.0]],[[-16.47166822564887,16.044710971006676,0.0],[-16.471538006093844,16.044341947278316,0.0],[-16.471988000237616,16.043933245584643,0.0],[-16.471812044923393,16.04373327055239,0.0],[-16.471901588645224,16.04336111536419,0.0],[-16.472007655727584,16.043868212732644,0.0],[-16.472131982274988,16.043891695535333,0.0],[-16.472091656134353,16.043655095321625,0.0],[-16.472540270805744,16.043515728202955,0.0],[-16.47261807535023,16.0436011833032,0.0],[-16.472745733268926,16.043621397976448,0.0],[-16.472811051930798,16.04337758223481,0.0],[-16.472735333471324,16.04357604094411,0.0],[-16.47248272945978,16.043447980772488,0.0],[-16.472066002544814,16.043588751205668,0.0],[-16.47191962602436,16.043304205864313,0.0],[-16.471840775603305,16.043304747334552,0.0],[-16.47176138120142,16.04368818994135,0.0],[-16.471860163448525,16.043888694998586,0.0],[-16.471433561308427,16.04428425626983,0.0],[-16.471476136286423,16.044598718649432,0.0],[-16.47070011542974,16.04493421315182,0.0],[-16.47166822564887,16.044710971006676,0.0]],[[-16.46774307094024,16.04505183143599,0.0],[-16.468109472035017,16.045140178989072,0.0],[-16.468295053424757,16.045051295419782,0.0],[-16.467745974825355,16.04499015848653,0.0],[-16.467478044007084,16.04506013608215,0.0],[-16.467054357994396,16.045397261294912,0.0],[-16.46774307094024,16.04505183143599,0.0]]]}},{"type":"Feature","properties":{"Categorie":"Risque fort","Code":"IC2 (1,0-2,0m.)"},"geometry":{"type":"Polygon","coordinates":[[[-16.472156793470987,16.025767431686784,0.0],[-16.471269736096087,16.027957064745078,0.0],[-16.469210566629627,16.030416752794615,0.0],[-16.467232713726585,16.03165307978232,0.0],[-16.466523966410445,16.033535781034114,0.0],[-16.46654951329314,16.037029287221735,0.0],[-16.462757363483313,16.0371862043878,0.0],[-16.462878815062247,16.035263848776573,0.0],[-16.462722328591383,16.032382624971284,0.0],[-16.46108020825728,16.03012292012001,0.0],[-16.458760815108118,16.027867805930075,0.0],[-16.456321225980542,16.027709696372288,0.0],[-16.455605096629068,16.028587981043966,0.0],[-16.4558883812917,16.03028923581519,0.0],[-16.457073504019675,16.031809679980913,0.0],[-16.45762520129469,16.03315973752669,0.0],[-16.45450391956087,16.038639830226234,0.0],[-16.453024828588745,16.040178352241416,0.0],[-16.4526743316547,16.041665549040463,0.0],[-16.451913615887175,16.04263146990689,0.0],[-16.45055446540476,16.04202927446313,0.0],[-16.449997415180444,16.039936822677348,0.0],[-16.44881891579305,16.03933339236557,0.0],[-16.4483294984869,16.034096142406252,0.0],[-16.44758431623664,16.030956837691214,0.0],[-16.44829670759277,16.029554545938186,0.0],[-16.446394544087774,16.028781295938614,0.0],[-16.44558050391429,16.028612097650964,0.0],[-16.445476981880873,16.026778596933738,0.0],[-16.445808012298237,16.022583912472115,0.0],[-16.447608468254646,16.021785689452937,0.0],[-16.448314531465773,16.01951001425506,0.0],[-16.447845434370905,16.01715666051097,0.0],[-16.459304606391093,16.012550384177153,0.0],[-16.46149443265996,16.011760450031215,0.0],[-16.461533857441758,16.011821447598745,0.0],[-16.461633607032798,16.01171024577944,0.0],[-16.465250131544447,16.010405660003855,0.0],[-16.465483139618957,16.01136586779058,0.0],[-16.46186856363325,16.017242443607245,0.0],[-16.461126729014815,16.0207848587449,0.0],[-16.461280625262976,16.023316737550303,0.0],[-16.46074800653138,16.024586827388422,0.0],[-16.46084403496974,16.025372254215586,0.0],[-16.46282664852265,16.024791021492348,0.0],[-16.464091259046935,16.024826067034578,0.0],[-16.464284299237132,16.02652792202781,0.0],[-16.465151784479207,16.027832131444548,0.0],[-16.466420881666366,16.0284785256567,0.0],[-16.467997758386876,16.027987359288222,0.0],[-16.469028944639113,16.026975867314185,0.0],[-16.470512934628548,16.02613595194239,0.0],[-16.471319933272298,16.02534434173761,0.0],[-16.471988583747365,16.024160639440353,0.0],[-16.472156793470987,16.025767431686784,0.0]],[[-16.44954828414256,16.027799068583683,0.0],[-16.449665133359606,16.025221670892495,0.0],[-16.44954801760612,16.02151039844833,0.0],[-16.4493636226084,16.02098758770091,0.0],[-16.448819268545996,16.02064189246501,0.0],[-16.448010300809578,16.02117140866734,0.0],[-16.44725498302112,16.022879687555665,0.0],[-16.447397685769186,16.023883166638587,0.0],[-16.447198057482147,16.027509236644175,0.0],[-16.44743296440532,16.028774121130443,0.0],[-16.44883338423917,16.028852009899044,0.0],[-16.44954828414256,16.027799068583683,0.0]],[[-16.45873592046742,16.02446145293497,0.0],[-16.4593499679338,16.021968020349984,0.0],[-16.45923839392129,16.019042809439703,0.0],[-16.458469539511114,16.018873350568125,0.0],[-16.45809944297892,16.01765307108528,0.0],[-16.458767201765756,16.01633839765006,0.0],[-16.458672140473052,16.015683975404972,0.0],[-16.458262924333187,16.015293714603423,0.0],[-16.457004392173523,16.016088342381764,0.0],[-16.455536553511696,16.019155288328744,0.0],[-16.45753212578051,16.02036453993608,0.0],[-16.457629406686547,16.02132464594777,0.0],[-16.45750409575882,16.02272297582215,0.0],[-16.456970185465337,16.023818381959355,0.0],[-16.455897279503205,16.025310486179368,0.0],[-16.45626706430837,16.026487099496272,0.0],[-16.45771325470425,16.02665196289853,0.0],[-16.45873592046742,16.02446145293497,0.0]]]}},{"type":"Feature","properties":{"Categorie":"Risque fort","Code":"IC2 (1,0-2,0m.)"},"geometry":{"type":"Polygon","coordinates":[[[-16.453969700320304,16.04592562523233,0.0],[-16.454344438266833,16.04155596439106,0.0],[-16.454696506746306,16.040287111078307,0.0],[-16.45542313914822,16.04084990441097,0.0],[-16.456518330634236,16.042414627535244,0.0],[-16.45771274828179,16.04520146014115,0.0],[-16.457630690279423,16.046337467354586,0.0],[-16.456798716748665,16.04992415673436,0.0],[-16.454857509697224,16.050024688824912,0.0],[-16.454871463059433,16.051946124457675,0.0],[-16.453791436001026,16.052477510019273,0.0],[-16.453969700320304,16.04592562523233,0.0]]]}},{"type":"Feature","properties":{"Categorie":"Risque fort","Code":"IC2 (1,0-2,0m.)"},"geometry":{"type":"Polygon","coordinates":[[[-16.44885768901327,16.0634287383982,0.0],[-16.44886464280756,16.06438945762361,0.0],[-16.44843521951439,16.06486491156717,0.0],[-16.447844830566485,16.06370817861555,0.0],[-16.44885768901327,16.0634287383982,0.0]]]}},{"type":"Feature","properties":{"Categorie":"Risque fort","Code":"IC2 (1,0-2,0m.)"},"geometry":{"type":"Polygon","coordinates":[[[-16.494134050721133,16.051017801795837,0.0],[-16.496334751732277,16.04938663619724,0.0],[-16.496703519842335,16.050388480883285,0.0],[-16.4964514890516,16.05292312721881,0.0],[-16.496482485084577,16.057071601829193,0.0],[-16.497135292227707,16.059818275274722,0.0],[-16.498369331432112,16.06177481117154,0.0],[-16.499287593704857,16.06377721968516,0.0],[-16.499845890645634,16.06595682615443,0.0],[-16.499240451423987,16.069542034945663,0.0],[-16.498179110178164,16.072562720659995,0.0],[-16.498300739937847,16.07306336767304,0.0],[-16.496570050878685,16.07319295584188,0.0],[-16.49488649848014,16.07290365796864,0.0],[-16.493792717376085,16.07236942417141,0.0],[-16.493632093418725,16.071708211789367,0.0],[-16.493718312944722,16.070744210362744,0.0],[-16.493186331161894,16.07038665507375,0.0],[-16.492901171013905,16.06972631056963,0.0],[-16.49161747161207,16.068771860462046,0.0],[-16.49048564118132,16.0673045719632,0.0],[-16.489886022360857,16.066224941657097,0.0],[-16.48931060267047,16.06421183972612,0.0],[-16.489304107192353,16.063338814709827,0.0],[-16.489014332063224,16.062643685780767,0.0],[-16.488898868440895,16.061576431457944,0.0],[-16.48937074430456,16.0598589316859,0.0],[-16.490020840021845,16.059239442976253,0.0],[-16.489918705387094,16.0580660164034,0.0],[-16.489768360412857,16.05792678087533,0.0],[-16.489840398604933,16.056637532744784,0.0],[-16.494134050721133,16.051017801795837,0.0]],[[-16.495734366731586,16.057076400450146,0.0],[-16.4959124205488,16.05536139040512,0.0],[-16.49578741405772,16.053226646240287,0.0],[-16.49501673151558,16.052256496891598,0.0],[-16.49352014637214,16.052662420686165,0.0],[-16.492958403357566,16.054116448372696,0.0],[-16.49296115456052,16.05448554861833,0.0],[-16.49434582449704,16.05734974969119,0.0],[-16.495734366731586,16.057076400450146,0.0]]]}},{"type":"Feature","properties":{"Categorie":"Risque fort","Code":"IC2 (1,0-2,0m.)"},"geometry":{"type":"Polygon","coordinates":[[[-16.502165858203885,16.06816774377832,0.0],[-16.5021710352541,16.062839931284415,0.0],[-16.501075054556487,16.061231815797317,0.0],[-16.498935826434046,16.059019612796913,0.0],[-16.49854970888056,16.055703365503575,0.0],[-16.498431948607163,16.052035875415775,0.0],[-16.49919572480178,16.05150648712071,0.0],[-16.500972613838705,16.05359022310196,0.0],[-16.50348848332339,16.057852270482517,0.0],[-16.50350684540535,16.06029767826307,0.0],[-16.502766324622016,16.063927511231338,0.0],[-16.503883007980807,16.068286696521618,0.0],[-16.503352599664932,16.068759778742944,0.0],[-16.503262653960775,16.06881081984554,0.0],[-16.503221107256458,16.068877059560055,0.0],[-16.50240248906055,16.069607202174616,0.0],[-16.502165858203885,16.06816774377832,0.0]]]}},{"type":"Feature","properties":{"Categorie":"Risque fort","Code":"IC2 (1,0-2,0m.)"},"geometry":{"type":"Polygon","coordinates":[[[-16.505987883184833,16.053904385345007,0.0],[-16.505107223461177,16.050897324503694,0.0],[-16.50601784219194,16.051347043157204,0.0],[-16.508309740842524,16.04984613146792,0.0],[-16.50860155967163,16.064604610643226,0.0],[-16.507393056491463,16.066054240167748,0.0],[-16.505498664484655,16.066921561349623,0.0],[-16.505987883184833,16.053904385345007,0.0]]]}},{"type":"Feature","properties":{"Categorie":"Risque moyen","Code":"IC3 (0,5-1,0m.)"},"geometry":{"type":"Polygon","coordinates":[[[-16.442935614973432,16.05185802718967,0.0],[-16.442914479725786,16.051812792921552,0.0],[-16.44267959386565,16.049850463338014,0.0],[-16.443307420558185,16.049234836359958,0.0],[-16.444888621549254,16.049311522326825,0.0],[-16.44601287344007,16.048648868707257,0.0],[-16.446685844443653,16.048032928166954,0.0],[-16.447722604836834,16.047763898599346,0.0],[-16.447910497555235,16.048767068327777,0.0],[-16.44778354025388,16.04994705040264,0.0],[-16.446657080868484,16.050304029284227,0.0],[-16.446307470463076,16.05192222711308,0.0],[-16.442935614973432,16.05185802718967,0.0]]]}},{"type":"Feature","properties":{"Categorie":"Risque moyen","Code":"IC3 (0,5-1,0m.)"},"geometry":{"type":"Polygon","coordinates":[[[-16.477635332486354,16.015282364396846,0.0],[-16.477917808236647,16.016852572065982,0.0],[-16.47620848294744,16.017737752480407,0.0],[-16.47405147243947,16.019150046796156,0.0],[-16.473338017184165,16.02037773237328,0.0],[-16.47252848268927,16.020819998047674,0.0],[-16.472162141010827,16.020123775805402,0.0],[-16.471604311296282,16.0179440520986,0.0],[-16.470601381006066,16.016640795573565,0.0],[-16.468065243860853,16.015610050035427,0.0],[-16.46769254507954,16.014040439976167,0.0],[-16.467679142001824,16.012206346395157,0.0],[-16.46948004423373,16.011495291775457,0.0],[-16.47210003279462,16.011652029357073,0.0],[-16.472999833287574,16.011209148510677,0.0],[-16.473706856046583,16.009108089787752,0.0],[-16.47367034313656,16.004129846240527,0.0],[-16.47229093753724,16.000732964007607,0.0],[-16.471364330872973,15.997507652739483,0.0],[-16.47168970991378,15.99261426384333,0.0],[-16.472370489233903,15.986932360349464,0.0],[-16.47299420101149,15.985792640078582,0.0],[-16.473446923462063,15.985964222668171,0.0],[-16.473906684712446,15.987096519595193,0.0],[-16.47410198249852,15.989104049679788,0.0],[-16.473579437102547,15.991727895807479,0.0],[-16.473779860995453,15.994434126885645,0.0],[-16.474682145374732,15.994340595763955,0.0],[-16.475226462809662,15.994686228467398,0.0],[-16.476671784652392,15.99476364483033,0.0],[-16.477740533466672,15.992747433850175,0.0],[-16.478183004478556,15.99152160395425,0.0],[-16.47843911234846,15.98951097747585,0.0],[-16.47870741454016,15.989159764332133,0.0],[-16.47907114300026,15.989506630057639,0.0],[-16.47925621914386,15.990116750254682,0.0],[-16.478749154228094,15.99483670349483,0.0],[-16.477619643088385,16.000871065724994,0.0],[-16.477455745014417,16.003143082544447,0.0],[-16.476212769153083,16.00603391149815,0.0],[-16.47548022734847,16.010034838333276,0.0],[-16.475448840437032,16.01267714666641,0.0],[-16.475820311528878,16.014072063662116,0.0],[-16.477635332486354,16.015282364396846,0.0]]]}},{"type":"Feature","properties":{"Categorie":"Risque fort","Code":"IC2 (1,0-2,0m.)"},"geometry":{"type":"Polygon","coordinates":[[[-16.49418724529006,15.985148639768019,0.0],[-16.494079773181355,15.982834837167339,0.0],[-16.492752804474623,15.980442159247024,0.0],[-16.493330264253036,15.979171698471196,0.0],[-16.49413861398012,15.9785983652466,0.0],[-16.495729626034255,15.98007211333013,0.0],[-16.496289842328604,15.982557447720653,0.0],[-16.496354793692053,15.985220908781502,0.0],[-16.49418724529006,15.985148639768019,0.0]]]}},{"type":"Feature","properties":{"Categorie":"Risque moyen","Code":"IC3 (0,5-1,0m.)"},"geometry":{"type":"Polygon","coordinates":[[[-16.45626706430837,16.026487099496272,0.0],[-16.455897279503205,16.025310486179368,0.0],[-16.456970185465337,16.023818381959355,0.0],[-16.45750409575882,16.02272297582215,0.0],[-16.457629406686547,16.02132464594777,0.0],[-16.45753212578051,16.02036453993608,0.0],[-16.455536553511696,16.019155288328744,0.0],[-16.457004392173523,16.016088342381764,0.0],[-16.458262924333187,16.015293714603423,0.0],[-16.458672140473052,16.015683975404972,0.0],[-16.458767201765756,16.01633839765006,0.0],[-16.45809944297892,16.01765307108528,0.0],[-16.458469539511114,16.018873350568125,0.0],[-16.45923839392129,16.019042809439703,0.0],[-16.4593499679338,16.021968020349984,0.0],[-16.45873592046742,16.02446145293497,0.0],[-16.45771325470425,16.02665196289853,0.0],[-16.45626706430837,16.026487099496272,0.0]]]}},{"type":"Feature","properties":{"Categorie":"Risque moyen","Code":"IC3 (0,5-1,0m.)"},"geometry":{"type":"Polygon","coordinates":[[[-16.44743296440532,16.028774121130443,0.0],[-16.447198057482147,16.027509236644175,0.0],[-16.447397685769186,16.023883166638587,0.0],[-16.44725498302112,16.022879687555665,0.0],[-16.448010300809578,16.02117140866734,0.0],[-16.448819268545996,16.02064189246501,0.0],[-16.4493636226084,16.02098758770091,0.0],[-16.44954801760612,16.02151039844833,0.0],[-16.449665133359606,16.025221670892495,0.0],[-16.44954828414256,16.027799068583683,0.0],[-16.44883338423917,16.028852009899044,0.0],[-16.44743296440532,16.028774121130443,0.0]]]}},{"type":"Feature","properties":{"Categorie":"Risque moyen","Code":"IC3 (0,5-1,0m.)"},"geometry":{"type":"Polygon","coordinates":[[[-16.46149443265996,16.011760450031215,0.0],[-16.461633607032798,16.01171024577944,0.0],[-16.461533857441758,16.011821447598745,0.0],[-16.46149443265996,16.011760450031215,0.0]]]}},{"type":"Feature","properties":{"Categorie":"Risque très fort","Code":"IC1 (>2,0m.)"},"geometry":{"type":"Polygon","coordinates":[[[-16.502476828714013,16.0700636951544,0.0],[-16.50187810375785,16.07101826834667,0.0],[-16.50095015779441,16.071837613659834,0.0],[-16.50017494128843,16.07226454670939,0.0],[-16.499898313754947,16.07238473880876,0.0],[-16.50240248906055,16.069607202174616,0.0],[-16.502476828714013,16.0700636951544,0.0]]]}},{"type":"Feature","properties":{"Categorie":"Risque très fort","Code":"IC1 (>2,0m.)"},"geometry":{"type":"Polygon","coordinates":[[[-16.505589128283585,16.067490625449214,0.0],[-16.503906413642273,16.068445508302766,0.0],[-16.503883007980807,16.068286696521618,0.0],[-16.505498664484655,16.066921561349623,0.0],[-16.505589128283585,16.067490625449214,0.0]]]}},{"type":"Feature","properties":{"Categorie":"Risque fort","Code":"IC2 (1,0-2,0m.)"},"geometry":{"type":"MultiPolygon","coordinates":[[[[-16.489768360412857,16.05792678087533,0.0],[-16.489429419539704,16.05761288537136,0.0],[-16.488895563257884,16.05782371231777,0.0],[-16.48377933172794,16.06306069165901,0.0],[-16.480088231134363,16.065815644386962,0.0],[-16.489840398604933,16.056637532744784,0.0],[-16.489768360412857,16.05792678087533,0.0]]],[[[-16.489014332063224,16.062643685780767,0.0],[-16.488828588949474,16.06219811471975,0.0],[-16.488632610865555,16.06096510898765,0.0],[-16.48893879564647,16.060270543868103,0.0],[-16.48937074430456,16.0598589316859,0.0],[-16.488898868440895,16.061576431457944,0.0],[-16.489014332063224,16.062643685780767,0.0]]]]}},{"type":"Feature","properties":{"Categorie":"Risque fort","Code":"IC2 (1,0-2,0m.)"},"geometry":{"type":"MultiPolygon","coordinates":[[[[-16.465878616276232,16.068550348602958,0.0],[-16.467138700296832,16.067930322766113,0.0],[-16.468495189968607,16.06813937495728,0.0],[-16.46900063785399,16.069315019389855,0.0],[-16.46977195962503,16.069573207672594,0.0],[-16.46728886130605,16.06968828916435,0.0],[-16.464562073951896,16.069518730704985,0.0],[-16.464891101947746,16.069386856757642,0.0],[-16.465878616276232,16.068550348602958,0.0]]],[[[-16.457333724016777,16.067593421081725,0.0],[-16.45653878994133,16.067714019061718,0.0],[-16.456172662087987,16.06749389685074,0.0],[-16.457333724016777,16.067593421081725,0.0]]]]}},{"type":"Feature","properties":{"Categorie":"Risque très fort","Code":"IC1 (>2,0m.)"},"geometry":{"type":"MultiPolygon","coordinates":[[[[-16.47225218155107,16.049302357626726,0.0],[-16.473364449875156,16.047023828132165,0.0],[-16.475984648353176,16.044079852613425,0.0],[-16.477600011759577,16.042671256846095,0.0],[-16.47847062523043,16.038254503485152,0.0],[-16.478495174842458,16.03545940264455,0.0],[-16.478292022483245,16.032403845871915,0.0],[-16.477152542895254,16.03097055908295,0.0],[-16.476633225537007,16.02943473707806,0.0],[-16.476571842006365,16.027229780691936,0.0],[-16.47723673177598,16.027072355339882,0.0],[-16.47755703433418,16.029177268270747,0.0],[-16.478129663471364,16.030286929543625,0.0],[-16.479223990731988,16.031720522397713,0.0],[-16.479913390535227,16.03335342150315,0.0],[-16.479819674975598,16.035952480286408,0.0],[-16.48302684064119,16.036083170284513,0.0],[-16.485927626124187,16.037526055749453,0.0],[-16.48786526969102,16.03696673528,0.0],[-16.489235702386715,16.036040138021317,0.0],[-16.49037929203737,16.034973180146668,0.0],[-16.491892474579362,16.03199305763298,0.0],[-16.495179623850397,16.030747391498764,0.0],[-16.496929549550327,16.02925038805406,0.0],[-16.498674067140538,16.027032846688996,0.0],[-16.498994937128188,16.02465056262713,0.0],[-16.49849670906052,16.021422424382017,0.0],[-16.50029037855238,16.01975041313639,0.0],[-16.499826467670893,16.018094176115664,0.0],[-16.499584405487305,16.01591234122589,0.0],[-16.499028255943212,16.013994721783487,0.0],[-16.499691486379255,16.012112256735747,0.0],[-16.498557856728613,16.011465113417536,0.0],[-16.49766007487763,16.012170106558298,0.0],[-16.49778793085358,16.005094579692102,0.0],[-16.49773384758655,15.991775415925249,0.0],[-16.49732233947723,15.991079552245054,0.0],[-16.497264192005943,15.989333130665765,0.0],[-16.49789133911121,15.988673702065112,0.0],[-16.49800823815837,15.986183659792761,0.0],[-16.497502229775918,15.984920734779001,0.0],[-16.496989731332235,15.982784439195008,0.0],[-16.49707871456718,15.976538908552424,0.0],[-16.496211934176873,15.975322157859488,0.0],[-16.49553932541851,15.975286182910171,0.0],[-16.49632370176971,15.974751133073338,0.0],[-16.496620848896217,15.97482080402659,0.0],[-16.497071637007565,15.975606782134037,0.0],[-16.499876795234737,15.983837062967895,0.0],[-16.509334170077064,15.991412988647605,0.0],[-16.509110992769767,15.992196826506982,0.0],[-16.5096776480711,15.995511800755596,0.0],[-16.50932265201462,15.998921814085952,0.0],[-16.50815965365942,16.000371104973897,0.0],[-16.507792775890902,16.00262270778465,0.0],[-16.507849755046596,16.007207702868136,0.0],[-16.508813671617176,16.012310369305947,0.0],[-16.508287675937563,16.017423499877964,0.0],[-16.506760416587465,16.018482315840103,0.0],[-16.505044678769774,16.018494353733896,0.0],[-16.503811200234416,16.02260802077834,0.0],[-16.50262444922765,16.03296622654612,0.0],[-16.501800852894572,16.037557389330996,0.0],[-16.502216738976944,16.038820917438628,0.0],[-16.503935273283354,16.039158231873266,0.0],[-16.505070065828498,16.039936334448104,0.0],[-16.505533430055888,16.041505212810666,0.0],[-16.505107223461177,16.050897324503694,0.0],[-16.505987883184833,16.053904385345007,0.0],[-16.505498664484655,16.066921561349623,0.0],[-16.503883007980807,16.068286696521618,0.0],[-16.502766324622016,16.063927511231338,0.0],[-16.50350684540535,16.06029767826307,0.0],[-16.50348848332339,16.057852270482517,0.0],[-16.500972613838705,16.05359022310196,0.0],[-16.49919572480178,16.05150648712071,0.0],[-16.498431948607163,16.052035875415775,0.0],[-16.49854970888056,16.055703365503575,0.0],[-16.498935826434046,16.059019612796913,0.0],[-16.501075054556487,16.061231815797317,0.0],[-16.5021710352541,16.062839931284415,0.0],[-16.502165858203885,16.06816774377832,0.0],[-16.50240248906055,16.069607202174616,0.0],[-16.500716666152623,16.071966203928366,0.0],[-16.50017494128843,16.07226454670939,0.0],[-16.498343847680708,16.073060139910414,0.0],[-16.498300739937847,16.07306336767304,0.0],[-16.498179110178164,16.072562720659995,0.0],[-16.499240451423987,16.069542034945663,0.0],[-16.499845890645634,16.06595682615443,0.0],[-16.499287593704857,16.06377721968516,0.0],[-16.498369331432112,16.06177481117154,0.0],[-16.497135292227707,16.059818275274722,0.0],[-16.496482485084577,16.057071601829193,0.0],[-16.4964514890516,16.05292312721881,0.0],[-16.496703519842335,16.050388480883285,0.0],[-16.496334751732277,16.04938663619724,0.0],[-16.494134050721133,16.051017801795837,0.0],[-16.489840398604933,16.056637532744784,0.0],[-16.480088231134363,16.065815644386962,0.0],[-16.479065794014595,16.066578767975944,0.0],[-16.478913576271065,16.066545222560656,0.0],[-16.477096030801366,16.068627673210965,0.0],[-16.472879229358583,16.069429198378444,0.0],[-16.46977195962503,16.069573207672594,0.0],[-16.46900063785399,16.069315019389855,0.0],[-16.468495189968607,16.06813937495728,0.0],[-16.467138700296832,16.067930322766113,0.0],[-16.465878616276232,16.068550348602958,0.0],[-16.464891101947746,16.069386856757642,0.0],[-16.464562073951896,16.069518730704985,0.0],[-16.464091837090965,16.069489490200567,0.0],[-16.46111900605754,16.068737336071784,0.0],[-16.45862102164379,16.067398127536936,0.0],[-16.457333724016777,16.067593421081725,0.0],[-16.456172662087987,16.06749389685074,0.0],[-16.455940241012197,16.067354161398725,0.0],[-16.453482238397367,16.06703166501863,0.0],[-16.45254763221139,16.06715108583312,0.0],[-16.45138345870737,16.066734016338742,0.0],[-16.451071606620452,16.066540093193584,0.0],[-16.452936885282927,16.06518857249677,0.0],[-16.45514858146096,16.064998866199506,0.0],[-16.458672845482045,16.065193237389156,0.0],[-16.460528967671777,16.065791976245436,0.0],[-16.462830981322654,16.06560157433913,0.0],[-16.465845992559203,16.0640961397446,0.0],[-16.470125161880276,16.062538318808468,0.0],[-16.470609108823812,16.060788161659485,0.0],[-16.47141495074854,16.05982186742078,0.0],[-16.473096027372854,16.059839862474895,0.0],[-16.47326077902039,16.055955227162876,0.0],[-16.47225218155107,16.049302357626726,0.0]],[[-16.487729854249757,16.038496147548305,0.0],[-16.486557420029857,16.038722633390375,0.0],[-16.48513306642488,16.038470480713922,0.0],[-16.483070557658888,16.037414825152748,0.0],[-16.48022461670316,16.037281643991445,0.0],[-16.47964000857321,16.037613210028173,0.0],[-16.479648387096713,16.038748592514466,0.0],[-16.47921696337618,16.04148099338904,0.0],[-16.478644260361094,16.043428294403952,0.0],[-16.476652621541945,16.045865754595145,0.0],[-16.474142899234405,16.048481447602896,0.0],[-16.47367869262537,16.049838436675962,0.0],[-16.47519512091942,16.057983522548064,0.0],[-16.47389912641295,16.05984845456829,0.0],[-16.47485007986723,16.060191273458397,0.0],[-16.478732634376964,16.059989814788338,0.0],[-16.480078745484732,16.058801406348486,0.0],[-16.486053797744393,16.04845376270934,0.0],[-16.488994001483032,16.043018197864633,0.0],[-16.4902135255137,16.03603808871963,0.0],[-16.488672615697734,16.037747202786804,0.0],[-16.487729854249757,16.038496147548305,0.0]],[[-16.502107036634083,15.995281815868315,0.0],[-16.502254818359905,15.99317152572682,0.0],[-16.502132009647674,15.991326783597769,0.0],[-16.501137417981084,15.989540861519401,0.0],[-16.500545794819484,15.990257495644906,0.0],[-16.50086962864825,15.991303329412553,0.0],[-16.500971977092014,15.992918426781776,0.0],[-16.50039909755111,15.994800262262663,0.0],[-16.500263042286527,15.996560251512964,0.0],[-16.499724203231445,15.997407716156944,0.0],[-16.4997285300091,15.997987732082802,0.0],[-16.50042581973439,15.998381063841364,0.0],[-16.502107036634083,15.995281815868315,0.0]],[[-16.499700509881045,16.007018187495884,0.0],[-16.50010229423731,16.006066216027488,0.0],[-16.50012049820747,16.004853266173154,0.0],[-16.5003302929164,16.003744440997643,0.0],[-16.500041778018183,16.001610832739196,0.0],[-16.498965766805227,15.999878204617255,0.0],[-16.498482214945533,16.00083074423957,0.0],[-16.497933454431095,16.007663296700557,0.0],[-16.498184085971648,16.008373423028324,0.0],[-16.499700509881045,16.007018187495884,0.0]]],[[[-16.476110669167237,16.025922827821606,0.0],[-16.476144579921183,16.024394113384552,0.0],[-16.475193800118902,16.02405128510357,0.0],[-16.471988583747365,16.024160639440353,0.0],[-16.471319933272298,16.02534434173761,0.0],[-16.470512934628548,16.02613595194239,0.0],[-16.469028944639113,16.026975867314185,0.0],[-16.467997758386876,16.027987359288222,0.0],[-16.466420881666366,16.0284785256567,0.0],[-16.465151784479207,16.027832131444548,0.0],[-16.464284299237132,16.02652792202781,0.0],[-16.464091259046935,16.024826067034578,0.0],[-16.46282664852265,16.024791021492348,0.0],[-16.46084403496974,16.025372254215586,0.0],[-16.46074800653138,16.024586827388422,0.0],[-16.461280625262976,16.023316737550303,0.0],[-16.461126729014815,16.0207848587449,0.0],[-16.46186856363325,16.017242443607245,0.0],[-16.465483139618957,16.01136586779058,0.0],[-16.465250131544447,16.010405660003855,0.0],[-16.466061214245123,16.01011307883906,0.0],[-16.46610263178911,16.009012808803334,0.0],[-16.467108845009665,16.004605988571456,0.0],[-16.466803107537114,16.003364612422722,0.0],[-16.46630762719126,16.003224518399662,0.0],[-16.464628993060447,16.00357074894577,0.0],[-16.465447563789112,16.000552154979076,0.0],[-16.465377901642878,15.997778745921446,0.0],[-16.467641410735325,15.996280705982006,0.0],[-16.46788442908191,15.995705139501732,0.0],[-16.467972139804033,15.994174122482889,0.0],[-16.47070125643416,15.986459739587279,0.0],[-16.469778754706237,15.982849238692186,0.0],[-16.469956725238653,15.981831728851018,0.0],[-16.47047698095869,15.981140679907432,0.0],[-16.471802780149126,15.980743029058328,0.0],[-16.47437962017535,15.982399273285335,0.0],[-16.475151431966474,15.982304308040186,0.0],[-16.475918639619465,15.981581662401938,0.0],[-16.477183947044967,15.981363739490506,0.0],[-16.478237352144255,15.981745083662343,0.0],[-16.479142858125016,15.98302416593607,0.0],[-16.4802293725119,15.983704180237764,0.0],[-16.482202717401314,15.983122662424325,0.0],[-16.483105678142508,15.982375144599912,0.0],[-16.483478048185376,15.982587790387683,0.0],[-16.484980770531337,15.985231723418742,0.0],[-16.485802332399498,15.986015165263138,0.0],[-16.48713240398045,15.98536032961599,0.0],[-16.489786146560576,15.983189826172808,0.0],[-16.491621457492613,15.980666282583456,0.0],[-16.49366747898144,15.976563033148192,0.0],[-16.494644712310293,15.97589642899529,0.0],[-16.49413861398012,15.9785983652466,0.0],[-16.493330264253036,15.979171698471196,0.0],[-16.492752804474623,15.980442159247024,0.0],[-16.490866838702182,15.982019062026858,0.0],[-16.48975022146237,15.983642619821827,0.0],[-16.488360462355473,15.984962367883178,0.0],[-16.48779264464714,15.987542876837185,0.0],[-16.48734894907327,15.988594046847393,0.0],[-16.4861790589454,15.989126187414005,0.0],[-16.484550300193252,15.988657060942579,0.0],[-16.48379057023687,15.989710407164518,0.0],[-16.48366351008704,15.990846727366549,0.0],[-16.48255290527291,15.99329996051298,0.0],[-16.482707018184367,15.995831809348537,0.0],[-16.483272293390666,15.999015882434545,0.0],[-16.48452351682582,16.003374325295976,0.0],[-16.484689290081523,16.007478236741257,0.0],[-16.484366819815687,16.01272096272181,0.0],[-16.484150750215516,16.01403258040268,0.0],[-16.48271979987295,16.01592031301896,0.0],[-16.48260208172515,16.018323020697693,0.0],[-16.48181997836761,16.022477148780784,0.0],[-16.4809749717844,16.024229814860295,0.0],[-16.47890405611912,16.025073844743144,0.0],[-16.478281242540845,16.02634459148389,0.0],[-16.476571842006365,16.027229780691936,0.0],[-16.476110669167237,16.025922827821606,0.0]],[[-16.47620848294744,16.017737752480407,0.0],[-16.477917808236647,16.016852572065982,0.0],[-16.477635332486354,16.015282364396846,0.0],[-16.475820311528878,16.014072063662116,0.0],[-16.475448840437032,16.01267714666641,0.0],[-16.47548022734847,16.010034838333276,0.0],[-16.476212769153083,16.00603391149815,0.0],[-16.477455745014417,16.003143082544447,0.0],[-16.477619643088385,16.000871065724994,0.0],[-16.478749154228094,15.99483670349483,0.0],[-16.47925621914386,15.990116750254682,0.0],[-16.47907114300026,15.989506630057639,0.0],[-16.47870741454016,15.989159764332133,0.0],[-16.47843911234846,15.98951097747585,0.0],[-16.478183004478556,15.99152160395425,0.0],[-16.477740533466672,15.992747433850175,0.0],[-16.476671784652392,15.99476364483033,0.0],[-16.475226462809662,15.994686228467398,0.0],[-16.474682145374732,15.994340595763955,0.0],[-16.473779860995453,15.994434126885645,0.0],[-16.473579437102547,15.991727895807479,0.0],[-16.47410198249852,15.989104049679788,0.0],[-16.473906684712446,15.987096519595193,0.0],[-16.473446923462063,15.985964222668171,0.0],[-16.47299420101149,15.985792640078582,0.0],[-16.472370489233903,15.986932360349464,0.0],[-16.47168970991378,15.99261426384333,0.0],[-16.471364330872973,15.997507652739483,0.0],[-16.47229093753724,16.000732964007607,0.0],[-16.47367034313656,16.004129846240527,0.0],[-16.473706856046583,16.009108089787752,0.0],[-16.472999833287574,16.011209148510677,0.0],[-16.47210003279462,16.011652029357073,0.0],[-16.46948004423373,16.011495291775457,0.0],[-16.467679142001824,16.012206346395157,0.0],[-16.46769254507954,16.014040439976167,0.0],[-16.468065243860853,16.015610050035427,0.0],[-16.470601381006066,16.016640795573565,0.0],[-16.471604311296282,16.0179440520986,0.0],[-16.472162141010827,16.020123775805402,0.0],[-16.47252848268927,16.020819998047674,0.0],[-16.473338017184165,16.02037773237328,0.0],[-16.47405147243947,16.019150046796156,0.0],[-16.47620848294744,16.017737752480407,0.0]]]]}},{"type":"Feature","properties":{"Categorie":"Risque moyen","Code":"IC3 (0,5-1,0m.)"},"geometry":{"type":"Polygon","coordinates":[[[-16.4997285300091,15.997987732082802,0.0],[-16.499724203231445,15.997407716156944,0.0],[-16.500263042286527,15.996560251512964,0.0],[-16.50039909755111,15.994800262262663,0.0],[-16.500971977092014,15.992918426781776,0.0],[-16.50086962864825,15.991303329412553,0.0],[-16.500545794819484,15.990257495644906,0.0],[-16.501137417981084,15.989540861519401,0.0],[-16.502132009647674,15.991326783597769,0.0],[-16.502254818359905,15.99317152572682,0.0],[-16.502107036634083,15.995281815868315,0.0],[-16.50042581973439,15.998381063841364,0.0],[-16.4997285300091,15.997987732082802,0.0]]]}},{"type":"Feature","properties":{"Categorie":"Risque moyen","Code":"IC3 (0,5-1,0m.)"},"geometry":{"type":"Polygon","coordinates":[[[-16.498184085971648,16.008373423028324,0.0],[-16.497933454431095,16.007663296700557,0.0],[-16.498482214945533,16.00083074423957,0.0],[-16.498965766805227,15.999878204617255,0.0],[-16.500041778018183,16.001610832739196,0.0],[-16.5003302929164,16.003744440997643,0.0],[-16.50012049820747,16.004853266173154,0.0],[-16.50010229423731,16.006066216027488,0.0],[-16.499700509881045,16.007018187495884,0.0],[-16.498184085971648,16.008373423028324,0.0]]]}}]}