{"type":"FeatureCollection","name":"transport-route-construction.geojson","features":[{"type":"Feature","properties":{"full_id":"w396504174","Type de vo":"en construction","En constru":"résidentielle"},"geometry":{"type":"LineString","coordinates":[[-16.4449864,16.028631],[-16.443263401080962,16.028354574957426]]}},{"type":"Feature","properties":{"full_id":"w396504181","Type de vo":"en construction","En constru":"résidentielle"},"geometry":{"type":"LineString","coordinates":[[-16.4451581,16.0267234],[-16.44366469000558,16.02658155097304]]}},{"type":"Feature","properties":{"full_id":"w396504183","Type de vo":"en construction","En constru":"résidentielle"},"geometry":{"type":"LineString","coordinates":[[-16.444568,16.0309151],[-16.4429659,16.0305681],[-16.442792322131815,16.030501193437868]]}}]}