{"type":"FeatureCollection","name":"transport-chemin-fer.geojson","features":[{"type":"Feature","properties":{"full_id":"w25779078","osm_id":"25779078","osm_type":"way","railway":"disused","ref":null,"name":null,"lit":null,"surface":null,"oneway":null,"highway":null,"layer":"1","bridge":"yes","usage":"main","gauge":"1000","electrifie":"no"},"geometry":{"type":"LineString","coordinates":[[-16.4829181,15.9835484],[-16.4825727555442,15.982816325620409]]}},{"type":"Feature","properties":{"full_id":"w181438607","osm_id":"181438607","osm_type":"way","railway":"abandoned","ref":null,"name":null,"lit":null,"surface":"unpaved","oneway":"no","highway":"residential","layer":null,"bridge":null,"usage":null,"gauge":"1000","electrifie":null},"geometry":{"type":"LineString","coordinates":[[-16.4872267,15.998493],[-16.4874768,15.9997767]]}},{"type":"Feature","properties":{"full_id":"w181447251","osm_id":"181447251","osm_type":"way","railway":"abandoned","ref":"DG-02","name":"Rue DG-02","lit":"yes","surface":"asphalt","oneway":"no","highway":"residential","layer":null,"bridge":null,"usage":null,"gauge":"1000","electrifie":null},"geometry":{"type":"LineString","coordinates":[[-16.4913145,16.0189195],[-16.4919669,16.0210874],[-16.4926649,16.021822],[-16.4934155,16.0222412]]}},{"type":"Feature","properties":{"full_id":"w357121152","osm_id":"357121152","osm_type":"way","railway":"abandoned","ref":null,"name":null,"lit":null,"surface":null,"oneway":null,"highway":null,"layer":null,"bridge":null,"usage":null,"gauge":"1000","electrifie":null},"geometry":{"type":"LineString","coordinates":[[-16.4981935,16.0247139],[-16.4959711,16.0236197]]}},{"type":"Feature","properties":{"full_id":"w362517497","osm_id":"362517497","osm_type":"way","railway":"abandoned","ref":null,"name":null,"lit":null,"surface":null,"oneway":null,"highway":null,"layer":null,"bridge":null,"usage":null,"gauge":"1000","electrifie":null},"geometry":{"type":"LineString","coordinates":[[-16.4954111,16.0233758],[-16.4933884,16.0222776]]}},{"type":"Feature","properties":{"full_id":"w396678514","osm_id":"396678514","osm_type":"way","railway":"abandoned","ref":null,"name":null,"lit":"yes","surface":"asphalt","oneway":"no","highway":"residential","layer":null,"bridge":null,"usage":null,"gauge":"1000","electrifie":null},"geometry":{"type":"LineString","coordinates":[[-16.4911428,16.0183222],[-16.4913145,16.0189195]]}},{"type":"Feature","properties":{"full_id":"w396690300","osm_id":"396690300","osm_type":"way","railway":"abandoned","ref":null,"name":null,"lit":null,"surface":null,"oneway":null,"highway":null,"layer":null,"bridge":null,"usage":null,"gauge":"1000","electrifie":null},"geometry":{"type":"LineString","coordinates":[[-16.4908993,16.0168694],[-16.491227,16.0185061]]}},{"type":"Feature","properties":{"full_id":"w396690387","osm_id":"396690387","osm_type":"way","railway":"abandoned","ref":"LEC-68","name":"Rue LEC-68","lit":null,"surface":"unpaved","oneway":"no","highway":"residential","layer":null,"bridge":null,"usage":null,"gauge":"1000","electrifie":null},"geometry":{"type":"LineString","coordinates":[[-16.4919072,16.016971],[-16.4911975,16.0169358],[-16.490722,16.0165782]]}},{"type":"Feature","properties":{"full_id":"w396693276","osm_id":"396693276","osm_type":"way","railway":"abandoned","ref":"LEC-89","name":"Rue LEC-89","lit":null,"surface":"unpaved","oneway":"no","highway":"residential","layer":null,"bridge":null,"usage":null,"gauge":"1000","electrifie":null},"geometry":{"type":"LineString","coordinates":[[-16.4876654,16.000983],[-16.4893193,16.0113143],[-16.4901178,16.0152683],[-16.4905246,16.0162896]]}},{"type":"Feature","properties":{"full_id":"w568883851","osm_id":"568883851","osm_type":"way","railway":"abandoned","ref":null,"name":null,"lit":null,"surface":null,"oneway":null,"highway":null,"layer":null,"bridge":null,"usage":null,"gauge":"1000","electrifie":null},"geometry":{"type":"LineString","coordinates":[[-16.4959711,16.0236197],[-16.4954111,16.0233758]]}},{"type":"Feature","properties":{"full_id":"w627258286","osm_id":"627258286","osm_type":"way","railway":"disused","ref":null,"name":null,"lit":null,"surface":null,"oneway":null,"highway":null,"layer":null,"bridge":null,"usage":"main","gauge":"1000","electrifie":"no"},"geometry":{"type":"LineString","coordinates":[[-16.4855205,15.9890777],[-16.4829181,15.9835484]]}},{"type":"Feature","properties":{"full_id":"w1349708548","osm_id":"1349708548","osm_type":"way","railway":"abandoned","ref":null,"name":null,"lit":null,"surface":null,"oneway":null,"highway":null,"layer":null,"bridge":null,"usage":null,"gauge":null,"electrifie":null},"geometry":{"type":"LineString","coordinates":[[-16.4860138,15.9906472],[-16.4859634,15.9904482]]}}]}