{"type":"FeatureCollection","name":"transport-route-locale.geojson","features":[{"type":"Feature","properties":{"full_id":"w154999852","Type de vo":"non classée","Vitesse ma":null,"Accès":null,"Référenc":"DG-37","Nom":"Rue DG-37","Type de pi":null,"surface":"Asphalte","Sens uniqu":"no"},"geometry":{"type":"LineString","coordinates":[[-16.4921709,16.0184827],[-16.4923616,16.0201576]]}},{"type":"Feature","properties":{"full_id":"w155780091","Type de vo":"non classée","Vitesse ma":null,"Accès":null,"Référenc":null,"Nom":"Route Abdoulaye Sow","Type de pi":null,"surface":"Revêtu","Sens uniqu":"no"},"geometry":{"type":"LineString","coordinates":[[-16.4941252,16.0095192],[-16.4908352,16.0099575]]}},{"type":"Feature","properties":{"full_id":"w181381324","Type de vo":"non classée","Vitesse ma":null,"Accès":null,"Référenc":"NDT-05","Nom":"Rue NDT-05","Type de pi":null,"surface":"Asphalte","Sens uniqu":"no"},"geometry":{"type":"LineString","coordinates":[[-16.5074056,16.0352945],[-16.5072889,16.0369753]]}},{"type":"Feature","properties":{"full_id":"w181382370","Type de vo":"non classée","Vitesse ma":null,"Accès":null,"Référenc":"LEC-96","Nom":null,"Type de pi":null,"surface":null,"Sens uniqu":null},"geometry":{"type":"LineString","coordinates":[[-16.4933986,16.0096456],[-16.4935171,16.010871]]}},{"type":"Feature","properties":{"full_id":"w181382374","Type de vo":"non classée","Vitesse ma":null,"Accès":null,"Référenc":null,"Nom":null,"Type de pi":null,"surface":null,"Sens uniqu":null},"geometry":{"type":"LineString","coordinates":[[-16.4975838,16.0134827],[-16.4948298,16.0159976]]}},{"type":"Feature","properties":{"full_id":"w181382420","Type de vo":"non classée","Vitesse ma":null,"Accès":null,"Référenc":"DG-06","Nom":"Rue DG-06","Type de pi":null,"surface":"Revêtu","Sens uniqu":"no"},"geometry":{"type":"LineString","coordinates":[[-16.4923616,16.0201576],[-16.4958879,16.0222762]]}},{"type":"Feature","properties":{"full_id":"w181382445","Type de vo":"non classée","Vitesse ma":null,"Accès":null,"Référenc":null,"Nom":"Avenue Ibrahima Fall Mbida","Type de pi":null,"surface":null,"Sens uniqu":null},"geometry":{"type":"LineString","coordinates":[[-16.4961323,16.0224197],[-16.4947392,16.0244448]]}},{"type":"Feature","properties":{"full_id":"w181382453","Type de vo":"non classée","Vitesse ma":null,"Accès":null,"Référenc":"SOR-33","Nom":"Avenue Fama Mademba","Type de pi":null,"surface":"Asphalte","Sens uniqu":"no"},"geometry":{"type":"LineString","coordinates":[[-16.4948782,16.0245169],[-16.49336,16.0280806],[-16.4933533,16.0292955]]}},{"type":"Feature","properties":{"full_id":"w181438604","Type de vo":"non classée","Vitesse ma":null,"Accès":null,"Référenc":null,"Nom":null,"Type de pi":null,"surface":"Asphalte","Sens uniqu":"no"},"geometry":{"type":"LineString","coordinates":[[-16.49669,15.9990091],[-16.495594,15.9989892]]}},{"type":"Feature","properties":{"full_id":"w181450877","Type de vo":"non classée","Vitesse ma":null,"Accès":null,"Référenc":null,"Nom":null,"Type de pi":null,"surface":"Asphalte","Sens uniqu":"no"},"geometry":{"type":"LineString","coordinates":[[-16.492534,15.9934316],[-16.4926915,15.9945866],[-16.4953852,15.9987213]]}},{"type":"Feature","properties":{"full_id":"w206512323","Type de vo":"non classée","Vitesse ma":null,"Accès":null,"Référenc":null,"Nom":"Avenue Dodds","Type de pi":null,"surface":null,"Sens uniqu":null},"geometry":{"type":"LineString","coordinates":[[-16.5083354,16.0265762],[-16.5083656,16.0262979]]}},{"type":"Feature","properties":{"full_id":"w214813668","Type de vo":"non classée","Vitesse ma":null,"Accès":null,"Référenc":null,"Nom":null,"Type de pi":null,"surface":"Revêtu","Sens uniqu":null},"geometry":{"type":"LineString","coordinates":[[-16.4935477,15.9958733],[-16.4933197,15.9960649],[-16.4927856,15.9974455],[-16.4920272,15.9987557],[-16.4930506,16.0015641],[-16.493064,16.0022126],[-16.4921938,16.0053768],[-16.4911087,16.0061061]]}},{"type":"Feature","properties":{"full_id":"w214813709","Type de vo":"non classée","Vitesse ma":null,"Accès":null,"Référenc":null,"Nom":null,"Type de pi":null,"surface":"Non revêtu","Sens uniqu":"no"},"geometry":{"type":"LineString","coordinates":[[-16.492534,15.9934316],[-16.4930333,15.9913067],[-16.4931373,15.9899286],[-16.4928227,15.9871912],[-16.493056,15.9852539],[-16.4928689,15.9845901],[-16.492221,15.9839116],[-16.4914673,15.9836626],[-16.4907535,15.9836778],[-16.4893013,15.9843922],[-16.4879046,15.9857277]]}},{"type":"Feature","properties":{"full_id":"w214815707","Type de vo":"non classée","Vitesse ma":null,"Accès":null,"Référenc":null,"Nom":null,"Type de pi":null,"surface":"Revêtu","Sens uniqu":"no"},"geometry":{"type":"LineString","coordinates":[[-16.49669,15.9990091],[-16.4960507,16.0035405],[-16.4951415,16.0049947],[-16.4940079,16.0093866]]}},{"type":"Feature","properties":{"full_id":"w214835446","Type de vo":"non classée","Vitesse ma":null,"Accès":null,"Référenc":null,"Nom":"Tableau Walo","Type de pi":null,"surface":"Revêtu","Sens uniqu":"no"},"geometry":{"type":"LineString","coordinates":[[-16.4948272,15.9978357],[-16.4920858,15.9991501],[-16.4902144,15.9990437],[-16.4877943,15.9998843]]}},{"type":"Feature","properties":{"full_id":"w262039819","Type de vo":"non classée","Vitesse ma":null,"Accès":null,"Référenc":null,"Nom":null,"Type de pi":null,"surface":"Terre","Sens uniqu":null},"geometry":{"type":"LineString","coordinates":[[-16.4493487,16.043149],[-16.4497946,16.044039],[-16.4497804,16.0443832],[-16.4491815,16.0451436],[-16.4487353,16.0463161],[-16.4483812,16.0478215],[-16.448243,16.0497885],[-16.4470495,16.0512509]]}},{"type":"Feature","properties":{"full_id":"w262069100","Type de vo":"non classée","Vitesse ma":null,"Accès":null,"Référenc":null,"Nom":null,"Type de pi":null,"surface":"Terre","Sens uniqu":null},"geometry":{"type":"LineString","coordinates":[[-16.4420261,16.0412074],[-16.4429498,16.042349],[-16.4430432,16.0431885]]}},{"type":"Feature","properties":{"full_id":"w262074657","Type de vo":"non classée","Vitesse ma":null,"Accès":null,"Référenc":null,"Nom":null,"Type de pi":null,"surface":"Terre","Sens uniqu":null},"geometry":{"type":"LineString","coordinates":[[-16.4430432,16.0431885],[-16.4432492,16.0445511],[-16.4435358,16.0452541]]}},{"type":"Feature","properties":{"full_id":"w263203363","Type de vo":"non classée","Vitesse ma":null,"Accès":null,"Référenc":"KU-03","Nom":null,"Type de pi":null,"surface":null,"Sens uniqu":null},"geometry":{"type":"LineString","coordinates":[[-16.476328,16.025789],[-16.4761359,16.0248083]]}},{"type":"Feature","properties":{"full_id":"w264434535","Type de vo":"non classée","Vitesse ma":null,"Accès":null,"Référenc":null,"Nom":null,"Type de pi":null,"surface":"Terre","Sens uniqu":null},"geometry":{"type":"LineString","coordinates":[[-16.4432855,16.0484164],[-16.4433488,16.046529],[-16.4432247,16.0462979],[-16.4435336,16.0452732]]}},{"type":"Feature","properties":{"full_id":"w264457209","Type de vo":"non classée","Vitesse ma":null,"Accès":null,"Référenc":null,"Nom":null,"Type de pi":null,"surface":"Non revêtu","Sens uniqu":null},"geometry":{"type":"LineString","coordinates":[[-16.4487434,16.0412088],[-16.4493487,16.043149]]}},{"type":"Feature","properties":{"full_id":"w264740792","Type de vo":"non classée","Vitesse ma":null,"Accès":null,"Référenc":null,"Nom":null,"Type de pi":null,"surface":"Terre","Sens uniqu":null},"geometry":{"type":"LineString","coordinates":[[-16.4432855,16.0484164],[-16.4432051,16.0503407],[-16.4429393,16.051793]]}},{"type":"Feature","properties":{"full_id":"w264765992","Type de vo":"non classée","Vitesse ma":null,"Accès":null,"Référenc":null,"Nom":null,"Type de pi":null,"surface":"Non revêtu","Sens uniqu":null},"geometry":{"type":"LineString","coordinates":[[-16.4489056,16.0396958],[-16.4490021,16.0401245],[-16.4488954,16.0406022]]}},{"type":"Feature","properties":{"full_id":"w265638605","Type de vo":"non classée","Vitesse ma":null,"Accès":null,"Référenc":"KU-12","Nom":"Rue KU-12","Type de pi":null,"surface":"Non revêtu","Sens uniqu":"no"},"geometry":{"type":"LineString","coordinates":[[-16.4761359,16.0248083],[-16.4731261,16.0244258]]}},{"type":"Feature","properties":{"full_id":"w277528230","Type de vo":"non classée","Vitesse ma":null,"Accès":null,"Référenc":null,"Nom":null,"Type de pi":null,"surface":"Terre","Sens uniqu":null},"geometry":{"type":"LineString","coordinates":[[-16.4487178,16.0582455],[-16.4489428,16.0570232],[-16.4488612,16.0551147],[-16.4477321,16.0523981],[-16.4471123,16.0514183]]}},{"type":"Feature","properties":{"full_id":"w339518312","Type de vo":"non classée","Vitesse ma":null,"Accès":null,"Référenc":null,"Nom":null,"Type de pi":null,"surface":"Revêtu","Sens uniqu":"yes"},"geometry":{"type":"LineString","coordinates":[[-16.5077946,16.0308939],[-16.5077556,16.030999],[-16.5078678,16.0310371],[-16.5079043,16.0309281],[-16.5077946,16.0308939]]}},{"type":"Feature","properties":{"full_id":"w339518315","Type de vo":"non classée","Vitesse ma":null,"Accès":null,"Référenc":null,"Nom":"Avenue Dodds","Type de pi":null,"surface":"Asphalte","Sens uniqu":"no"},"geometry":{"type":"LineString","coordinates":[[-16.5078541,16.0308889],[-16.5083354,16.0265762]]}},{"type":"Feature","properties":{"full_id":"w357093359","Type de vo":"non classée","Vitesse ma":null,"Accès":null,"Référenc":"15m","Nom":null,"Type de pi":null,"surface":"Asphalte","Sens uniqu":null},"geometry":{"type":"LineString","coordinates":[[-16.4867582,15.9932283],[-16.492534,15.9934316]]}},{"type":"Feature","properties":{"full_id":"w357118010","Type de vo":"non classée","Vitesse ma":null,"Accès":null,"Référenc":"DG-17","Nom":"Rue DG-17","Type de pi":null,"surface":"Asphalte","Sens uniqu":"no"},"geometry":{"type":"LineString","coordinates":[[-16.4958879,16.0222762],[-16.497047,16.0200505]]}},{"type":"Feature","properties":{"full_id":"w357188395","Type de vo":"non classée","Vitesse ma":null,"Accès":null,"Référenc":null,"Nom":"Avenue Dodds","Type de pi":null,"surface":"Asphalte","Sens uniqu":"no"},"geometry":{"type":"LineString","coordinates":[[-16.5074056,16.0352945],[-16.5078359,16.0310452]]}},{"type":"Feature","properties":{"full_id":"w357367742","Type de vo":"non classée","Vitesse ma":null,"Accès":null,"Référenc":null,"Nom":null,"Type de pi":null,"surface":"Non revêtu","Sens uniqu":null},"geometry":{"type":"LineString","coordinates":[[-16.4450371,16.0544403],[-16.4454551,16.055007],[-16.4466674,16.0560407],[-16.4474753,16.0570836],[-16.4511602,16.060498]]}},{"type":"Feature","properties":{"full_id":"w357805930","Type de vo":"non classée","Vitesse ma":null,"Accès":null,"Référenc":null,"Nom":null,"Type de pi":null,"surface":"Non revêtu","Sens uniqu":"no"},"geometry":{"type":"LineString","coordinates":[[-16.4910817,16.0298339],[-16.4911059,16.0299176]]}},{"type":"Feature","properties":{"full_id":"w357805931","Type de vo":"non classée","Vitesse ma":null,"Accès":null,"Référenc":"SOR-40","Nom":null,"Type de pi":null,"surface":"Asphalte","Sens uniqu":"no"},"geometry":{"type":"LineString","coordinates":[[-16.4910817,16.0298339],[-16.4933533,16.0292955]]}},{"type":"Feature","properties":{"full_id":"w357805932","Type de vo":"non classée","Vitesse ma":null,"Accès":null,"Référenc":null,"Nom":null,"Type de pi":null,"surface":"Asphalte","Sens uniqu":"no"},"geometry":{"type":"LineString","coordinates":[[-16.48932,16.0297904],[-16.4909644,16.0294144]]}},{"type":"Feature","properties":{"full_id":"w357805935","Type de vo":"non classée","Vitesse ma":null,"Accès":null,"Référenc":null,"Nom":null,"Type de pi":null,"surface":"Asphalte","Sens uniqu":"no"},"geometry":{"type":"LineString","coordinates":[[-16.4909644,16.0294144],[-16.4910817,16.0298339]]}},{"type":"Feature","properties":{"full_id":"w357808260","Type de vo":"non classée","Vitesse ma":null,"Accès":null,"Référenc":null,"Nom":null,"Type de pi":null,"surface":"Asphalte","Sens uniqu":"no"},"geometry":{"type":"LineString","coordinates":[[-16.4889111,16.0297604],[-16.48932,16.0297904]]}},{"type":"Feature","properties":{"full_id":"w357811234","Type de vo":"non classée","Vitesse ma":null,"Accès":null,"Référenc":null,"Nom":null,"Type de pi":"grade2","surface":null,"Sens uniqu":null},"geometry":{"type":"LineString","coordinates":[[-16.4744923,16.0289328],[-16.4740596,16.028963],[-16.4722944,16.0277373],[-16.4712412,16.0275452]]}},{"type":"Feature","properties":{"full_id":"w357811236","Type de vo":"non classée","Vitesse ma":null,"Accès":null,"Référenc":null,"Nom":null,"Type de pi":"grade3","surface":null,"Sens uniqu":null},"geometry":{"type":"LineString","coordinates":[[-16.476328,16.025789],[-16.4764804,16.0267157],[-16.4767403,16.0269689]]}},{"type":"Feature","properties":{"full_id":"w357995502","Type de vo":"non classée","Vitesse ma":null,"Accès":null,"Référenc":null,"Nom":null,"Type de pi":null,"surface":"Non revêtu","Sens uniqu":"no"},"geometry":{"type":"LineString","coordinates":[[-16.4878312,15.9857566],[-16.488963,15.9854413],[-16.4913673,15.9856349]]}},{"type":"Feature","properties":{"full_id":"w358048436","Type de vo":"non classée","Vitesse ma":null,"Accès":"oui","Référenc":null,"Nom":null,"Type de pi":null,"surface":null,"Sens uniqu":null},"geometry":{"type":"LineString","coordinates":[[-16.4945766,16.0100329],[-16.4935171,16.010871]]}},{"type":"Feature","properties":{"full_id":"w358376323","Type de vo":"non classée","Vitesse ma":null,"Accès":null,"Référenc":null,"Nom":null,"Type de pi":null,"surface":"Non revêtu","Sens uniqu":null},"geometry":{"type":"LineString","coordinates":[[-16.447770329240498,16.063562210200974],[-16.4494238,16.0626327],[-16.4499555,16.0614035],[-16.4500796,16.0603012],[-16.4504351,16.0599549]]}},{"type":"Feature","properties":{"full_id":"w396504176","Type de vo":"non classée","Vitesse ma":null,"Accès":null,"Référenc":null,"Nom":null,"Type de pi":"grade3","surface":"Non revêtu","Sens uniqu":null},"geometry":{"type":"LineString","coordinates":[[-16.4474608,16.0186479],[-16.4484333,16.0192504],[-16.4522088,16.0206792],[-16.4528525,16.0207204],[-16.454126,16.0212954],[-16.4570832,16.0222428],[-16.4576159,16.0226798],[-16.4601318,16.0236955]]}},{"type":"Feature","properties":{"full_id":"w396504178","Type de vo":"non classée","Vitesse ma":null,"Accès":null,"Référenc":null,"Nom":null,"Type de pi":"grade5","surface":"Non revêtu","Sens uniqu":null},"geometry":{"type":"LineString","coordinates":[[-16.4601318,16.0236955],[-16.4695715,16.0259809],[-16.4707141,16.0257489],[-16.4717564,16.0251185]]}},{"type":"Feature","properties":{"full_id":"w396529483","Type de vo":"non classée","Vitesse ma":null,"Accès":null,"Référenc":null,"Nom":null,"Type de pi":"grade5","surface":"Non revêtu","Sens uniqu":null},"geometry":{"type":"LineString","coordinates":[[-16.4592712,16.0233639],[-16.4590272,16.0247265],[-16.4590862,16.0258608],[-16.4602288,16.0287429]]}},{"type":"Feature","properties":{"full_id":"w396529485","Type de vo":"non classée","Vitesse ma":null,"Accès":null,"Référenc":null,"Nom":null,"Type de pi":"grade5","surface":"Non revêtu","Sens uniqu":null},"geometry":{"type":"LineString","coordinates":[[-16.4636593,16.0304723],[-16.4653865,16.0293863],[-16.4693481,16.0275469]]}},{"type":"Feature","properties":{"full_id":"w396529488","Type de vo":"non classée","Vitesse ma":null,"Accès":null,"Référenc":null,"Nom":null,"Type de pi":"grade5","surface":"Non revêtu","Sens uniqu":null},"geometry":{"type":"LineString","coordinates":[[-16.4613111,16.0362925],[-16.4616164,16.0362615],[-16.4619887,16.0358266],[-16.4620069,16.0335586],[-16.4602288,16.0287429]]}},{"type":"Feature","properties":{"full_id":"w396551835","Type de vo":"non classée","Vitesse ma":null,"Accès":null,"Référenc":null,"Nom":null,"Type de pi":null,"surface":"Non revêtu","Sens uniqu":"no"},"geometry":{"type":"LineString","coordinates":[[-16.4911059,16.0299176],[-16.4916184,16.0318177]]}},{"type":"Feature","properties":{"full_id":"w396719539","Type de vo":"non classée","Vitesse ma":null,"Accès":null,"Référenc":"LEC-96","Nom":null,"Type de pi":null,"surface":null,"Sens uniqu":null},"geometry":{"type":"LineString","coordinates":[[-16.4936059,16.0109525],[-16.4912807,16.0128842]]}},{"type":"Feature","properties":{"full_id":"w396719541","Type de vo":"non classée","Vitesse ma":null,"Accès":null,"Référenc":"LEC-96","Nom":null,"Type de pi":null,"surface":null,"Sens uniqu":null},"geometry":{"type":"LineString","coordinates":[[-16.4935171,16.010871],[-16.4936059,16.0109525]]}},{"type":"Feature","properties":{"full_id":"w396831760","Type de vo":"non classée","Vitesse ma":null,"Accès":null,"Référenc":"GMB-01","Nom":"Avenue Dodds","Type de pi":null,"surface":"Asphalte","Sens uniqu":"no"},"geometry":{"type":"LineString","coordinates":[[-16.5068302,16.0389769],[-16.5056137,16.0406787],[-16.505327,16.0424608],[-16.5055396,16.0454587],[-16.5061627,16.0486154]]}},{"type":"Feature","properties":{"full_id":"w396976852","Type de vo":"non classée","Vitesse ma":null,"Accès":null,"Référenc":"NDT-05","Nom":"Rue NDT-05","Type de pi":null,"surface":"Asphalte","Sens uniqu":"no"},"geometry":{"type":"LineString","coordinates":[[-16.5072889,16.0369753],[-16.5068302,16.0389769]]}},{"type":"Feature","properties":{"full_id":"w397221838","Type de vo":"non classée","Vitesse ma":null,"Accès":null,"Référenc":null,"Nom":null,"Type de pi":"grade3","surface":"Sable","Sens uniqu":null},"geometry":{"type":"LineString","coordinates":[[-16.5061627,16.0486154],[-16.5064162,16.0488783],[-16.5067243,16.0526974],[-16.5060706,16.0552854],[-16.5059095,16.0572838],[-16.5061213,16.0635162],[-16.5059825,16.0652091],[-16.5062822,16.0665628],[-16.50632860464693,16.067070997971904]]}},{"type":"Feature","properties":{"full_id":"w398484096","Type de vo":"non classée","Vitesse ma":null,"Accès":"yes","Référenc":null,"Nom":null,"Type de pi":null,"surface":"Non revêtu","Sens uniqu":"no"},"geometry":{"type":"LineString","coordinates":[[-16.4924159,15.9934262],[-16.492223,15.9902742],[-16.4913773,15.9872206],[-16.4911806,15.9836365]]}},{"type":"Feature","properties":{"full_id":"w398597743","Type de vo":"non classée","Vitesse ma":null,"Accès":null,"Référenc":null,"Nom":null,"Type de pi":null,"surface":"Non revêtu","Sens uniqu":"no"},"geometry":{"type":"LineString","coordinates":[[-16.44607681854358,16.01818892757098],[-16.4469964,16.0185001]]}},{"type":"Feature","properties":{"full_id":"w404477261","Type de vo":"non classée","Vitesse ma":null,"Accès":null,"Référenc":null,"Nom":null,"Type de pi":null,"surface":null,"Sens uniqu":null},"geometry":{"type":"LineString","coordinates":[[-16.4470495,16.0512509],[-16.4471123,16.0514183]]}},{"type":"Feature","properties":{"full_id":"w404477939","Type de vo":"non classée","Vitesse ma":null,"Accès":null,"Référenc":null,"Nom":null,"Type de pi":null,"surface":"Terre","Sens uniqu":null},"geometry":{"type":"LineString","coordinates":[[-16.4450371,16.0544403],[-16.4436369,16.0528518],[-16.4429393,16.051793]]}},{"type":"Feature","properties":{"full_id":"w582048992","Type de vo":"non classée","Vitesse ma":null,"Accès":null,"Référenc":null,"Nom":null,"Type de pi":null,"surface":null,"Sens uniqu":null},"geometry":{"type":"LineString","coordinates":[[-16.4953852,15.9987213],[-16.4955009,15.9988647]]}},{"type":"Feature","properties":{"full_id":"w639996620","Type de vo":"non classée","Vitesse ma":null,"Accès":null,"Référenc":null,"Nom":null,"Type de pi":null,"surface":"Terre","Sens uniqu":null},"geometry":{"type":"LineString","coordinates":[[-16.4626645,16.0310979],[-16.4614289,16.0319977]]}},{"type":"Feature","properties":{"full_id":"w639996621","Type de vo":"non classée","Vitesse ma":null,"Accès":null,"Référenc":null,"Nom":null,"Type de pi":null,"surface":"Non revêtu","Sens uniqu":null},"geometry":{"type":"LineString","coordinates":[[-16.4613111,16.0362925],[-16.4614397,16.0378799]]}},{"type":"Feature","properties":{"full_id":"w639996622","Type de vo":"non classée","Vitesse ma":null,"Accès":null,"Référenc":null,"Nom":null,"Type de pi":null,"surface":"Non revêtu","Sens uniqu":"no"},"geometry":{"type":"LineString","coordinates":[[-16.4469964,16.0185001],[-16.4474608,16.0186479]]}},{"type":"Feature","properties":{"full_id":"w639996623","Type de vo":"non classée","Vitesse ma":null,"Accès":null,"Référenc":"KU-12","Nom":"Rue KU-12","Type de pi":null,"surface":"Non revêtu","Sens uniqu":"no"},"geometry":{"type":"LineString","coordinates":[[-16.4731261,16.0244258],[-16.4726492,16.0243916]]}},{"type":"Feature","properties":{"full_id":"w644249294","Type de vo":"non classée","Vitesse ma":null,"Accès":null,"Référenc":null,"Nom":null,"Type de pi":null,"surface":"Asphalte","Sens uniqu":"no"},"geometry":{"type":"LineString","coordinates":[[-16.4955009,15.9988647],[-16.495594,15.9989892]]}},{"type":"Feature","properties":{"full_id":"w644711941","Type de vo":"non classée","Vitesse ma":null,"Accès":null,"Référenc":"DG-06","Nom":"Rue DG-06","Type de pi":null,"surface":"Revêtu","Sens uniqu":"no"},"geometry":{"type":"LineString","coordinates":[[-16.4958879,16.0222762],[-16.4961323,16.0224197]]}},{"type":"Feature","properties":{"full_id":"w746687109","Type de vo":"non classée","Vitesse ma":null,"Accès":null,"Référenc":null,"Nom":null,"Type de pi":null,"surface":"Terre","Sens uniqu":null},"geometry":{"type":"LineString","coordinates":[[-16.4505044,16.0492423],[-16.4506998,16.0490773],[-16.4509259,16.0484056],[-16.4501052,16.0458673]]}},{"type":"Feature","properties":{"full_id":"w765587432","Type de vo":"non classée","Vitesse ma":null,"Accès":null,"Référenc":null,"Nom":null,"Type de pi":"grade5","surface":"Non revêtu","Sens uniqu":null},"geometry":{"type":"LineString","coordinates":[[-16.4693481,16.0275469],[-16.4704257,16.0277036],[-16.4712412,16.0275452]]}},{"type":"Feature","properties":{"full_id":"w765587433","Type de vo":"non classée","Vitesse ma":null,"Accès":null,"Référenc":null,"Nom":null,"Type de pi":"grade5","surface":"Non revêtu","Sens uniqu":null},"geometry":{"type":"LineString","coordinates":[[-16.4626645,16.0310979],[-16.4636593,16.0304723]]}},{"type":"Feature","properties":{"full_id":"w765592262","Type de vo":"non classée","Vitesse ma":null,"Accès":null,"Référenc":null,"Nom":null,"Type de pi":"grade5","surface":"Non revêtu","Sens uniqu":null},"geometry":{"type":"LineString","coordinates":[[-16.4717564,16.0251185],[-16.4726492,16.0243916]]}},{"type":"Feature","properties":{"full_id":"w969578152","Type de vo":"non classée","Vitesse ma":null,"Accès":null,"Référenc":null,"Nom":null,"Type de pi":null,"surface":"Sol naturel","Sens uniqu":null},"geometry":{"type":"LineString","coordinates":[[-16.4464774,16.0497305],[-16.441448323027327,16.048674881963077]]}},{"type":"Feature","properties":{"full_id":"w969578153","Type de vo":"non classée","Vitesse ma":null,"Accès":null,"Référenc":null,"Nom":null,"Type de pi":null,"surface":"Sol naturel","Sens uniqu":null},"geometry":{"type":"LineString","coordinates":[[-16.4426194,16.0489062],[-16.442273260949076,16.050440437955444]]}},{"type":"Feature","properties":{"full_id":"w1013616343","Type de vo":"non classée","Vitesse ma":null,"Accès":null,"Référenc":null,"Nom":null,"Type de pi":null,"surface":"Non revêtu","Sens uniqu":null},"geometry":{"type":"LineString","coordinates":[[-16.4488954,16.0406022],[-16.4487434,16.0412088]]}},{"type":"Feature","properties":{"full_id":"w1014220264","Type de vo":"non classée","Vitesse ma":null,"Accès":null,"Référenc":null,"Nom":null,"Type de pi":null,"surface":"Sol naturel","Sens uniqu":null},"geometry":{"type":"LineString","coordinates":[[-16.4470359,16.0498506],[-16.4464774,16.0497305]]}},{"type":"Feature","properties":{"full_id":"w1014222422","Type de vo":"non classée","Vitesse ma":null,"Accès":null,"Référenc":null,"Nom":null,"Type de pi":null,"surface":"Terre","Sens uniqu":null},"geometry":{"type":"LineString","coordinates":[[-16.4500103,16.0628246],[-16.449436,16.0626163]]}},{"type":"Feature","properties":{"full_id":"w1014500195","Type de vo":"non classée","Vitesse ma":null,"Accès":null,"Référenc":null,"Nom":null,"Type de pi":null,"surface":"Terre","Sens uniqu":null},"geometry":{"type":"LineString","coordinates":[[-16.4435358,16.0452541],[-16.4435336,16.0452732]]}},{"type":"Feature","properties":{"full_id":"w1020117640","Type de vo":"non classée","Vitesse ma":null,"Accès":null,"Référenc":null,"Nom":null,"Type de pi":null,"surface":"Terre","Sens uniqu":null},"geometry":{"type":"LineString","coordinates":[[-16.468797,16.027855],[-16.4670528,16.0303733],[-16.465446,16.0320265],[-16.4634711,16.0336252],[-16.463342,16.0341348],[-16.4629332,16.0345776],[-16.4619747,16.0352098]]}},{"type":"Feature","properties":{"full_id":"w1020155415","Type de vo":"non classée","Vitesse ma":null,"Accès":null,"Référenc":null,"Nom":null,"Type de pi":null,"surface":"Terre","Sens uniqu":null},"geometry":{"type":"LineString","coordinates":[[-16.4490639,16.0354527],[-16.4489873,16.0347726],[-16.4493696,16.0313778],[-16.4498997,16.0286908],[-16.4500475,16.0258788],[-16.4504297,16.0228445],[-16.4508726,16.0201239],[-16.4517038,16.0174426],[-16.4524825,16.015347],[-16.452560481136512,16.01526133960201]]}},{"type":"Feature","properties":{"full_id":"w1020155427","Type de vo":"non classée","Vitesse ma":null,"Accès":null,"Référenc":null,"Nom":null,"Type de pi":null,"surface":"Terre","Sens uniqu":null},"geometry":{"type":"LineString","coordinates":[[-16.4573593,16.0307058],[-16.4541854,16.0299584],[-16.4513413,16.0281944],[-16.4505474,16.0286567],[-16.4503656,16.0291609]]}},{"type":"Feature","properties":{"full_id":"w1032067540","Type de vo":"non classée","Vitesse ma":null,"Accès":null,"Référenc":null,"Nom":"rue diawling","Type de pi":null,"surface":"paving_stones","Sens uniqu":"yes"},"geometry":{"type":"LineString","coordinates":[[-16.4923859,16.0288918],[-16.4919771,16.0289867]]}},{"type":"Feature","properties":{"full_id":"w1032069031","Type de vo":"non classée","Vitesse ma":null,"Accès":null,"Référenc":null,"Nom":"route","Type de pi":null,"surface":null,"Sens uniqu":"yes"},"geometry":{"type":"LineString","coordinates":[[-16.496683,16.0262552],[-16.4963552,16.0261418]]}},{"type":"Feature","properties":{"full_id":"w1032076956","Type de vo":"non classée","Vitesse ma":"30","Accès":null,"Référenc":null,"Nom":"Rue Sokhna","Type de pi":null,"surface":"concrete","Sens uniqu":"yes"},"geometry":{"type":"LineString","coordinates":[[-16.4886914,16.0071142],[-16.4884634,16.0071531]]}}]}