{"type":"FeatureCollection","name":"transport-piste.geojson","features":[{"type":"Feature","properties":{"full_id":"w215477801","Type de vo":"piste rurale","Ruines":null,"Niveau":null,"Pont":null,"Abandonné":null,"État de s":null,"Moto autor":null,"motorcar":null,"Véhicule ":null,"Accès":null,"Praticabil":null,"surface":null,"Sens uniqu":null,"Type de pi":"grade3"},"geometry":{"type":"LineString","coordinates":[[-16.4967984,15.9868155],[-16.4965276,15.9874028],[-16.4962319,15.9873516]]}},{"type":"Feature","properties":{"full_id":"w215477808","Type de vo":"piste rurale","Ruines":null,"Niveau":null,"Pont":null,"Abandonné":null,"État de s":null,"Moto autor":null,"motorcar":null,"Véhicule ":null,"Accès":null,"Praticabil":null,"surface":null,"Sens uniqu":null,"Type de pi":"grade3"},"geometry":{"type":"LineString","coordinates":[[-16.4978837,15.986724],[-16.4970662,15.9867174]]}},{"type":"Feature","properties":{"full_id":"w215632687","Type de vo":"piste rurale","Ruines":null,"Niveau":null,"Pont":null,"Abandonné":null,"État de s":null,"Moto autor":null,"motorcar":null,"Véhicule ":null,"Accès":null,"Praticabil":null,"surface":null,"Sens uniqu":null,"Type de pi":"grade4"},"geometry":{"type":"LineString","coordinates":[[-16.4930122,15.9804844],[-16.492495,15.9819692],[-16.4927567,15.9826865],[-16.4926838,15.9830596]]}},{"type":"Feature","properties":{"full_id":"w264740529","Type de vo":"piste rurale","Ruines":null,"Niveau":null,"Pont":null,"Abandonné":null,"État de s":null,"Moto autor":null,"motorcar":null,"Véhicule ":null,"Accès":null,"Praticabil":null,"surface":null,"Sens uniqu":null,"Type de pi":null},"geometry":{"type":"LineString","coordinates":[[-16.4471123,16.0514183],[-16.4460652,16.05084],[-16.4447686,16.0508654],[-16.4440888,16.0505335],[-16.4432855,16.0484164]]}},{"type":"Feature","properties":{"full_id":"w357366768","Type de vo":"piste rurale","Ruines":null,"Niveau":null,"Pont":null,"Abandonné":null,"État de s":null,"Moto autor":null,"motorcar":null,"Véhicule ":null,"Accès":null,"Praticabil":null,"surface":null,"Sens uniqu":null,"Type de pi":"grade3"},"geometry":{"type":"LineString","coordinates":[[-16.4535905,16.0577174],[-16.4531825,16.0574694],[-16.4526318,16.0575183]]}},{"type":"Feature","properties":{"full_id":"w357604025","Type de vo":"piste rurale","Ruines":null,"Niveau":null,"Pont":null,"Abandonné":null,"État de s":null,"Moto autor":null,"motorcar":null,"Véhicule ":null,"Accès":null,"Praticabil":null,"surface":null,"Sens uniqu":null,"Type de pi":"grade4"},"geometry":{"type":"LineString","coordinates":[[-16.4946322,15.9852658],[-16.4963526,15.9851198]]}},{"type":"Feature","properties":{"full_id":"w362509000","Type de vo":"piste rurale","Ruines":null,"Niveau":null,"Pont":null,"Abandonné":null,"État de s":null,"Moto autor":null,"motorcar":null,"Véhicule ":null,"Accès":null,"Praticabil":null,"surface":null,"Sens uniqu":null,"Type de pi":"grade3"},"geometry":{"type":"LineString","coordinates":[[-16.4872741,16.015356],[-16.4879794,16.0152558]]}},{"type":"Feature","properties":{"full_id":"w395969075","Type de vo":"piste rurale","Ruines":"oui","Niveau":"1","Pont":"oui","Abandonné":"oui","État de s":"horrible","Moto autor":null,"motorcar":null,"Véhicule ":null,"Accès":"no","Praticabil":null,"surface":null,"Sens uniqu":null,"Type de pi":"grade2"},"geometry":{"type":"LineString","coordinates":[[-16.5056478,16.0617155],[-16.5049639,16.0616021]]}},{"type":"Feature","properties":{"full_id":"w396504180","Type de vo":"piste rurale","Ruines":null,"Niveau":null,"Pont":null,"Abandonné":null,"État de s":null,"Moto autor":null,"motorcar":null,"Véhicule ":null,"Accès":null,"Praticabil":null,"surface":null,"Sens uniqu":null,"Type de pi":"grade3"},"geometry":{"type":"LineString","coordinates":[[-16.447057092654557,16.017473552497982],[-16.447072,16.0177505],[-16.4473739,16.0178129]]}},{"type":"Feature","properties":{"full_id":"w396672225","Type de vo":"piste rurale","Ruines":null,"Niveau":null,"Pont":null,"Abandonné":null,"État de s":null,"Moto autor":null,"motorcar":null,"Véhicule ":null,"Accès":null,"Praticabil":null,"surface":null,"Sens uniqu":null,"Type de pi":"grade3"},"geometry":{"type":"LineString","coordinates":[[-16.4879794,16.0152558],[-16.4881447,16.0162221]]}},{"type":"Feature","properties":{"full_id":"w396969673","Type de vo":"piste rurale","Ruines":null,"Niveau":null,"Pont":null,"Abandonné":null,"État de s":"mauvais","Moto autor":null,"motorcar":null,"Véhicule ":null,"Accès":null,"Praticabil":null,"surface":"Sable","Sens uniqu":null,"Type de pi":"grade4"},"geometry":{"type":"LineString","coordinates":[[-16.507371,16.0535759],[-16.5067192,16.0525263]]}},{"type":"Feature","properties":{"full_id":"w397083004","Type de vo":"piste rurale","Ruines":null,"Niveau":null,"Pont":null,"Abandonné":null,"État de s":"très  mauvais","Moto autor":null,"motorcar":null,"Véhicule ":null,"Accès":null,"Praticabil":null,"surface":"Sable","Sens uniqu":null,"Type de pi":"grade4"},"geometry":{"type":"LineString","coordinates":[[-16.5078701,16.0611037],[-16.5074785,16.0610315],[-16.507103,16.0606603],[-16.5068723,16.0599902],[-16.5064378,16.0578766],[-16.5063166,16.0544743]]}},{"type":"Feature","properties":{"full_id":"w397269933","Type de vo":"piste rurale","Ruines":null,"Niveau":null,"Pont":null,"Abandonné":null,"État de s":"horrible","Moto autor":null,"motorcar":null,"Véhicule ":null,"Accès":"no","Praticabil":null,"surface":null,"Sens uniqu":null,"Type de pi":"grade2"},"geometry":{"type":"LineString","coordinates":[[-16.5049639,16.0616021],[-16.5044587,16.061485],[-16.5043031,16.0612375]]}},{"type":"Feature","properties":{"full_id":"w398485006","Type de vo":"piste rurale","Ruines":null,"Niveau":null,"Pont":null,"Abandonné":null,"État de s":null,"Moto autor":null,"motorcar":null,"Véhicule ":null,"Accès":null,"Praticabil":null,"surface":null,"Sens uniqu":null,"Type de pi":"grade4"},"geometry":{"type":"LineString","coordinates":[[-16.4919243,15.9832611],[-16.4921709,15.9830637],[-16.4922783,15.9827061],[-16.4930002,15.9823788]]}},{"type":"Feature","properties":{"full_id":"w398485012","Type de vo":"piste rurale","Ruines":null,"Niveau":null,"Pont":null,"Abandonné":null,"État de s":null,"Moto autor":null,"motorcar":null,"Véhicule ":null,"Accès":null,"Praticabil":null,"surface":null,"Sens uniqu":null,"Type de pi":"grade4"},"geometry":{"type":"LineString","coordinates":[[-16.4927065,15.9825307],[-16.4925579,15.9822575]]}},{"type":"Feature","properties":{"full_id":"w398486077","Type de vo":"piste rurale","Ruines":null,"Niveau":null,"Pont":null,"Abandonné":null,"État de s":null,"Moto autor":null,"motorcar":null,"Véhicule ":null,"Accès":null,"Praticabil":null,"surface":null,"Sens uniqu":null,"Type de pi":"grade4"},"geometry":{"type":"LineString","coordinates":[[-16.4922736,15.982251],[-16.4923788,15.9823948]]}},{"type":"Feature","properties":{"full_id":"w398486080","Type de vo":"piste rurale","Ruines":null,"Niveau":null,"Pont":null,"Abandonné":null,"État de s":null,"Moto autor":null,"motorcar":null,"Véhicule ":null,"Accès":null,"Praticabil":null,"surface":null,"Sens uniqu":null,"Type de pi":"grade4"},"geometry":{"type":"LineString","coordinates":[[-16.4923788,15.9823948],[-16.4925579,15.9822575]]}},{"type":"Feature","properties":{"full_id":"w398488871","Type de vo":"piste rurale","Ruines":null,"Niveau":null,"Pont":null,"Abandonné":null,"État de s":null,"Moto autor":null,"motorcar":null,"Véhicule ":null,"Accès":null,"Praticabil":null,"surface":null,"Sens uniqu":null,"Type de pi":"grade3"},"geometry":{"type":"LineString","coordinates":[[-16.4968336,15.9867022],[-16.4966713,15.9868707],[-16.4961343,15.9867885]]}},{"type":"Feature","properties":{"full_id":"w398488872","Type de vo":"piste rurale","Ruines":null,"Niveau":null,"Pont":null,"Abandonné":null,"État de s":null,"Moto autor":null,"motorcar":null,"Véhicule ":null,"Accès":null,"Praticabil":null,"surface":null,"Sens uniqu":null,"Type de pi":"grade3"},"geometry":{"type":"LineString","coordinates":[[-16.4971526,15.9858408],[-16.4970662,15.9867174]]}},{"type":"Feature","properties":{"full_id":"w398508105","Type de vo":"piste rurale","Ruines":null,"Niveau":null,"Pont":null,"Abandonné":null,"État de s":null,"Moto autor":null,"motorcar":null,"Véhicule ":null,"Accès":null,"Praticabil":null,"surface":null,"Sens uniqu":null,"Type de pi":"grade4"},"geometry":{"type":"LineString","coordinates":[[-16.4963526,15.9851198],[-16.4965528,15.9851064]]}},{"type":"Feature","properties":{"full_id":"w398508106","Type de vo":"piste rurale","Ruines":null,"Niveau":null,"Pont":null,"Abandonné":null,"État de s":null,"Moto autor":null,"motorcar":null,"Véhicule ":null,"Accès":null,"Praticabil":null,"surface":null,"Sens uniqu":null,"Type de pi":"grade4"},"geometry":{"type":"LineString","coordinates":[[-16.4965528,15.9851064],[-16.4967093,15.9851036]]}},{"type":"Feature","properties":{"full_id":"w398549265","Type de vo":"piste rurale","Ruines":null,"Niveau":null,"Pont":null,"Abandonné":null,"État de s":null,"Moto autor":null,"motorcar":null,"Véhicule ":null,"Accès":null,"Praticabil":null,"surface":null,"Sens uniqu":null,"Type de pi":"grade3"},"geometry":{"type":"LineString","coordinates":[[-16.4965081,15.9881391],[-16.4961552,15.9881239]]}},{"type":"Feature","properties":{"full_id":"w398598994","Type de vo":"piste rurale","Ruines":null,"Niveau":null,"Pont":null,"Abandonné":null,"État de s":null,"Moto autor":null,"motorcar":null,"Véhicule ":null,"Accès":null,"Praticabil":null,"surface":null,"Sens uniqu":null,"Type de pi":"grade3"},"geometry":{"type":"LineString","coordinates":[[-16.4482355,16.0191327],[-16.446872,16.0189377]]}},{"type":"Feature","properties":{"full_id":"w398599326","Type de vo":"piste rurale","Ruines":null,"Niveau":null,"Pont":null,"Abandonné":null,"État de s":null,"Moto autor":null,"motorcar":null,"Véhicule ":null,"Accès":null,"Praticabil":null,"surface":null,"Sens uniqu":null,"Type de pi":"grade3"},"geometry":{"type":"LineString","coordinates":[[-16.44658884901515,16.017661773740397],[-16.447072,16.0177505]]}},{"type":"Feature","properties":{"full_id":"w398599327","Type de vo":"piste rurale","Ruines":null,"Niveau":null,"Pont":null,"Abandonné":null,"État de s":null,"Moto autor":null,"motorcar":null,"Véhicule ":null,"Accès":null,"Praticabil":null,"surface":null,"Sens uniqu":null,"Type de pi":"grade3"},"geometry":{"type":"LineString","coordinates":[[-16.4466137,16.0183665],[-16.4467561,16.0177199]]}},{"type":"Feature","properties":{"full_id":"w571816811","Type de vo":"piste rurale","Ruines":null,"Niveau":null,"Pont":null,"Abandonné":null,"État de s":null,"Moto autor":null,"motorcar":null,"Véhicule ":null,"Accès":null,"Praticabil":null,"surface":null,"Sens uniqu":null,"Type de pi":null},"geometry":{"type":"LineString","coordinates":[[-16.4925107,15.9825773],[-16.4925579,15.9822575]]}},{"type":"Feature","properties":{"full_id":"w572194619","Type de vo":"piste rurale","Ruines":null,"Niveau":null,"Pont":null,"Abandonné":null,"État de s":null,"Moto autor":null,"motorcar":null,"Véhicule ":null,"Accès":null,"Praticabil":null,"surface":null,"Sens uniqu":null,"Type de pi":null},"geometry":{"type":"LineString","coordinates":[[-16.4927108,15.9823671],[-16.4928184,15.9824177]]}},{"type":"Feature","properties":{"full_id":"w572194620","Type de vo":"piste rurale","Ruines":null,"Niveau":null,"Pont":null,"Abandonné":null,"État de s":null,"Moto autor":null,"motorcar":null,"Véhicule ":null,"Accès":null,"Praticabil":null,"surface":null,"Sens uniqu":null,"Type de pi":null},"geometry":{"type":"LineString","coordinates":[[-16.4928184,15.9824177],[-16.4927436,15.9826387]]}},{"type":"Feature","properties":{"full_id":"w573308352","Type de vo":"piste rurale","Ruines":null,"Niveau":null,"Pont":null,"Abandonné":null,"État de s":null,"Moto autor":null,"motorcar":null,"Véhicule ":null,"Accès":null,"Praticabil":null,"surface":null,"Sens uniqu":null,"Type de pi":null},"geometry":{"type":"LineString","coordinates":[[-16.4965478,15.9868846],[-16.4962222,15.9870573]]}},{"type":"Feature","properties":{"full_id":"w641105499","Type de vo":"piste rurale","Ruines":null,"Niveau":null,"Pont":null,"Abandonné":null,"État de s":null,"Moto autor":null,"motorcar":null,"Véhicule ":null,"Accès":null,"Praticabil":null,"surface":null,"Sens uniqu":null,"Type de pi":"grade3"},"geometry":{"type":"LineString","coordinates":[[-16.4530108,16.0492432],[-16.4537503,16.0493931]]}},{"type":"Feature","properties":{"full_id":"w765944537","Type de vo":"piste rurale","Ruines":null,"Niveau":null,"Pont":null,"Abandonné":null,"État de s":null,"Moto autor":null,"motorcar":null,"Véhicule ":null,"Accès":null,"Praticabil":null,"surface":null,"Sens uniqu":null,"Type de pi":"grade5"},"geometry":{"type":"LineString","coordinates":[[-16.4730715,16.0130827],[-16.472991,16.0142428],[-16.4726155,16.0149699],[-16.4726962,16.0163376]]}},{"type":"Feature","properties":{"full_id":"w883239443","Type de vo":"piste rurale","Ruines":null,"Niveau":null,"Pont":null,"Abandonné":null,"État de s":null,"Moto autor":null,"motorcar":null,"Véhicule ":null,"Accès":null,"Praticabil":null,"surface":null,"Sens uniqu":null,"Type de pi":null},"geometry":{"type":"LineString","coordinates":[[-16.4570132,16.0512379],[-16.4572262,16.0515187]]}},{"type":"Feature","properties":{"full_id":"w1014220244","Type de vo":"piste rurale","Ruines":null,"Niveau":null,"Pont":null,"Abandonné":null,"État de s":null,"Moto autor":null,"motorcar":null,"Véhicule ":null,"Accès":null,"Praticabil":null,"surface":null,"Sens uniqu":null,"Type de pi":null},"geometry":{"type":"LineString","coordinates":[[-16.4497814,16.0440079],[-16.4500122,16.0440955],[-16.4505006,16.0448608]]}},{"type":"Feature","properties":{"full_id":"w1014220259","Type de vo":"piste rurale","Ruines":null,"Niveau":null,"Pont":null,"Abandonné":null,"État de s":null,"Moto autor":null,"motorcar":null,"Véhicule ":null,"Accès":null,"Praticabil":null,"surface":null,"Sens uniqu":null,"Type de pi":null},"geometry":{"type":"LineString","coordinates":[[-16.4477416,16.0443324],[-16.4470441,16.044579],[-16.4470951,16.0448471],[-16.4468483,16.0449734],[-16.447512,16.0455422]]}},{"type":"Feature","properties":{"full_id":"w1014220260","Type de vo":"piste rurale","Ruines":null,"Niveau":null,"Pont":null,"Abandonné":null,"État de s":null,"Moto autor":null,"motorcar":null,"Véhicule ":null,"Accès":null,"Praticabil":null,"surface":null,"Sens uniqu":null,"Type de pi":null},"geometry":{"type":"LineString","coordinates":[[-16.4471288,16.0452121],[-16.4463682,16.0453188],[-16.4467973,16.0456926],[-16.4471921,16.0457897]]}},{"type":"Feature","properties":{"full_id":"w1014220261","Type de vo":"piste rurale","Ruines":null,"Niveau":null,"Pont":null,"Abandonné":null,"État de s":null,"Moto autor":null,"motorcar":null,"Véhicule ":null,"Accès":null,"Praticabil":null,"surface":null,"Sens uniqu":null,"Type de pi":null},"geometry":{"type":"LineString","coordinates":[[-16.4470441,16.044579],[-16.4466835,16.0444864],[-16.4463682,16.0453188]]}},{"type":"Feature","properties":{"full_id":"w1014220263","Type de vo":"piste rurale","Ruines":null,"Niveau":null,"Pont":null,"Abandonné":null,"État de s":null,"Moto autor":null,"motorcar":null,"Véhicule ":null,"Accès":null,"Praticabil":null,"surface":null,"Sens uniqu":null,"Type de pi":null},"geometry":{"type":"LineString","coordinates":[[-16.4469991,16.0462321],[-16.4465273,16.046089],[-16.4465927,16.0455333]]}},{"type":"Feature","properties":{"full_id":"w1014220268","Type de vo":"piste rurale","Ruines":null,"Niveau":null,"Pont":null,"Abandonné":null,"État de s":null,"Moto autor":null,"motorcar":null,"Véhicule ":null,"Accès":null,"Praticabil":null,"surface":null,"Sens uniqu":null,"Type de pi":null},"geometry":{"type":"LineString","coordinates":[[-16.4436434,16.0466103],[-16.443999,16.0454631]]}},{"type":"Feature","properties":{"full_id":"w1014220269","Type de vo":"piste rurale","Ruines":null,"Niveau":null,"Pont":null,"Abandonné":null,"État de s":null,"Moto autor":null,"motorcar":null,"Véhicule ":null,"Accès":null,"Praticabil":null,"surface":null,"Sens uniqu":null,"Type de pi":null},"geometry":{"type":"LineString","coordinates":[[-16.4441412,16.0466114],[-16.4447727,16.0475763],[-16.4447077,16.0479983],[-16.4449638,16.0484242],[-16.4444881,16.0488657],[-16.4443076,16.0492636]]}},{"type":"Feature","properties":{"full_id":"w1014220270","Type de vo":"piste rurale","Ruines":null,"Niveau":null,"Pont":null,"Abandonné":null,"État de s":null,"Moto autor":null,"motorcar":null,"Véhicule ":null,"Accès":null,"Praticabil":null,"surface":null,"Sens uniqu":null,"Type de pi":null},"geometry":{"type":"LineString","coordinates":[[-16.4447749,16.0476233],[-16.4454232,16.0477444],[-16.44622,16.0481858]]}},{"type":"Feature","properties":{"full_id":"w1014220272","Type de vo":"piste rurale","Ruines":null,"Niveau":null,"Pont":null,"Abandonné":null,"État de s":null,"Moto autor":null,"motorcar":null,"Véhicule ":null,"Accès":null,"Praticabil":null,"surface":null,"Sens uniqu":null,"Type de pi":null},"geometry":{"type":"LineString","coordinates":[[-16.4470359,16.0498506],[-16.4472689,16.049526],[-16.4482689,16.0495831]]}},{"type":"Feature","properties":{"full_id":"w1014224110","Type de vo":"piste rurale","Ruines":null,"Niveau":null,"Pont":null,"Abandonné":null,"État de s":null,"Moto autor":null,"motorcar":null,"Véhicule ":null,"Accès":null,"Praticabil":null,"surface":null,"Sens uniqu":null,"Type de pi":null},"geometry":{"type":"LineString","coordinates":[[-16.4490151,16.0629323],[-16.4487973,16.0638369],[-16.448085646041736,16.064180001803415]]}},{"type":"Feature","properties":{"full_id":"w1014224111","Type de vo":"piste rurale","Ruines":null,"Niveau":null,"Pont":null,"Abandonné":null,"État de s":null,"Moto autor":null,"motorcar":null,"Véhicule ":null,"Accès":null,"Praticabil":null,"surface":null,"Sens uniqu":null,"Type de pi":null},"geometry":{"type":"LineString","coordinates":[[-16.4481863,16.0642014],[-16.448399,16.0644333],[-16.448343772759397,16.064685742436048]]}},{"type":"Feature","properties":{"full_id":"w1014486513","Type de vo":"piste rurale","Ruines":null,"Niveau":null,"Pont":null,"Abandonné":null,"État de s":null,"Moto autor":null,"motorcar":null,"Véhicule ":null,"Accès":null,"Praticabil":null,"surface":null,"Sens uniqu":null,"Type de pi":null},"geometry":{"type":"LineString","coordinates":[[-16.4462141,16.0573047],[-16.4479486,16.0583356]]}},{"type":"Feature","properties":{"full_id":"w1014486519","Type de vo":"piste rurale","Ruines":null,"Niveau":null,"Pont":null,"Abandonné":null,"État de s":null,"Moto autor":null,"motorcar":null,"Véhicule ":null,"Accès":null,"Praticabil":null,"surface":null,"Sens uniqu":null,"Type de pi":null},"geometry":{"type":"LineString","coordinates":[[-16.4479486,16.0583356],[-16.4483013,16.0593341]]}},{"type":"Feature","properties":{"full_id":"w1014486520","Type de vo":"piste rurale","Ruines":null,"Niveau":null,"Pont":null,"Abandonné":null,"État de s":null,"Moto autor":null,"motorcar":null,"Véhicule ":null,"Accès":null,"Praticabil":null,"surface":null,"Sens uniqu":null,"Type de pi":null},"geometry":{"type":"LineString","coordinates":[[-16.4480324,16.0584552],[-16.4485877,16.0583916]]}},{"type":"Feature","properties":{"full_id":"w1014486522","Type de vo":"piste rurale","Ruines":null,"Niveau":null,"Pont":null,"Abandonné":null,"État de s":null,"Moto autor":null,"motorcar":null,"Véhicule ":null,"Accès":null,"Praticabil":null,"surface":null,"Sens uniqu":null,"Type de pi":null},"geometry":{"type":"LineString","coordinates":[[-16.4461738,16.0592386],[-16.446003855147964,16.059090939193208]]}},{"type":"Feature","properties":{"full_id":"w1014486523","Type de vo":"piste rurale","Ruines":null,"Niveau":null,"Pont":null,"Abandonné":null,"État de s":null,"Moto autor":null,"motorcar":null,"Véhicule ":null,"Accès":null,"Praticabil":null,"surface":null,"Sens uniqu":null,"Type de pi":null},"geometry":{"type":"LineString","coordinates":[[-16.445140120406204,16.057036525039518],[-16.4451571,16.0570368],[-16.4453302,16.0560905]]}},{"type":"Feature","properties":{"full_id":"w1014486524","Type de vo":"piste rurale","Ruines":null,"Niveau":null,"Pont":null,"Abandonné":null,"État de s":null,"Moto autor":null,"motorcar":null,"Véhicule ":null,"Accès":null,"Praticabil":null,"surface":null,"Sens uniqu":null,"Type de pi":null},"geometry":{"type":"LineString","coordinates":[[-16.4451571,16.0570368],[-16.4453801,16.057064],[-16.445372920252524,16.057590245153037]]}},{"type":"Feature","properties":{"full_id":"w1014486525","Type de vo":"piste rurale","Ruines":null,"Niveau":null,"Pont":null,"Abandonné":null,"État de s":null,"Moto autor":null,"motorcar":null,"Véhicule ":null,"Accès":null,"Praticabil":null,"surface":null,"Sens uniqu":null,"Type de pi":null},"geometry":{"type":"LineString","coordinates":[[-16.4453787,16.0571216],[-16.4462169,16.0571832]]}},{"type":"Feature","properties":{"full_id":"w1014490785","Type de vo":"piste rurale","Ruines":null,"Niveau":null,"Pont":null,"Abandonné":null,"État de s":null,"Moto autor":null,"motorcar":null,"Véhicule ":null,"Accès":null,"Praticabil":null,"surface":null,"Sens uniqu":null,"Type de pi":null},"geometry":{"type":"LineString","coordinates":[[-16.4464682,16.0516383],[-16.4454525,16.051737],[-16.4441264,16.0516338]]}},{"type":"Feature","properties":{"full_id":"w1014490786","Type de vo":"piste rurale","Ruines":null,"Niveau":null,"Pont":null,"Abandonné":null,"État de s":null,"Moto autor":null,"motorcar":null,"Véhicule ":null,"Accès":null,"Praticabil":null,"surface":null,"Sens uniqu":null,"Type de pi":null},"geometry":{"type":"LineString","coordinates":[[-16.4460719,16.0522422],[-16.4441553,16.0520099]]}},{"type":"Feature","properties":{"full_id":"w1014490787","Type de vo":"piste rurale","Ruines":null,"Niveau":null,"Pont":null,"Abandonné":null,"État de s":null,"Moto autor":null,"motorcar":null,"Véhicule ":null,"Accès":null,"Praticabil":null,"surface":null,"Sens uniqu":null,"Type de pi":null},"geometry":{"type":"LineString","coordinates":[[-16.4451035,16.0520461],[-16.444974,16.0529731]]}},{"type":"Feature","properties":{"full_id":"w1014490799","Type de vo":"piste rurale","Ruines":null,"Niveau":null,"Pont":null,"Abandonné":null,"État de s":null,"Moto autor":null,"motorcar":null,"Véhicule ":null,"Accès":null,"Praticabil":null,"surface":null,"Sens uniqu":null,"Type de pi":null},"geometry":{"type":"LineString","coordinates":[[-16.4483149,16.0491236],[-16.4479426,16.0489808],[-16.4476591,16.0482363],[-16.4472932,16.048062],[-16.4468053,16.0481222],[-16.4463538,16.0478743]]}},{"type":"Feature","properties":{"full_id":"w1014490800","Type de vo":"piste rurale","Ruines":null,"Niveau":null,"Pont":null,"Abandonné":null,"État de s":null,"Moto autor":null,"motorcar":null,"Véhicule ":null,"Accès":null,"Praticabil":null,"surface":null,"Sens uniqu":null,"Type de pi":null},"geometry":{"type":"LineString","coordinates":[[-16.4483353,16.0484961],[-16.4477612,16.0485083]]}},{"type":"Feature","properties":{"full_id":"w1014490801","Type de vo":"piste rurale","Ruines":null,"Niveau":null,"Pont":null,"Abandonné":null,"État de s":null,"Moto autor":null,"motorcar":null,"Véhicule ":null,"Accès":null,"Praticabil":null,"surface":null,"Sens uniqu":null,"Type de pi":null},"geometry":{"type":"LineString","coordinates":[[-16.4483891,16.0477835],[-16.4480844,16.0477642],[-16.44758,16.0482046]]}},{"type":"Feature","properties":{"full_id":"w1014490803","Type de vo":"piste rurale","Ruines":null,"Niveau":null,"Pont":null,"Abandonné":null,"État de s":null,"Moto autor":null,"motorcar":null,"Véhicule ":null,"Accès":null,"Praticabil":null,"surface":null,"Sens uniqu":null,"Type de pi":null},"geometry":{"type":"LineString","coordinates":[[-16.4485559,16.0499564],[-16.4487662,16.0487879],[-16.449581,16.0478909],[-16.4499008,16.047007],[-16.4502784,16.0466402]]}},{"type":"Feature","properties":{"full_id":"w1014490806","Type de vo":"piste rurale","Ruines":null,"Niveau":null,"Pont":null,"Abandonné":null,"État de s":null,"Moto autor":null,"motorcar":null,"Véhicule ":null,"Accès":null,"Praticabil":null,"surface":null,"Sens uniqu":null,"Type de pi":null},"geometry":{"type":"LineString","coordinates":[[-16.44622,16.0481858],[-16.4470921,16.0485848],[-16.44758,16.0482046]]}},{"type":"Feature","properties":{"full_id":"w1014490807","Type de vo":"piste rurale","Ruines":null,"Niveau":null,"Pont":null,"Abandonné":null,"État de s":null,"Moto autor":null,"motorcar":null,"Véhicule ":null,"Accès":null,"Praticabil":null,"surface":null,"Sens uniqu":null,"Type de pi":null},"geometry":{"type":"LineString","coordinates":[[-16.4470921,16.0485848],[-16.447069,16.0488002],[-16.4467492,16.0488287]]}},{"type":"Feature","properties":{"full_id":"w1014490808","Type de vo":"piste rurale","Ruines":null,"Niveau":null,"Pont":null,"Abandonné":null,"État de s":null,"Moto autor":null,"motorcar":null,"Véhicule ":null,"Accès":null,"Praticabil":null,"surface":null,"Sens uniqu":null,"Type de pi":null},"geometry":{"type":"LineString","coordinates":[[-16.4478267,16.048717],[-16.4470921,16.0485848]]}},{"type":"Feature","properties":{"full_id":"w1014490809","Type de vo":"piste rurale","Ruines":null,"Niveau":null,"Pont":null,"Abandonné":null,"État de s":null,"Moto autor":null,"motorcar":null,"Véhicule ":null,"Accès":null,"Praticabil":null,"surface":null,"Sens uniqu":null,"Type de pi":null},"geometry":{"type":"LineString","coordinates":[[-16.4486396,16.0467776],[-16.4496371,16.0469246],[-16.4501176,16.0468166]]}},{"type":"Feature","properties":{"full_id":"w1014490810","Type de vo":"piste rurale","Ruines":null,"Niveau":null,"Pont":null,"Abandonné":null,"État de s":null,"Moto autor":null,"motorcar":null,"Véhicule ":null,"Accès":null,"Praticabil":null,"surface":null,"Sens uniqu":null,"Type de pi":null},"geometry":{"type":"LineString","coordinates":[[-16.4520881,16.050689],[-16.4509259,16.0484056]]}},{"type":"Feature","properties":{"full_id":"w1014490811","Type de vo":"piste rurale","Ruines":null,"Niveau":null,"Pont":null,"Abandonné":null,"État de s":null,"Moto autor":null,"motorcar":null,"Véhicule ":null,"Accès":null,"Praticabil":null,"surface":null,"Sens uniqu":null,"Type de pi":null},"geometry":{"type":"LineString","coordinates":[[-16.451236,16.04703],[-16.4525858,16.0461799],[-16.454079,16.0455111]]}},{"type":"Feature","properties":{"full_id":"w1014490812","Type de vo":"piste rurale","Ruines":null,"Niveau":null,"Pont":null,"Abandonné":null,"État de s":null,"Moto autor":null,"motorcar":null,"Véhicule ":null,"Accès":null,"Praticabil":null,"surface":null,"Sens uniqu":null,"Type de pi":null},"geometry":{"type":"LineString","coordinates":[[-16.4509412,16.0429073],[-16.4511273,16.0429387],[-16.4511445,16.043198]]}},{"type":"Feature","properties":{"full_id":"w1014491774","Type de vo":"piste rurale","Ruines":null,"Niveau":null,"Pont":null,"Abandonné":null,"État de s":null,"Moto autor":null,"motorcar":null,"Véhicule ":null,"Accès":null,"Praticabil":null,"surface":null,"Sens uniqu":null,"Type de pi":null},"geometry":{"type":"LineString","coordinates":[[-16.450343,16.0425468],[-16.4538652,16.0420065],[-16.453716,16.044224],[-16.4534232,16.0456693],[-16.4533463,16.0492639]]}},{"type":"Feature","properties":{"full_id":"w1014491775","Type de vo":"piste rurale","Ruines":null,"Niveau":null,"Pont":null,"Abandonné":null,"État de s":null,"Moto autor":null,"motorcar":null,"Véhicule ":null,"Accès":null,"Praticabil":null,"surface":null,"Sens uniqu":null,"Type de pi":null},"geometry":{"type":"LineString","coordinates":[[-16.451236,16.04703],[-16.4505087,16.0473733]]}},{"type":"Feature","properties":{"full_id":"w1014491776","Type de vo":"piste rurale","Ruines":null,"Niveau":null,"Pont":null,"Abandonné":null,"État de s":null,"Moto autor":null,"motorcar":null,"Véhicule ":null,"Accès":null,"Praticabil":null,"surface":null,"Sens uniqu":null,"Type de pi":null},"geometry":{"type":"LineString","coordinates":[[-16.4519814,16.0465996],[-16.4513159,16.0490904]]}},{"type":"Feature","properties":{"full_id":"w1014491777","Type de vo":"piste rurale","Ruines":null,"Niveau":null,"Pont":null,"Abandonné":null,"État de s":null,"Moto autor":null,"motorcar":null,"Véhicule ":null,"Accès":null,"Praticabil":null,"surface":null,"Sens uniqu":null,"Type de pi":null},"geometry":{"type":"LineString","coordinates":[[-16.4519079,16.0469876],[-16.4515377,16.0472833]]}},{"type":"Feature","properties":{"full_id":"w1014491778","Type de vo":"piste rurale","Ruines":null,"Niveau":null,"Pont":null,"Abandonné":null,"État de s":null,"Moto autor":null,"motorcar":null,"Véhicule ":null,"Accès":null,"Praticabil":null,"surface":null,"Sens uniqu":null,"Type de pi":null},"geometry":{"type":"LineString","coordinates":[[-16.4518872,16.0470828],[-16.4525971,16.0482364]]}},{"type":"Feature","properties":{"full_id":"w1014491779","Type de vo":"piste rurale","Ruines":null,"Niveau":null,"Pont":null,"Abandonné":null,"État de s":null,"Moto autor":null,"motorcar":null,"Véhicule ":null,"Accès":null,"Praticabil":null,"surface":null,"Sens uniqu":null,"Type de pi":null},"geometry":{"type":"LineString","coordinates":[[-16.4519814,16.0465996],[-16.4510699,16.0456969],[-16.4505006,16.0448608]]}},{"type":"Feature","properties":{"full_id":"w1014491780","Type de vo":"piste rurale","Ruines":null,"Niveau":null,"Pont":null,"Abandonné":null,"État de s":null,"Moto autor":null,"motorcar":null,"Véhicule ":null,"Accès":null,"Praticabil":null,"surface":null,"Sens uniqu":null,"Type de pi":null},"geometry":{"type":"LineString","coordinates":[[-16.4521662,16.0457796],[-16.4507316,16.0465514]]}},{"type":"Feature","properties":{"full_id":"w1014491781","Type de vo":"piste rurale","Ruines":null,"Niveau":null,"Pont":null,"Abandonné":null,"État de s":null,"Moto autor":null,"motorcar":null,"Véhicule ":null,"Accès":null,"Praticabil":null,"surface":null,"Sens uniqu":null,"Type de pi":null},"geometry":{"type":"LineString","coordinates":[[-16.4499672,16.045312],[-16.4507541,16.0450874],[-16.4517185,16.0445219],[-16.4521146,16.0441027],[-16.4534519,16.0443123],[-16.453716,16.044224]]}},{"type":"Feature","properties":{"full_id":"w1014491782","Type de vo":"piste rurale","Ruines":null,"Niveau":null,"Pont":null,"Abandonné":null,"État de s":null,"Moto autor":null,"motorcar":null,"Véhicule ":null,"Accès":null,"Praticabil":null,"surface":null,"Sens uniqu":null,"Type de pi":null},"geometry":{"type":"LineString","coordinates":[[-16.4535954,16.0443123],[-16.4526771,16.0448032],[-16.4517415,16.0450404],[-16.4502469,16.0460514]]}},{"type":"Feature","properties":{"full_id":"w1014491783","Type de vo":"piste rurale","Ruines":null,"Niveau":null,"Pont":null,"Abandonné":null,"État de s":null,"Moto autor":null,"motorcar":null,"Véhicule ":null,"Accès":null,"Praticabil":null,"surface":null,"Sens uniqu":null,"Type de pi":null},"geometry":{"type":"LineString","coordinates":[[-16.453795,16.0428724],[-16.4534175,16.0435345],[-16.4532683,16.044886],[-16.4534415,16.0455449]]}},{"type":"Feature","properties":{"full_id":"w1014491784","Type de vo":"piste rurale","Ruines":null,"Niveau":null,"Pont":null,"Abandonné":null,"État de s":null,"Moto autor":null,"motorcar":null,"Véhicule ":null,"Accès":null,"Praticabil":null,"surface":null,"Sens uniqu":null,"Type de pi":null},"geometry":{"type":"LineString","coordinates":[[-16.4522188,16.0441083],[-16.4503607,16.043574]]}},{"type":"Feature","properties":{"full_id":"w1014491785","Type de vo":"piste rurale","Ruines":null,"Niveau":null,"Pont":null,"Abandonné":null,"État de s":null,"Moto autor":null,"motorcar":null,"Véhicule ":null,"Accès":null,"Praticabil":null,"surface":null,"Sens uniqu":null,"Type de pi":null},"geometry":{"type":"LineString","coordinates":[[-16.4502475,16.0422066],[-16.4538939,16.0415541]]}},{"type":"Feature","properties":{"full_id":"w1014491786","Type de vo":"piste rurale","Ruines":null,"Niveau":null,"Pont":null,"Abandonné":null,"État de s":null,"Moto autor":null,"motorcar":null,"Véhicule ":null,"Accès":null,"Praticabil":null,"surface":null,"Sens uniqu":null,"Type de pi":null},"geometry":{"type":"LineString","coordinates":[[-16.4500104,16.0417406],[-16.4501802,16.0414824],[-16.4506165,16.0415872],[-16.4539456,16.0410853]]}},{"type":"Feature","properties":{"full_id":"w1014491787","Type de vo":"piste rurale","Ruines":null,"Niveau":null,"Pont":null,"Abandonné":null,"État de s":null,"Moto autor":null,"motorcar":null,"Véhicule ":null,"Accès":null,"Praticabil":null,"surface":null,"Sens uniqu":null,"Type de pi":null},"geometry":{"type":"LineString","coordinates":[[-16.4545605,16.0398235],[-16.4540661,16.0400261],[-16.4538652,16.0420065]]}},{"type":"Feature","properties":{"full_id":"w1014491788","Type de vo":"piste rurale","Ruines":null,"Niveau":null,"Pont":null,"Abandonné":null,"État de s":null,"Moto autor":null,"motorcar":null,"Véhicule ":null,"Accès":null,"Praticabil":null,"surface":null,"Sens uniqu":null,"Type de pi":null},"geometry":{"type":"LineString","coordinates":[[-16.4521211,16.0413604],[-16.4518563,16.0394414]]}},{"type":"Feature","properties":{"full_id":"w1014491789","Type de vo":"piste rurale","Ruines":null,"Niveau":"-1","Pont":null,"Abandonné":null,"État de s":null,"Moto autor":null,"motorcar":null,"Véhicule ":null,"Accès":null,"Praticabil":null,"surface":null,"Sens uniqu":null,"Type de pi":null},"geometry":{"type":"LineString","coordinates":[[-16.4488829,16.0407376],[-16.4496411,16.040754],[-16.449621,16.0410629]]}},{"type":"Feature","properties":{"full_id":"w1014491790","Type de vo":"piste rurale","Ruines":null,"Niveau":null,"Pont":null,"Abandonné":null,"État de s":null,"Moto autor":null,"motorcar":null,"Véhicule ":null,"Accès":null,"Praticabil":null,"surface":null,"Sens uniqu":null,"Type de pi":null},"geometry":{"type":"LineString","coordinates":[[-16.4569911,16.0414906],[-16.4580707,16.0416925]]}},{"type":"Feature","properties":{"full_id":"w1014491791","Type de vo":"piste rurale","Ruines":null,"Niveau":null,"Pont":null,"Abandonné":null,"État de s":null,"Moto autor":null,"motorcar":null,"Véhicule ":null,"Accès":null,"Praticabil":null,"surface":null,"Sens uniqu":null,"Type de pi":null},"geometry":{"type":"LineString","coordinates":[[-16.4581956,16.0408773],[-16.4573674,16.0407028]]}},{"type":"Feature","properties":{"full_id":"w1014491792","Type de vo":"piste rurale","Ruines":null,"Niveau":null,"Pont":null,"Abandonné":null,"État de s":null,"Moto autor":null,"motorcar":null,"Véhicule ":null,"Accès":null,"Praticabil":null,"surface":null,"Sens uniqu":null,"Type de pi":null},"geometry":{"type":"LineString","coordinates":[[-16.4557239,16.0410112],[-16.4554286,16.0421367],[-16.4543503,16.0423061]]}},{"type":"Feature","properties":{"full_id":"w1014497119","Type de vo":"piste rurale","Ruines":null,"Niveau":"-1","Pont":null,"Abandonné":null,"État de s":null,"Moto autor":null,"motorcar":null,"Véhicule ":null,"Accès":null,"Praticabil":null,"surface":null,"Sens uniqu":null,"Type de pi":null},"geometry":{"type":"LineString","coordinates":[[-16.4441191,16.054001],[-16.443925373100754,16.054147218940304]]}},{"type":"Feature","properties":{"full_id":"w1014497120","Type de vo":"piste rurale","Ruines":null,"Niveau":null,"Pont":null,"Abandonné":null,"État de s":null,"Moto autor":null,"motorcar":null,"Véhicule ":null,"Accès":null,"Praticabil":null,"surface":null,"Sens uniqu":null,"Type de pi":null},"geometry":{"type":"LineString","coordinates":[[-16.4437871,16.0537305],[-16.443758142717275,16.05374945739369]]}},{"type":"Feature","properties":{"full_id":"w1014497134","Type de vo":"piste rurale","Ruines":null,"Niveau":null,"Pont":null,"Abandonné":null,"État de s":null,"Moto autor":null,"motorcar":null,"Véhicule ":null,"Accès":null,"Praticabil":null,"surface":null,"Sens uniqu":null,"Type de pi":null},"geometry":{"type":"LineString","coordinates":[[-16.4441004,16.0509639],[-16.4430275,16.0513316]]}},{"type":"Feature","properties":{"full_id":"w1014497135","Type de vo":"piste rurale","Ruines":null,"Niveau":null,"Pont":null,"Abandonné":null,"État de s":null,"Moto autor":null,"motorcar":null,"Véhicule ":null,"Accès":null,"Praticabil":null,"surface":null,"Sens uniqu":null,"Type de pi":null},"geometry":{"type":"LineString","coordinates":[[-16.4430275,16.0513316],[-16.4432344,16.0514142],[-16.4437218,16.0521293],[-16.4441825,16.0521907]]}},{"type":"Feature","properties":{"full_id":"w1014497137","Type de vo":"piste rurale","Ruines":null,"Niveau":null,"Pont":null,"Abandonné":null,"État de s":null,"Moto autor":null,"motorcar":null,"Véhicule ":null,"Accès":null,"Praticabil":null,"surface":null,"Sens uniqu":null,"Type de pi":null},"geometry":{"type":"LineString","coordinates":[[-16.4451035,16.0520461],[-16.4451727,16.0517016]]}},{"type":"Feature","properties":{"full_id":"w1014498674","Type de vo":"piste rurale","Ruines":null,"Niveau":null,"Pont":null,"Abandonné":null,"État de s":null,"Moto autor":null,"motorcar":null,"Véhicule ":null,"Accès":null,"Praticabil":null,"surface":null,"Sens uniqu":null,"Type de pi":null},"geometry":{"type":"LineString","coordinates":[[-16.444861,16.0482529],[-16.4432982,16.0476678]]}},{"type":"Feature","properties":{"full_id":"w1014498675","Type de vo":"piste rurale","Ruines":null,"Niveau":null,"Pont":null,"Abandonné":null,"État de s":null,"Moto autor":null,"motorcar":null,"Véhicule ":null,"Accès":null,"Praticabil":null,"surface":null,"Sens uniqu":null,"Type de pi":null},"geometry":{"type":"LineString","coordinates":[[-16.4437657,16.0478608],[-16.4446151,16.048964],[-16.4448964,16.0491129],[-16.4449197,16.0493953]]}},{"type":"Feature","properties":{"full_id":"w1014498676","Type de vo":"piste rurale","Ruines":null,"Niveau":null,"Pont":null,"Abandonné":null,"État de s":null,"Moto autor":null,"motorcar":null,"Véhicule ":null,"Accès":null,"Praticabil":null,"surface":null,"Sens uniqu":null,"Type de pi":null},"geometry":{"type":"LineString","coordinates":[[-16.4447077,16.0479983],[-16.4443913,16.0475022],[-16.4433488,16.046529]]}},{"type":"Feature","properties":{"full_id":"w1014498677","Type de vo":"piste rurale","Ruines":null,"Niveau":null,"Pont":null,"Abandonné":null,"État de s":null,"Moto autor":null,"motorcar":null,"Véhicule ":null,"Accès":null,"Praticabil":null,"surface":null,"Sens uniqu":null,"Type de pi":null},"geometry":{"type":"LineString","coordinates":[[-16.4446805,16.0458601],[-16.4447357,16.0449648]]}},{"type":"Feature","properties":{"full_id":"w1014498679","Type de vo":"piste rurale","Ruines":null,"Niveau":null,"Pont":null,"Abandonné":null,"État de s":null,"Moto autor":null,"motorcar":null,"Véhicule ":null,"Accès":null,"Praticabil":null,"surface":null,"Sens uniqu":null,"Type de pi":null},"geometry":{"type":"LineString","coordinates":[[-16.4453121,16.0450225],[-16.4452484,16.0457674]]}},{"type":"Feature","properties":{"full_id":"w1014498681","Type de vo":"piste rurale","Ruines":null,"Niveau":"-1","Pont":null,"Abandonné":null,"État de s":null,"Moto autor":null,"motorcar":null,"Véhicule ":null,"Accès":null,"Praticabil":null,"surface":null,"Sens uniqu":null,"Type de pi":null},"geometry":{"type":"LineString","coordinates":[[-16.4435845,16.0452901],[-16.4437532,16.0447415]]}},{"type":"Feature","properties":{"full_id":"w1014500188","Type de vo":"piste rurale","Ruines":null,"Niveau":null,"Pont":null,"Abandonné":null,"État de s":null,"Moto autor":null,"motorcar":null,"Véhicule ":null,"Accès":null,"Praticabil":null,"surface":null,"Sens uniqu":null,"Type de pi":null},"geometry":{"type":"LineString","coordinates":[[-16.4492686,16.0482437],[-16.4485803,16.0481855]]}},{"type":"Feature","properties":{"full_id":"w1014500189","Type de vo":"piste rurale","Ruines":null,"Niveau":null,"Pont":null,"Abandonné":null,"État de s":null,"Moto autor":null,"motorcar":null,"Véhicule ":null,"Accès":null,"Praticabil":null,"surface":null,"Sens uniqu":null,"Type de pi":null},"geometry":{"type":"LineString","coordinates":[[-16.4495378,16.0479135],[-16.4491507,16.0477223],[-16.4483891,16.0477835]]}},{"type":"Feature","properties":{"full_id":"w1014500190","Type de vo":"piste rurale","Ruines":null,"Niveau":null,"Pont":null,"Abandonné":null,"État de s":null,"Moto autor":null,"motorcar":null,"Véhicule ":null,"Accès":null,"Praticabil":null,"surface":null,"Sens uniqu":null,"Type de pi":null},"geometry":{"type":"LineString","coordinates":[[-16.449614,16.0478402],[-16.4499696,16.0491993]]}},{"type":"Feature","properties":{"full_id":"w1014500191","Type de vo":"piste rurale","Ruines":null,"Niveau":null,"Pont":null,"Abandonné":null,"État de s":null,"Moto autor":null,"motorcar":null,"Véhicule ":null,"Accès":null,"Praticabil":null,"surface":null,"Sens uniqu":null,"Type de pi":null},"geometry":{"type":"LineString","coordinates":[[-16.4508021,16.0488239],[-16.4503932,16.0476373],[-16.449769,16.0472826],[-16.448558,16.0471534]]}},{"type":"Feature","properties":{"full_id":"w1014500192","Type de vo":"piste rurale","Ruines":null,"Niveau":null,"Pont":null,"Abandonné":null,"État de s":null,"Moto autor":null,"motorcar":null,"Véhicule ":null,"Accès":null,"Praticabil":null,"surface":null,"Sens uniqu":null,"Type de pi":null},"geometry":{"type":"LineString","coordinates":[[-16.4490092,16.0477223],[-16.4492524,16.0464432]]}},{"type":"Feature","properties":{"full_id":"w1014500194","Type de vo":"piste rurale","Ruines":null,"Niveau":null,"Pont":null,"Abandonné":null,"État de s":null,"Moto autor":null,"motorcar":null,"Véhicule ":null,"Accès":null,"Praticabil":null,"surface":null,"Sens uniqu":null,"Type de pi":null},"geometry":{"type":"LineString","coordinates":[[-16.4492524,16.0464432],[-16.4490921,16.0453617]]}},{"type":"Feature","properties":{"full_id":"w1014500196","Type de vo":"piste rurale","Ruines":null,"Niveau":null,"Pont":null,"Abandonné":null,"État de s":null,"Moto autor":null,"motorcar":null,"Véhicule ":null,"Accès":null,"Praticabil":null,"surface":null,"Sens uniqu":null,"Type de pi":null},"geometry":{"type":"LineString","coordinates":[[-16.4438377,16.0458377],[-16.4434077,16.0455929]]}},{"type":"Feature","properties":{"full_id":"w1014500203","Type de vo":"piste rurale","Ruines":null,"Niveau":null,"Pont":null,"Abandonné":null,"État de s":null,"Moto autor":null,"motorcar":null,"Véhicule ":null,"Accès":null,"Praticabil":null,"surface":null,"Sens uniqu":null,"Type de pi":null},"geometry":{"type":"LineString","coordinates":[[-16.4407613,16.0468344],[-16.440648309360927,16.04689186355339]]}},{"type":"Feature","properties":{"full_id":"w1014500204","Type de vo":"piste rurale","Ruines":null,"Niveau":null,"Pont":null,"Abandonné":null,"État de s":null,"Moto autor":null,"motorcar":null,"Véhicule ":null,"Accès":null,"Praticabil":null,"surface":null,"Sens uniqu":null,"Type de pi":null},"geometry":{"type":"LineString","coordinates":[[-16.4418068,16.046974],[-16.441379064489375,16.04852665283761]]}},{"type":"Feature","properties":{"full_id":"w1014500205","Type de vo":"piste rurale","Ruines":null,"Niveau":null,"Pont":null,"Abandonné":null,"État de s":null,"Moto autor":null,"motorcar":null,"Véhicule ":null,"Accès":null,"Praticabil":null,"surface":null,"Sens uniqu":null,"Type de pi":null},"geometry":{"type":"LineString","coordinates":[[-16.4415424,16.0480116],[-16.4416978,16.0482054],[-16.4415899,16.0486886]]}},{"type":"Feature","properties":{"full_id":"w1014500206","Type de vo":"piste rurale","Ruines":null,"Niveau":null,"Pont":null,"Abandonné":null,"État de s":null,"Moto autor":null,"motorcar":null,"Véhicule ":null,"Accès":null,"Praticabil":null,"surface":null,"Sens uniqu":null,"Type de pi":null},"geometry":{"type":"LineString","coordinates":[[-16.4415424,16.0480116],[-16.441056,16.0475297],[-16.4409008,16.0468248]]}},{"type":"Feature","properties":{"full_id":"w1014500211","Type de vo":"piste rurale","Ruines":null,"Niveau":null,"Pont":null,"Abandonné":null,"État de s":null,"Moto autor":null,"motorcar":null,"Véhicule ":null,"Accès":null,"Praticabil":null,"surface":null,"Sens uniqu":null,"Type de pi":null},"geometry":{"type":"LineString","coordinates":[[-16.4406215,16.0449009],[-16.440069523942014,16.045183780609282]]}},{"type":"Feature","properties":{"full_id":"w1014500217","Type de vo":"piste rurale","Ruines":null,"Niveau":null,"Pont":null,"Abandonné":null,"État de s":null,"Moto autor":null,"motorcar":null,"Véhicule ":null,"Accès":null,"Praticabil":null,"surface":null,"Sens uniqu":null,"Type de pi":null},"geometry":{"type":"LineString","coordinates":[[-16.4413212,16.0455652],[-16.4413769,16.0468428]]}},{"type":"Feature","properties":{"full_id":"w1014500218","Type de vo":"piste rurale","Ruines":null,"Niveau":null,"Pont":null,"Abandonné":null,"État de s":null,"Moto autor":null,"motorcar":null,"Véhicule ":null,"Accès":null,"Praticabil":null,"surface":null,"Sens uniqu":null,"Type de pi":null},"geometry":{"type":"LineString","coordinates":[[-16.4413823,16.0459158],[-16.4408878,16.0459929]]}},{"type":"Feature","properties":{"full_id":"w1014500231","Type de vo":"piste rurale","Ruines":null,"Niveau":null,"Pont":null,"Abandonné":null,"État de s":null,"Moto autor":null,"motorcar":null,"Véhicule ":null,"Accès":null,"Praticabil":null,"surface":null,"Sens uniqu":null,"Type de pi":null},"geometry":{"type":"LineString","coordinates":[[-16.4418898,16.0427026],[-16.4420377,16.0431142]]}},{"type":"Feature","properties":{"full_id":"w1014500232","Type de vo":"piste rurale","Ruines":null,"Niveau":null,"Pont":null,"Abandonné":null,"État de s":null,"Moto autor":null,"motorcar":null,"Véhicule ":null,"Accès":null,"Praticabil":null,"surface":null,"Sens uniqu":null,"Type de pi":null},"geometry":{"type":"LineString","coordinates":[[-16.4420377,16.0431142],[-16.4421363,16.0436058]]}},{"type":"Feature","properties":{"full_id":"w1014940126","Type de vo":"piste rurale","Ruines":null,"Niveau":null,"Pont":null,"Abandonné":null,"État de s":null,"Moto autor":null,"motorcar":null,"Véhicule ":null,"Accès":null,"Praticabil":null,"surface":null,"Sens uniqu":null,"Type de pi":null},"geometry":{"type":"LineString","coordinates":[[-16.4482603,16.0372312],[-16.4486666,16.0397334]]}},{"type":"Feature","properties":{"full_id":"w1014940127","Type de vo":"piste rurale","Ruines":null,"Niveau":null,"Pont":null,"Abandonné":null,"État de s":null,"Moto autor":null,"motorcar":null,"Véhicule ":null,"Accès":null,"Praticabil":null,"surface":null,"Sens uniqu":null,"Type de pi":null},"geometry":{"type":"LineString","coordinates":[[-16.4480001,16.0388528],[-16.4485438,16.0389161]]}},{"type":"Feature","properties":{"full_id":"w1014941532","Type de vo":"piste rurale","Ruines":null,"Niveau":null,"Pont":null,"Abandonné":null,"État de s":null,"Moto autor":null,"motorcar":null,"Véhicule ":null,"Accès":null,"Praticabil":null,"surface":null,"Sens uniqu":null,"Type de pi":null},"geometry":{"type":"LineString","coordinates":[[-16.4458808,16.0296173],[-16.4471273,16.0298002]]}},{"type":"Feature","properties":{"full_id":"w1014941535","Type de vo":"piste rurale","Ruines":null,"Niveau":null,"Pont":null,"Abandonné":null,"État de s":null,"Moto autor":null,"motorcar":null,"Véhicule ":null,"Accès":null,"Praticabil":null,"surface":null,"Sens uniqu":null,"Type de pi":null},"geometry":{"type":"LineString","coordinates":[[-16.4483712,16.0314458],[-16.4468665,16.0311879]]}},{"type":"Feature","properties":{"full_id":"w1014941537","Type de vo":"piste rurale","Ruines":null,"Niveau":null,"Pont":null,"Abandonné":null,"État de s":null,"Moto autor":null,"motorcar":null,"Véhicule ":null,"Accès":null,"Praticabil":null,"surface":null,"Sens uniqu":null,"Type de pi":null},"geometry":{"type":"LineString","coordinates":[[-16.4463153,16.0316592],[-16.445467,16.0315429]]}},{"type":"Feature","properties":{"full_id":"w1014941538","Type de vo":"piste rurale","Ruines":null,"Niveau":null,"Pont":null,"Abandonné":null,"État de s":null,"Moto autor":null,"motorcar":null,"Véhicule ":null,"Accès":null,"Praticabil":null,"surface":null,"Sens uniqu":null,"Type de pi":null},"geometry":{"type":"LineString","coordinates":[[-16.4464372,16.0316828],[-16.4465145,16.0312841]]}},{"type":"Feature","properties":{"full_id":"w1014941539","Type de vo":"piste rurale","Ruines":null,"Niveau":null,"Pont":null,"Abandonné":null,"État de s":null,"Moto autor":null,"motorcar":null,"Véhicule ":null,"Accès":null,"Praticabil":null,"surface":null,"Sens uniqu":null,"Type de pi":null},"geometry":{"type":"LineString","coordinates":[[-16.4472653,16.0290652],[-16.446173,16.0284629],[-16.4453401,16.0283262]]}},{"type":"Feature","properties":{"full_id":"w1014941540","Type de vo":"piste rurale","Ruines":null,"Niveau":null,"Pont":null,"Abandonné":null,"État de s":null,"Moto autor":null,"motorcar":null,"Véhicule ":null,"Accès":null,"Praticabil":null,"surface":null,"Sens uniqu":null,"Type de pi":null},"geometry":{"type":"LineString","coordinates":[[-16.4457316,16.0283601],[-16.4459819,16.0291311],[-16.4464739,16.0297051]]}},{"type":"Feature","properties":{"full_id":"w1014941541","Type de vo":"piste rurale","Ruines":null,"Niveau":null,"Pont":null,"Abandonné":null,"État de s":null,"Moto autor":null,"motorcar":null,"Véhicule ":null,"Accès":null,"Praticabil":null,"surface":null,"Sens uniqu":null,"Type de pi":null},"geometry":{"type":"LineString","coordinates":[[-16.4498997,16.0286908],[-16.4512604,16.0303347],[-16.4514332,16.0311965],[-16.452498,16.0337594],[-16.454053,16.0360672],[-16.4545626,16.0378904],[-16.4553383,16.0387566]]}},{"type":"Feature","properties":{"full_id":"w1014942347","Type de vo":"piste rurale","Ruines":null,"Niveau":null,"Pont":null,"Abandonné":null,"État de s":null,"Moto autor":null,"motorcar":null,"Véhicule ":null,"Accès":null,"Praticabil":null,"surface":null,"Sens uniqu":null,"Type de pi":null},"geometry":{"type":"LineString","coordinates":[[-16.4428595,16.0325944],[-16.4424277,16.0325195],[-16.4424876,16.0319633]]}},{"type":"Feature","properties":{"full_id":"w1014942360","Type de vo":"piste rurale","Ruines":null,"Niveau":null,"Pont":null,"Abandonné":null,"État de s":null,"Moto autor":null,"motorcar":null,"Véhicule ":null,"Accès":null,"Praticabil":null,"surface":null,"Sens uniqu":null,"Type de pi":null},"geometry":{"type":"LineString","coordinates":[[-16.4424065,16.0325331],[-16.44227859156136,16.03277770206806]]}},{"type":"Feature","properties":{"full_id":"w1014943307","Type de vo":"piste rurale","Ruines":null,"Niveau":null,"Pont":null,"Abandonné":null,"État de s":null,"Moto autor":null,"motorcar":null,"Véhicule ":null,"Accès":null,"Praticabil":null,"surface":null,"Sens uniqu":null,"Type de pi":null},"geometry":{"type":"LineString","coordinates":[[-16.4415627,16.0367417],[-16.441144879014335,16.036693509486867]]}},{"type":"Feature","properties":{"full_id":"w1020117639","Type de vo":"piste rurale","Ruines":null,"Niveau":null,"Pont":null,"Abandonné":null,"État de s":null,"Moto autor":null,"motorcar":null,"Véhicule ":null,"Accès":null,"Praticabil":null,"surface":null,"Sens uniqu":null,"Type de pi":null},"geometry":{"type":"LineString","coordinates":[[-16.4668478,16.0351877],[-16.4657993,16.0346838]]}},{"type":"Feature","properties":{"full_id":"w1020118205","Type de vo":"piste rurale","Ruines":null,"Niveau":null,"Pont":null,"Abandonné":null,"État de s":null,"Moto autor":null,"motorcar":null,"Véhicule ":null,"Accès":null,"Praticabil":null,"surface":null,"Sens uniqu":null,"Type de pi":null},"geometry":{"type":"LineString","coordinates":[[-16.4573528,16.0322356],[-16.4560824,16.0322363],[-16.454557,16.0326445],[-16.449234,16.0332669]]}},{"type":"Feature","properties":{"full_id":"w1020118206","Type de vo":"piste rurale","Ruines":null,"Niveau":null,"Pont":null,"Abandonné":null,"État de s":null,"Moto autor":null,"motorcar":null,"Véhicule ":null,"Accès":null,"Praticabil":null,"surface":null,"Sens uniqu":null,"Type de pi":null},"geometry":{"type":"LineString","coordinates":[[-16.4574093,16.0329308],[-16.4576573,16.0332513],[-16.4582579,16.0333794]]}},{"type":"Feature","properties":{"full_id":"w1020118211","Type de vo":"piste rurale","Ruines":null,"Niveau":null,"Pont":null,"Abandonné":null,"État de s":null,"Moto autor":null,"motorcar":null,"Véhicule ":null,"Accès":null,"Praticabil":null,"surface":null,"Sens uniqu":null,"Type de pi":null},"geometry":{"type":"LineString","coordinates":[[-16.4566843,16.0361903],[-16.4562699,16.0330642],[-16.4564858,16.0319009],[-16.4564292,16.031241],[-16.4561461,16.0307546],[-16.4563476,16.0301379],[-16.4562854,16.0294598]]}},{"type":"Feature","properties":{"full_id":"w1020118221","Type de vo":"piste rurale","Ruines":null,"Niveau":null,"Pont":null,"Abandonné":null,"État de s":null,"Moto autor":null,"motorcar":null,"Véhicule ":null,"Accès":null,"Praticabil":null,"surface":null,"Sens uniqu":null,"Type de pi":null},"geometry":{"type":"LineString","coordinates":[[-16.4572002,16.0351187],[-16.4564861,16.0349577]]}},{"type":"Feature","properties":{"full_id":"w1020118222","Type de vo":"piste rurale","Ruines":null,"Niveau":null,"Pont":null,"Abandonné":null,"État de s":null,"Moto autor":null,"motorcar":null,"Véhicule ":null,"Accès":null,"Praticabil":null,"surface":null,"Sens uniqu":null,"Type de pi":null},"geometry":{"type":"LineString","coordinates":[[-16.4560425,16.0359143],[-16.4557561,16.0341076],[-16.4559286,16.0330149],[-16.456312,16.0324644]]}},{"type":"Feature","properties":{"full_id":"w1020155412","Type de vo":"piste rurale","Ruines":null,"Niveau":null,"Pont":null,"Abandonné":null,"État de s":null,"Moto autor":null,"motorcar":null,"Véhicule ":null,"Accès":null,"Praticabil":null,"surface":null,"Sens uniqu":null,"Type de pi":null},"geometry":{"type":"LineString","coordinates":[[-16.4551815,16.0324121],[-16.4552775,16.0331419],[-16.4549448,16.0344481],[-16.4549661,16.0350127],[-16.4553554,16.0357542],[-16.4560988,16.0362771]]}},{"type":"Feature","properties":{"full_id":"w1020155413","Type de vo":"piste rurale","Ruines":null,"Niveau":null,"Pont":null,"Abandonné":null,"État de s":null,"Moto autor":null,"motorcar":null,"Véhicule ":null,"Accès":null,"Praticabil":null,"surface":null,"Sens uniqu":null,"Type de pi":null},"geometry":{"type":"LineString","coordinates":[[-16.4558054,16.0345311],[-16.4557093,16.0347746],[-16.4546405,16.0356046],[-16.4537911,16.037006],[-16.450627,16.0382237],[-16.4497989,16.0388223],[-16.4487574,16.0390953]]}},{"type":"Feature","properties":{"full_id":"w1020155414","Type de vo":"piste rurale","Ruines":null,"Niveau":null,"Pont":null,"Abandonné":null,"État de s":null,"Moto autor":null,"motorcar":null,"Véhicule ":null,"Accès":null,"Praticabil":null,"surface":null,"Sens uniqu":null,"Type de pi":null},"geometry":{"type":"LineString","coordinates":[[-16.4497989,16.0388223],[-16.4504819,16.0386863],[-16.4516959,16.0388257],[-16.4541025,16.0384244],[-16.4552091,16.0385648]]}},{"type":"Feature","properties":{"full_id":"w1020155422","Type de vo":"piste rurale","Ruines":null,"Niveau":null,"Pont":null,"Abandonné":null,"État de s":null,"Moto autor":null,"motorcar":null,"Véhicule ":null,"Accès":null,"Praticabil":null,"surface":null,"Sens uniqu":null,"Type de pi":null},"geometry":{"type":"LineString","coordinates":[[-16.457746,16.0287472],[-16.4578576,16.0294663]]}},{"type":"Feature","properties":{"full_id":"w1020155425","Type de vo":"piste rurale","Ruines":null,"Niveau":null,"Pont":null,"Abandonné":null,"État de s":null,"Moto autor":null,"motorcar":null,"Véhicule ":null,"Accès":null,"Praticabil":null,"surface":null,"Sens uniqu":null,"Type de pi":null},"geometry":{"type":"LineString","coordinates":[[-16.4570963,16.0286014],[-16.4559636,16.0285856],[-16.4555569,16.0273714]]}},{"type":"Feature","properties":{"full_id":"w1020155426","Type de vo":"piste rurale","Ruines":null,"Niveau":null,"Pont":null,"Abandonné":null,"État de s":null,"Moto autor":null,"motorcar":null,"Véhicule ":null,"Accès":null,"Praticabil":null,"surface":null,"Sens uniqu":null,"Type de pi":null},"geometry":{"type":"LineString","coordinates":[[-16.4571159,16.0287869],[-16.4565336,16.029391],[-16.4562131,16.0294799],[-16.4531406,16.029265]]}},{"type":"Feature","properties":{"full_id":"w1020155428","Type de vo":"piste rurale","Ruines":null,"Niveau":null,"Pont":null,"Abandonné":null,"État de s":null,"Moto autor":null,"motorcar":null,"Véhicule ":null,"Accès":null,"Praticabil":null,"surface":null,"Sens uniqu":null,"Type de pi":null},"geometry":{"type":"LineString","coordinates":[[-16.4573593,16.0307058],[-16.4569803,16.0289422]]}},{"type":"Feature","properties":{"full_id":"w1020155429","Type de vo":"piste rurale","Ruines":null,"Niveau":null,"Pont":null,"Abandonné":null,"État de s":null,"Moto autor":null,"motorcar":null,"Véhicule ":null,"Accès":null,"Praticabil":null,"surface":null,"Sens uniqu":null,"Type de pi":null},"geometry":{"type":"LineString","coordinates":[[-16.4574753,16.0298531],[-16.456379,16.0298005]]}},{"type":"Feature","properties":{"full_id":"w1020155430","Type de vo":"piste rurale","Ruines":null,"Niveau":null,"Pont":null,"Abandonné":null,"État de s":null,"Moto autor":null,"motorcar":null,"Véhicule ":null,"Accès":null,"Praticabil":null,"surface":null,"Sens uniqu":null,"Type de pi":null},"geometry":{"type":"LineString","coordinates":[[-16.4580587,16.0281236],[-16.4572234,16.026786],[-16.4565581,16.026371],[-16.4559776,16.0256091],[-16.455015,16.0248743],[-16.4545053,16.0236973],[-16.4523543,16.0207272]]}},{"type":"Feature","properties":{"full_id":"w1020155431","Type de vo":"piste rurale","Ruines":null,"Niveau":null,"Pont":null,"Abandonné":null,"État de s":null,"Moto autor":null,"motorcar":null,"Véhicule ":null,"Accès":null,"Praticabil":null,"surface":null,"Sens uniqu":null,"Type de pi":null},"geometry":{"type":"LineString","coordinates":[[-16.4577482,16.0276374],[-16.4572818,16.0278739],[-16.4570881,16.0285234]]}},{"type":"Feature","properties":{"full_id":"w1020155432","Type de vo":"piste rurale","Ruines":null,"Niveau":null,"Pont":null,"Abandonné":null,"État de s":null,"Moto autor":null,"motorcar":null,"Véhicule ":null,"Accès":null,"Praticabil":null,"surface":null,"Sens uniqu":null,"Type de pi":null},"geometry":{"type":"LineString","coordinates":[[-16.4578652,16.0309627],[-16.4573488,16.030884],[-16.4573593,16.0307058]]}},{"type":"Feature","properties":{"full_id":"w1020155436","Type de vo":"piste rurale","Ruines":null,"Niveau":null,"Pont":null,"Abandonné":null,"État de s":null,"Moto autor":null,"motorcar":null,"Véhicule ":null,"Accès":null,"Praticabil":null,"surface":null,"Sens uniqu":null,"Type de pi":null},"geometry":{"type":"LineString","coordinates":[[-16.4575123,16.0226037],[-16.4575034,16.0238022],[-16.4579594,16.0254108],[-16.4580291,16.0267462],[-16.4575805,16.0272967]]}},{"type":"Feature","properties":{"full_id":"w1020155437","Type de vo":"piste rurale","Ruines":null,"Niveau":null,"Pont":null,"Abandonné":null,"État de s":null,"Moto autor":null,"motorcar":null,"Véhicule ":null,"Accès":null,"Praticabil":null,"surface":null,"Sens uniqu":null,"Type de pi":null},"geometry":{"type":"LineString","coordinates":[[-16.4575123,16.0226037],[-16.4573991,16.0217524],[-16.4561144,16.0184778],[-16.4556185,16.0167116],[-16.455541711827465,16.014062965727074]]}},{"type":"Feature","properties":{"full_id":"w1020155438","Type de vo":"piste rurale","Ruines":null,"Niveau":null,"Pont":null,"Abandonné":null,"État de s":null,"Moto autor":null,"motorcar":null,"Véhicule ":null,"Accès":null,"Praticabil":null,"surface":null,"Sens uniqu":null,"Type de pi":null},"geometry":{"type":"LineString","coordinates":[[-16.4573488,16.030884],[-16.4542063,16.0301954],[-16.4542538,16.0299811]]}},{"type":"Feature","properties":{"full_id":"w1020155439","Type de vo":"piste rurale","Ruines":null,"Niveau":"-1","Pont":null,"Abandonné":null,"État de s":null,"Moto autor":null,"motorcar":null,"Véhicule ":null,"Accès":null,"Praticabil":null,"surface":null,"Sens uniqu":null,"Type de pi":null},"geometry":{"type":"LineString","coordinates":[[-16.4551815,16.0324121],[-16.4551675,16.0310956],[-16.4554061,16.0305289]]}},{"type":"Feature","properties":{"full_id":"w1020156479","Type de vo":"piste rurale","Ruines":null,"Niveau":null,"Pont":null,"Abandonné":null,"État de s":null,"Moto autor":null,"motorcar":null,"Véhicule ":null,"Accès":null,"Praticabil":null,"surface":null,"Sens uniqu":null,"Type de pi":null},"geometry":{"type":"LineString","coordinates":[[-16.444779,16.0236687],[-16.4447788,16.0241769]]}},{"type":"Feature","properties":{"full_id":"w1020156480","Type de vo":"piste rurale","Ruines":null,"Niveau":null,"Pont":null,"Abandonné":null,"État de s":null,"Moto autor":null,"motorcar":null,"Véhicule ":null,"Accès":null,"Praticabil":null,"surface":null,"Sens uniqu":null,"Type de pi":null},"geometry":{"type":"LineString","coordinates":[[-16.444434394269884,16.024072888408764],[-16.444628,16.0241721],[-16.4460458,16.0241291]]}},{"type":"Feature","properties":{"full_id":"w1155930758","Type de vo":"piste rurale","Ruines":null,"Niveau":null,"Pont":null,"Abandonné":null,"État de s":null,"Moto autor":null,"motorcar":null,"Véhicule ":null,"Accès":null,"Praticabil":null,"surface":null,"Sens uniqu":null,"Type de pi":"grade3"},"geometry":{"type":"LineString","coordinates":[[-16.4537503,16.0493931],[-16.4552994,16.0496975]]}}]}