{"type":"FeatureCollection","name":"urbanisation-lotissements.geojson","features":[{"type":"Feature","properties":{"Id":0},"geometry":{"type":"Polygon","coordinates":[[[-16.44258731736963,16.03143536171663],[-16.443629896049583,16.026684526074852],[-16.443852690451696,16.026025150744196],[-16.450093386806167,16.02688469363009],[-16.449711115056296,16.028410042929753],[-16.44652497429004,16.028042966432075],[-16.44614323072232,16.030825415497915],[-16.44537866027556,16.031782502105486],[-16.44258731736963,16.03143536171663]]]}},{"type":"Feature","properties":{"Id":0},"geometry":{"type":"Polygon","coordinates":[[[-16.446763926777294,16.025926743064538],[-16.44737486612378,16.021498734690695],[-16.447562294592718,16.021319578047542],[-16.450957786607148,16.021187585275488],[-16.450747534275923,16.026306362238696],[-16.446763926777294,16.025926743064538]]]}},{"type":"Feature","properties":{"Id":0},"geometry":{"type":"Polygon","coordinates":[[[-16.45821550086548,16.01298817505758],[-16.459304606391093,16.012550384177153],[-16.463324173787846,16.01110040908838],[-16.464509660201077,16.01254313148361],[-16.461396235083697,16.016868649231938],[-16.45821550086548,16.01298817505758]]]}}]}