{"type":"FeatureCollection","name":"urbanisation-empreinte-2024.geojson","features":[{"type":"Feature","properties":{"fid":1183.0,"DN":7,"Nature":"Empreinte urbaine"},"geometry":{"type":"Polygon","coordinates":[[[-16.458657932218504,16.062333537015206],[-16.458656615236812,16.062152788745184],[-16.458001052215792,16.061976496452715],[-16.45799973585789,16.06179574812362],[-16.45827946849796,16.06170346453038],[-16.458184030152232,16.06143297856768],[-16.458464420560357,16.06143106892951],[-16.45865398132384,16.061791292195696],[-16.458934372174802,16.061789381900837],[-16.458939641079716,16.062512374896734],[-16.458657932218504,16.062333537015206]]]}},{"type":"Feature","properties":{"fid":1200.0,"DN":7,"Nature":"Empreinte urbaine"},"geometry":{"type":"Polygon","coordinates":[[[-16.457710790608004,16.060622792832678],[-16.457709474629,16.06044204445734],[-16.457802937659896,16.060441408197306],[-16.457710790608004,16.060622792832678]]]}},{"type":"Feature","properties":{"fid":1214.0,"DN":7,"Nature":"Empreinte urbaine"},"geometry":{"type":"Polygon","coordinates":[[[-16.462564925524614,16.059776286923032],[-16.46256426537906,16.059685912924913],[-16.46265772785404,16.059685274575603],[-16.462564925524614,16.059776286923032]]]}},{"type":"Feature","properties":{"fid":1215.0,"DN":7,"Nature":"Empreinte urbaine"},"geometry":{"type":"Polygon","coordinates":[[[-16.46210289250588,16.06050247018488],[-16.462007449859854,16.06023198627781],[-16.462003490440704,16.059689742164853],[-16.46218975546426,16.059598091900543],[-16.462378000477713,16.059777563506934],[-16.462287178066504,16.06013969776771],[-16.462473443338766,16.060048047236336],[-16.46238394121859,16.06059092952259],[-16.46210289250588,16.06050247018488]]]}},{"type":"Feature","properties":{"fid":1315.0,"DN":7,"Nature":"Empreinte urbaine"},"geometry":{"type":"Polygon","coordinates":[[[-16.49628638512199,16.057103132105212],[-16.496375793308914,16.056560243320572],[-16.496469252892652,16.056559590341227],[-16.496474655469502,16.057282571401085],[-16.49628638512199,16.057103132105212]]]}},{"type":"Feature","properties":{"fid":1329.0,"DN":7,"Nature":"Empreinte urbaine"},"geometry":{"type":"Polygon","coordinates":[[[-16.49628233372086,16.05656089625917],[-16.496281658502426,16.056470523615406],[-16.496375118048338,16.056469870680672],[-16.49628233372086,16.05656089625917]]]}},{"type":"Feature","properties":{"fid":1397.0,"DN":7,"Nature":"Empreinte urbaine"},"geometry":{"type":"Polygon","coordinates":[[[-16.496352836867217,16.053487573121377],[-16.496352161753176,16.05339720045466],[-16.496445619862296,16.05339654761068],[-16.496352836867217,16.053487573121377]]]}},{"type":"Feature","properties":{"fid":1421.0,"DN":7,"Nature":"Empreinte urbaine"},"geometry":{"type":"Polygon","coordinates":[[[-16.494039302315386,16.056576554561385],[-16.493471804726802,16.055676737837413],[-16.492436344498575,16.054689802648134],[-16.492523742548816,16.053875796099334],[-16.492985646190217,16.05314955728387],[-16.493730615528282,16.052782854099725],[-16.493915509453576,16.052510432383574],[-16.49428799235155,16.052327079632878],[-16.4944755819638,16.052416148542864],[-16.494661148819375,16.052234099036383],[-16.495411508383906,16.052590372269893],[-16.495508339680697,16.053041583403285],[-16.49578871360594,16.053039625895455],[-16.495977654332382,16.053309438740218],[-16.495979004219134,16.05349018410538],[-16.49532614623332,16.05367549717508],[-16.4954216286462,16.053945962874316],[-16.495048469533334,16.054038945022167],[-16.495049818646436,16.05421969045202],[-16.494770117411456,16.054312019858155],[-16.49477146629761,16.05449276530646],[-16.495053191504542,16.05467155401284],[-16.494961081830116,16.054852951726378],[-16.494680705260855,16.054854908366092],[-16.49468205411441,16.055035653812652],[-16.494962430936457,16.05503369714976],[-16.49487234463063,16.055486212975435],[-16.49468610077838,16.055577890133407],[-16.494877066494226,16.056118821931857],[-16.494884486991847,16.05711292164242],[-16.494039302315386,16.056576554561385]],[[-16.494676658803517,16.054312672007473],[-16.494489741574725,16.05431397618388],[-16.494491090208097,16.05449472165536],[-16.494676658803517,16.054312672007473]],[[-16.495697280053843,16.05331139652727],[-16.495510363846613,16.05331270151494],[-16.495418255117762,16.053494099359234],[-16.495605846283446,16.053583167134438],[-16.495697280053843,16.05331139652727]]]}},{"type":"Feature","properties":{"fid":1785.0,"DN":7,"Nature":"Empreinte urbaine"},"geometry":{"type":"Polygon","coordinates":[[[-16.459924198871832,16.043706904826173],[-16.460015679113415,16.043435145533426],[-16.460297360949138,16.04361398403301],[-16.46029867780831,16.043794732482553],[-16.460112425831813,16.043886380086672],[-16.459924198871832,16.043706904826173]]]}},{"type":"Feature","properties":{"fid":1879.0,"DN":7,"Nature":"Empreinte urbaine"},"geometry":{"type":"Polygon","coordinates":[[[-16.452992785127588,16.041584910160452],[-16.452991475045465,16.04140416108427],[-16.453084929393782,16.04140352761394],[-16.452992785127588,16.041584910160452]]]}},{"type":"Feature","properties":{"fid":2075.0,"DN":7,"Nature":"Empreinte urbaine"},"geometry":{"type":"Polygon","coordinates":[[[-16.467075920537575,16.03760271263759],[-16.467075259319774,16.037512338635832],[-16.467168711265547,16.03751169917769],[-16.467075920537575,16.03760271263759]]]}},{"type":"Feature","properties":{"fid":2220.0,"DN":7,"Nature":"Empreinte urbaine"},"geometry":{"type":"Polygon","coordinates":[[[-16.46313312955646,16.035189430670734],[-16.463132470219872,16.0350990564887],[-16.463225921206693,16.035098418841983],[-16.46313312955646,16.035189430670734]]]}},{"type":"Feature","properties":{"fid":2246.0,"DN":7,"Nature":"Empreinte urbaine"},"geometry":{"type":"Polygon","coordinates":[[[-16.46350495514473,16.034915757321517],[-16.463504295652484,16.03482538315226],[-16.463597746496223,16.034824745354122],[-16.46350495514473,16.034915757321517]]]}},{"type":"Feature","properties":{"fid":2802.0,"DN":7,"Nature":"Empreinte urbaine"},"geometry":{"type":"Polygon","coordinates":[[[-16.45784994667925,16.02835661801267],[-16.4578492900179,16.028266243559496],[-16.457942738043215,16.028265608477906],[-16.45784994667925,16.02835661801267]]]}},{"type":"Feature","properties":{"fid":3039.0,"DN":7,"Nature":"Empreinte urbaine"},"geometry":{"type":"Polygon","coordinates":[[[-16.468017056844676,16.038500055781768],[-16.467734715068783,16.038230853353777],[-16.46773339198909,16.038050105413593],[-16.467545826189692,16.037961010844224],[-16.467636632401316,16.037598875255462],[-16.467448405695603,16.03741940657167],[-16.46698114619829,16.037422604046945],[-16.466979823867973,16.037241856031912],[-16.466604694553972,16.037063665200737],[-16.46688174431151,16.03660987729335],[-16.466784326566646,16.036068272448958],[-16.466217672013386,16.035258740775188],[-16.465930052791023,16.034266542734443],[-16.46555559043387,16.034178723569543],[-16.465278540392035,16.03463250983238],[-16.465090978825554,16.034543412730407],[-16.465370010120925,16.034360748978518],[-16.46546147963113,16.034088988099608],[-16.465833960272192,16.033905685201834],[-16.466388054803176,16.03299811128531],[-16.466852660471083,16.032633419756984],[-16.466943466404913,16.032271284384894],[-16.46759364562136,16.031724564983207],[-16.46778054407255,16.03172328602334],[-16.467962813048295,16.031089388779336],[-16.46814971087678,16.03108810954713],[-16.468241836867904,16.03090672185099],[-16.469269111735677,16.030809308832218],[-16.469917955242618,16.03008183533349],[-16.47029042400228,16.029898525587054],[-16.470751702561063,16.029081957083758],[-16.471780954777604,16.029255654550063],[-16.471779628833545,16.029074906788306],[-16.471967187518405,16.029163998261293],[-16.472339652457183,16.02898068523892],[-16.472152093814703,16.028891594089764],[-16.472055993785947,16.02853073989057],[-16.471398546982094,16.028083358188287],[-16.4713024487962,16.02772250347945],[-16.471488680431797,16.027630847694322],[-16.471301123416726,16.0275417556529],[-16.471299798054194,16.02736100782322],[-16.471580139160544,16.027359084988056],[-16.471578150770046,16.027087963271846],[-16.47204339624867,16.026813636123986],[-16.471761730247515,16.02663481169649],[-16.471851199633207,16.026091927210377],[-16.47222697444378,16.026360484248052],[-16.47232307338437,16.026721338502306],[-16.472883753513123,16.026717489941518],[-16.473153478249007,16.025269583490637],[-16.472589486444843,16.024821563005876],[-16.471842582680917,16.024917066394135],[-16.471558931627484,16.024467119650105],[-16.47183595474332,16.02401332721425],[-16.472302519012974,16.02391974786599],[-16.472767093226036,16.023555045878567],[-16.473140874024402,16.023552480053578],[-16.4733290912547,16.023731944625485],[-16.474543879363473,16.023723600045056],[-16.47454520733006,16.02390434767123],[-16.474920980964864,16.024172900082704],[-16.475761989435913,16.024167117404687],[-16.476324655975123,16.024434381665174],[-16.476608982061766,16.024974694935654],[-16.476890649350416,16.02515351285696],[-16.476805849658007,16.02632901422978],[-16.477088849609384,16.026688579067926],[-16.476437383989328,16.027054576564204],[-16.476066921323834,16.02750901728578],[-16.476074234712662,16.02850312815631],[-16.475891328793118,16.029046656389287],[-16.47561297997056,16.029319706227408],[-16.475615638823978,16.029681201113753],[-16.47524450527799,16.030045267139286],[-16.47477792896064,16.030138853914536],[-16.474502234148265,16.03077339756598],[-16.47376062160231,16.031591899606653],[-16.473762613530745,16.031863020942225],[-16.473391472649727,16.03222708430844],[-16.47320855676063,16.032770610963993],[-16.472651840997653,16.033316704663797],[-16.472654495213835,16.033678199899246],[-16.472101092244547,16.034676161569593],[-16.472010958453673,16.035128672183298],[-16.471453570069777,16.03558438963711],[-16.4712706465293,16.03612791516999],[-16.47043422499453,16.036766301553374],[-16.469972930195436,16.037582870392626],[-16.468297413931296,16.038498135939065],[-16.468017056844676,16.038500055781768]],[[-16.472325725858003,16.02708283401321],[-16.472230952825644,16.0269027275514],[-16.471950612439034,16.026904651183578],[-16.472141484316474,16.027445612100642],[-16.472325725858003,16.02708283401321]]]}},{"type":"Feature","properties":{"fid":3059.0,"DN":7,"Nature":"Empreinte urbaine"},"geometry":{"type":"Polygon","coordinates":[[[-16.44365489599397,16.02971792825933],[-16.44384049375384,16.029535920298745],[-16.443838542557927,16.02926479527791],[-16.443277197898112,16.029178193498804],[-16.44315338390081,16.028855902627672],[-16.44336029412351,16.02791305152247],[-16.443361544869333,16.02791231426602],[-16.443363478219823,16.027898542192347],[-16.443512856675476,16.02721785256683],[-16.443636038198733,16.02709705259081],[-16.443581029783278,16.026907200491763],[-16.443629896049583,16.026684526074852],[-16.443983711293033,16.025637385568043],[-16.444464059782913,16.025283891331284],[-16.444454953136475,16.02401864102223],[-16.44444799091497,16.024018687887608],[-16.444606966398336,16.023384961406208],[-16.445011077916668,16.023382240841404],[-16.44510647635294,16.023652736554947],[-16.445667154732792,16.02364895981135],[-16.445944889493074,16.02328557100048],[-16.44622522808486,16.023283681758606],[-16.44613959622097,16.02436881108956],[-16.447264214987683,16.02481312496399],[-16.447083186371337,16.025627759732117],[-16.447364179918782,16.025716243631912],[-16.44764321782853,16.025533602484526],[-16.44764582564574,16.02589510202688],[-16.448113714507876,16.02598232374995],[-16.448209118550917,16.026252817574637],[-16.448584213289692,16.026431043791884],[-16.44839862282085,16.026613055319398],[-16.448678965754812,16.0266111624904],[-16.448869123788615,16.027061774536605],[-16.44915011998253,16.027150255854906],[-16.449059282751055,16.027512386325583],[-16.449248789870836,16.027872623054627],[-16.44925335935784,16.028505246657012],[-16.449067767793522,16.0286872588376],[-16.44907103145912,16.02913913284531],[-16.44888674452336,16.029501894529016],[-16.4489814989418,16.029682012902292],[-16.448612270695417,16.030317161266],[-16.448344320092975,16.032036175858387],[-16.448348235411082,16.032578424670472],[-16.448914160599305,16.033297635600373],[-16.44883246109675,16.03492501275875],[-16.44911738676631,16.035555741633782],[-16.44912261121791,16.03627873955866],[-16.44875729080874,16.03745613721799],[-16.448764473610634,16.038450259334844],[-16.44905005822316,16.0391713624218],[-16.449238271667856,16.03935084846286],[-16.44979964640104,16.039437432001694],[-16.44998851433838,16.039707291978605],[-16.449991782443107,16.040159165338086],[-16.450178036510984,16.040067526404258],[-16.450460359557205,16.040336753656085],[-16.450277374303763,16.040880266114847],[-16.45102827861392,16.04132707993915],[-16.451030241078836,16.041598203791015],[-16.4514060221427,16.04186679685483],[-16.451596858031646,16.042407778753375],[-16.45178507685531,16.042587262067222],[-16.452065441692604,16.042585362975448],[-16.452900640705565,16.041766292678115],[-16.452899330690897,16.041585543597577],[-16.453461367768103,16.041762491399624],[-16.45345874674521,16.041400993325528],[-16.452987544899504,16.040861913836864],[-16.452985579883006,16.04059079020253],[-16.453171832736455,16.040499148749923],[-16.45316790233643,16.039956901500364],[-16.45335480966517,16.039955634476353],[-16.45326266620368,16.040137017087535],[-16.45344957369242,16.04013574996708],[-16.45354433790059,16.040315865398927],[-16.45372993489414,16.040133848981103],[-16.453539751328574,16.03968324369919],[-16.45381880122237,16.039500593605837],[-16.45400243106395,16.0390474534693],[-16.454189337475572,16.039046185787743],[-16.454188026533462,16.03886543676518],[-16.455679339110354,16.038313042846163],[-16.455953791482642,16.037497769115202],[-16.45613938372016,16.03731575096069],[-16.45641974064334,16.037313846783302],[-16.4569752012454,16.036587042003802],[-16.456879123007145,16.0362261792875],[-16.457436549545967,16.035770496858238],[-16.457341127757335,16.035500008772157],[-16.457714933395344,16.035497467972593],[-16.457711648893405,16.035045595971827],[-16.458178904794575,16.03504241915096],[-16.458076255219368,16.033777813100734],[-16.458353978486215,16.03341440924694],[-16.458342808242534,16.031878044504936],[-16.45824673060355,16.031517182265503],[-16.457495851112853,16.031070391629118],[-16.457489941692817,16.030257021598906],[-16.4577702885824,16.03025511647158],[-16.457674212987104,16.029894253773183],[-16.457860453831714,16.02980260915659],[-16.457575511457467,16.02917189316964],[-16.457663050531913,16.028357888061365],[-16.45850408306272,16.028352171560993],[-16.46000648535885,16.029336118737962],[-16.460671810425392,16.030868028960484],[-16.461048239754277,16.031226980275065],[-16.461144980427314,16.03167821515415],[-16.46227625627911,16.03302618629157],[-16.46257308238299,16.035283629923093],[-16.462947546003544,16.03537145422648],[-16.46313312955646,16.035189430670734],[-16.46322987754186,16.0356406638997],[-16.463510890764578,16.035729124809514],[-16.463512869380374,16.036000247291348],[-16.463326626049138,16.036091897030477],[-16.46332860446303,16.036363019525563],[-16.46314170131544,16.036364294965566],[-16.46258494669328,16.036910365459285],[-16.46240265665112,16.037544259652766],[-16.461938031442997,16.03790894299337],[-16.46119304688215,16.038275536350174],[-16.459789942231556,16.038104336748038],[-16.45923054240193,16.038288902359632],[-16.458582948237567,16.03919709706692],[-16.45840195862008,16.04001173761377],[-16.45812291276008,16.040194393380336],[-16.45823740334752,16.043085736147034],[-16.458051808295984,16.04326775630824],[-16.458059039929754,16.044261873772015],[-16.458340063897353,16.044350340581037],[-16.458436149897434,16.044711201838382],[-16.458158412946997,16.045074606712035],[-16.457878702790165,16.045166888369927],[-16.457881989853252,16.04561875991122],[-16.45872309468416,16.045613036566444],[-16.459008068487243,16.046243747860007],[-16.459014648275403,16.047147490376126],[-16.458922507420453,16.04732887515379],[-16.458363081589503,16.047513440545274],[-16.458366370251216,16.047965311890025],[-16.458931719357814,16.048594114574858],[-16.458934351491173,16.048955611523965],[-16.45912192485718,16.049044713007483],[-16.459222622661457,16.050038192982477],[-16.45875599003905,16.050131749200922],[-16.45866384780625,16.05031313395148],[-16.45903899714503,16.05049133700127],[-16.45904228797402,16.05094320808416],[-16.459703082612076,16.05184249374328],[-16.45972152262976,16.054372970483914],[-16.459258172589195,16.054918399441252],[-16.45907125179907,16.05491967276476],[-16.458601317181714,16.054561358558942],[-16.456637993722484,16.054484339739567],[-16.455885712955293,16.053856802575037],[-16.45485896513942,16.05404453592184],[-16.454213930076115,16.055314219465973],[-16.45384271100581,16.055678254753264],[-16.45347804962985,16.056946033420317],[-16.453198976483048,16.057128684811605],[-16.452184660944795,16.059033520987274],[-16.452186627257927,16.059304644252524],[-16.45246767100857,16.059393117120052],[-16.454148031063987,16.05911057707474],[-16.45461796997156,16.059468900684973],[-16.455178746142717,16.05946509083211],[-16.45536435773715,16.05928307197104],[-16.456017938594044,16.059188250503414],[-16.456300298032282,16.059457466724545],[-16.456397047460108,16.059908702356704],[-16.45686962238229,16.06062851740656],[-16.456595807986734,16.061534167145535],[-16.45669321708131,16.062075776637855],[-16.457351411273148,16.062613569747594],[-16.457448823165752,16.063155178631128],[-16.45847758877508,16.06323855176477],[-16.45894754494141,16.06359686429603],[-16.458950179696462,16.06395836073725],[-16.45923386771581,16.06440832028122],[-16.459237820859506,16.064950564827885],[-16.4574613256347,16.064872287835282],[-16.456992684326504,16.064694720473867],[-16.454842987113214,16.064709339772755],[-16.453162582203117,16.06499188892213],[-16.45232467271732,16.06544946896866],[-16.451860622542046,16.065904510769272],[-16.45158481332525,16.066539032982554],[-16.45095433241199,16.066467167007403],[-16.44846195875634,16.064917301034104],[-16.44829929450563,16.06459859740743],[-16.448297147180803,16.0643018279148],[-16.44885401360176,16.0637557864131],[-16.448665775611456,16.063576302285522],[-16.44810498630222,16.06358009603076],[-16.447872550182318,16.063762488902274],[-16.44749865230352,16.063029920993465],[-16.446288017394053,16.05976682602754],[-16.443208268486405,16.05244156812163],[-16.44221433489931,16.050314322719952],[-16.442211875124507,16.04997261135781],[-16.442064649441686,16.049993961575538],[-16.440735624855524,16.04714954472884],[-16.439522948601546,16.043570754457928],[-16.44067220781705,16.038326100910346],[-16.442337045240926,16.032575804900485],[-16.442939779734576,16.02982925677897],[-16.44365489599397,16.02971792825933]],[[-16.458748752159863,16.0491376325902],[-16.45865529444196,16.04913826882731],[-16.458657268232248,16.04940939156008],[-16.458748752159863,16.0491376325902]],[[-16.4590284671982,16.04904534940374],[-16.45893500953502,16.04904598575927],[-16.458935667583063,16.049136359993792],[-16.4590284671982,16.04904534940374]]]}},{"type":"Feature","properties":{"fid":3351.0,"DN":7,"Nature":"Empreinte urbaine"},"geometry":{"type":"Polygon","coordinates":[[[-16.502221015514177,16.038353503870294],[-16.501843827543517,16.037904259852525],[-16.50183164404509,16.036277553473738],[-16.50220138172611,16.035732699587772],[-16.502197996957868,16.035280836713437],[-16.50292527570357,16.03256442144846],[-16.502919181532324,16.031751068291776],[-16.50310269108319,16.031297895700007],[-16.502997055901552,16.029671844064126],[-16.5031636372565,16.026959356579113],[-16.503434494283407,16.0256921757556],[-16.503426369718284,16.024607704426884],[-16.503611227196753,16.02433527698783],[-16.50405542264686,16.021259333767173],[-16.504786029022945,16.018994778311633],[-16.50515708570046,16.018630667080874],[-16.506091500836288,16.018624112234452],[-16.50693518745222,16.018979699469767],[-16.507033377919743,16.019611650949056],[-16.506848529123207,16.019884080683138],[-16.506766618956384,16.02142106939532],[-16.50640302157199,16.02277928113253],[-16.50636045817868,16.029557873184228],[-16.506275832743793,16.030733371258304],[-16.506000919107997,16.031458319455346],[-16.505732787850565,16.033086991942678],[-16.506048423730853,16.037784389064306],[-16.505771465833906,16.03823822020155],[-16.505399020284823,16.03842159002777],[-16.50437241801066,16.038609550397638],[-16.502221015514177,16.038353503870294]]]}},{"type":"Feature","properties":{"fid":3407.0,"DN":7,"Nature":"Empreinte urbaine"},"geometry":{"type":"Polygon","coordinates":[[[-16.50633040933286,16.050435202655578],[-16.5059552254797,16.05025708597475],[-16.50576491696133,16.04980653814751],[-16.505661953175807,16.048541982496953],[-16.50547232626642,16.048181806476478],[-16.505461462930395,16.046735849064596],[-16.50517702636453,16.04619558432559],[-16.50498265231097,16.045202800913177],[-16.50515191478618,16.04285180643025],[-16.50504896242653,16.04158724905866],[-16.505226367008696,16.040320723043212],[-16.5064337682634,16.039318093355227],[-16.506986323773667,16.03822968448561],[-16.50715420578626,16.035697944726653],[-16.506772939144195,16.03470647546885],[-16.506577215976534,16.033532947385535],[-16.506570427814992,16.032629223255224],[-16.507027483133886,16.031270354426063],[-16.50709988412028,16.02846815285973],[-16.50728066596625,16.027653487910154],[-16.506883809244403,16.02458345026835],[-16.507147854301955,16.02241254201184],[-16.508059202042535,16.019333313584923],[-16.50796100860404,16.018701362824473],[-16.508145175992283,16.018338559854712],[-16.508141102876333,16.017796325012377],[-16.50841667325814,16.01716174791848],[-16.508977317446735,16.01715780733718],[-16.509166915928766,16.017517983233514],[-16.5094472384426,16.017516012103563],[-16.509542038194365,16.017696099817307],[-16.509452673900736,16.01823899146927],[-16.50964295394999,16.01868953915597],[-16.509458109636917,16.01896197078457],[-16.509571259231876,16.02158211307972],[-16.509391169687593,16.022487151523087],[-16.50949412841232,16.02375170747487],[-16.509311318802588,16.024295256390037],[-16.50943059448066,16.0277287484949],[-16.5091692920617,16.030261146328126],[-16.509272937845132,16.03161607359441],[-16.509001433908995,16.032792886333393],[-16.509034754069564,16.037221128777116],[-16.508855334556603,16.03821653918479],[-16.508963068432262,16.040113699002745],[-16.508780926637222,16.040747620324627],[-16.508882540966287,16.04183142953692],[-16.508699037468286,16.04228460635576],[-16.508735093357604,16.047074334332663],[-16.508376241278388,16.049065154561553],[-16.50782094861341,16.049792078990432],[-16.507824349288285,16.050243940082478],[-16.507545340875318,16.050426657459596],[-16.50633040933286,16.050435202655578]]]}},{"type":"Feature","properties":{"fid":4022.0,"DN":7,"Nature":"Empreinte urbaine"},"geometry":{"type":"Polygon","coordinates":[[[-16.494146450247886,15.995661254678133],[-16.494145778687287,15.995570881433991],[-16.494239209971695,15.995570231835616],[-16.494146450247886,15.995661254678133]]]}},{"type":"Feature","properties":{"fid":4342.0,"DN":7,"Nature":"Empreinte urbaine"},"geometry":{"type":"Polygon","coordinates":[[[-16.49639348488547,15.983715740173555],[-16.496392812844217,15.983625366922254],[-16.49648623848531,15.98362471681966],[-16.49639348488547,15.983715740173555]]]}},{"type":"Feature","properties":{"fid":4347.0,"DN":7,"Nature":"Empreinte urbaine"},"geometry":{"type":"Polygon","coordinates":[[[-16.49648623848531,15.98362471681966],[-16.49648489433188,15.983443970322423],[-16.49657831988483,15.983443320187012],[-16.49648623848531,15.98362471681966]]]}},{"type":"Feature","properties":{"fid":4383.0,"DN":7,"Nature":"Empreinte urbaine"},"geometry":{"type":"Polygon","coordinates":[[[-16.508180925786778,16.01065624068456],[-16.508086131104626,16.010476151865824],[-16.507694745752435,16.008129089758064],[-16.50785855943115,16.005055109970087],[-16.507661518804642,16.00370083259253],[-16.507737325799262,16.001350488653888],[-16.508100210403963,15.999901903516857],[-16.508377795923685,15.999538445414352],[-16.509029109781398,15.999172362589134],[-16.509394696437894,15.998085266487232],[-16.50909269453602,15.995195311590999],[-16.509077773906466,15.993207113626283],[-16.508792061091448,15.99248610009966],[-16.50832084824091,15.991947142598404],[-16.508318137210225,15.991585651849663],[-16.508504317023387,15.991493967928681],[-16.508687785058157,15.99104079315497],[-16.508773768347652,15.990964073179669],[-16.509491391530595,15.991538932481603],[-16.511456427955203,15.991586919398818],[-16.511229368873234,15.993553505699932],[-16.510980319483934,15.997712613316422],[-16.51070206209108,15.997985701685733],[-16.51061270485586,15.998528593757742],[-16.510243729574633,15.999163828679112],[-16.51026274195672,16.001694259621587],[-16.510450967150927,16.00187369091301],[-16.51045640062695,16.002596670993924],[-16.51037179622114,16.003772170496365],[-16.51018628568651,16.003954229346654],[-16.510188323129494,16.00422534686371],[-16.510002132956483,16.0043170330872],[-16.509836314405987,16.00711989436499],[-16.509560080522842,16.00766409978424],[-16.50956279665912,16.008025589785543],[-16.50974966947477,16.008024276152355],[-16.509753744313418,16.00856651108388],[-16.509486336621393,16.010285558861476],[-16.509300140707488,16.010377244936354],[-16.509394936374484,16.0105573331311],[-16.50892706946837,16.010470244138656],[-16.508928427209174,16.010650989146665],[-16.508180925786778,16.01065624068456]],[[-16.509657591247304,16.00820567797739],[-16.509564154753328,16.008206334781477],[-16.509564833806945,16.008296707278255],[-16.509657591247304,16.00820567797739]]]}},{"type":"Feature","properties":{"fid":4426.0,"DN":7,"Nature":"Empreinte urbaine"},"geometry":{"type":"Polygon","coordinates":[[[-16.485943760293924,16.036207489810213],[-16.48584897052138,16.036027390906202],[-16.48547449919883,16.035939607559488],[-16.48509601263744,16.03530958384027],[-16.484720873830923,16.03513142573103],[-16.484719535715055,16.03495067912757],[-16.483873136200902,16.03423351399242],[-16.483871798927805,16.03405276730416],[-16.483684899666496,16.034054060465735],[-16.482838507559812,16.0333368905569],[-16.48283650317299,16.03306577037321],[-16.48246003451353,16.032706860924154],[-16.482269797174233,16.032256285630904],[-16.481894666391273,16.03207812183425],[-16.481893331089953,16.03189737494724],[-16.481329301857944,16.031449380919483],[-16.48123385136145,16.0311789058824],[-16.480952838953453,16.031090468289207],[-16.48048026136754,16.030370705854395],[-16.479445001475494,16.02938368921516],[-16.479443668617094,16.029202942081938],[-16.478786871136638,16.028845958221194],[-16.478501867059293,16.028215275365497],[-16.478593316212898,16.027943510456367],[-16.477843077469227,16.027587167239865],[-16.47774563712479,16.02704556904575],[-16.47755741291582,16.02686610899516],[-16.47755408560293,16.026414240663946],[-16.477925208470072,16.02605017143738],[-16.478112100765,16.02604888391967],[-16.478483221916218,16.025684813857293],[-16.478481890247966,16.025504066583093],[-16.479317573410757,16.024775280629655],[-16.481274591634783,16.024038753634464],[-16.481458813378822,16.02367596923853],[-16.48183192567553,16.023583014740968],[-16.48211025804825,16.023309958070396],[-16.482567468306858,16.021951127980742],[-16.482558790992822,16.02077627241122],[-16.482740337785483,16.02005199322371],[-16.483082734316937,16.015801855502602],[-16.483358384682823,16.015167303978405],[-16.48419267293583,16.014257756473075],[-16.484467649983433,16.013532830417475],[-16.484536375444822,16.010188364687313],[-16.484884078644367,16.00666121325502],[-16.48486270854145,16.003769259780782],[-16.48380089185697,15.999167307172709],[-16.48361202411884,15.998897476587553],[-16.483607355425843,15.99826486101161],[-16.4834191557364,15.99808540380692],[-16.483126190017174,15.996370238658637],[-16.482937326099098,15.996100407113994],[-16.48273913284715,15.99456534330661],[-16.48300543088132,15.992665561263376],[-16.48290067257401,15.991129852307514],[-16.483361156047657,15.990222891917536],[-16.48344525445447,15.988957014916299],[-16.483628112603252,15.988413483084198],[-16.4839050646508,15.987959680080317],[-16.48465115611252,15.987773772753286],[-16.484835344145797,15.9874109875997],[-16.48493010616212,15.987591089753229],[-16.485678864625854,15.98776667370121],[-16.485957813611936,15.98758398944697],[-16.485863050720102,15.987403887824069],[-16.486703901168962,15.98739807526605],[-16.487259123228835,15.9866712095991],[-16.487328263757455,15.985200135359186],[-16.48747374934882,15.98508114228904],[-16.487528046805906,15.985132919534564],[-16.48757268633164,15.98500022145539],[-16.48771525562562,15.984883613632993],[-16.487993843699957,15.984948940397318],[-16.4890184260627,15.983817746905029],[-16.489786146560576,15.983189826172808],[-16.489875642727586,15.983066769379223],[-16.49022068775052,15.982854822442905],[-16.490428704032666,15.98230631277942],[-16.490710054428014,15.981919457356646],[-16.491144898718737,15.98149274449164],[-16.491703438407566,15.981217737054129],[-16.492072447419552,15.980582530754521],[-16.492721726522667,15.97994537913811],[-16.493375024544886,15.979850466338421],[-16.493845498281058,15.980299089653851],[-16.494041067869894,15.981472645722675],[-16.49394898482368,15.981654041418677],[-16.49451423159188,15.98228276043516],[-16.4947044379383,15.982733328582716],[-16.494711150568754,15.983637061834505],[-16.49490001612601,15.983906882985693],[-16.494903373086167,15.984358749531715],[-16.495463257641283,15.984264478731005],[-16.495931731213968,15.984441976234347],[-16.495927028241795,15.983809363367428],[-16.4961152235829,15.983988810033619],[-16.496301403209728,15.98389713674745],[-16.496679811618442,15.984527148854498],[-16.496779288088707,15.9853398576151],[-16.497155011132698,15.985608375632566],[-16.4977155702418,15.985604471951502],[-16.49799988689495,15.98614475856118],[-16.49800257841897,15.986506251210624],[-16.49781707020729,15.986688299256112],[-16.497823798566543,15.987592030886384],[-16.498012672248073,15.987861848534033],[-16.498111483893915,15.988584182696012],[-16.497183931289882,15.989494422655271],[-16.497092520810313,15.989766192810254],[-16.49709722929344,15.990398804989303],[-16.497476327014486,15.991119187216098],[-16.497946837732513,15.991567798074355],[-16.49804430585791,15.992109385668805],[-16.497679336998083,15.993286840477854],[-16.49787831415674,15.99491225419457],[-16.49769683762529,15.99563654126225],[-16.49770626224642,15.996901764541382],[-16.497521418152854,15.997174186094137],[-16.49743337123716,15.997897821918325],[-16.497628987943088,15.99907136962649],[-16.49768555856859,16.00666270480345],[-16.497498685980286,16.006664007833592],[-16.497507442583455,16.00783885692985],[-16.49723588772477,16.009015660435537],[-16.497334040325665,16.009647619941344],[-16.497709138637266,16.009825759488795],[-16.497710486229227,16.010006505441705],[-16.497802576394704,16.009825107777356],[-16.49799012581647,16.00991417719783],[-16.497898035794233,16.01009557493024],[-16.498183067613525,16.010726230064865],[-16.498275157604475,16.01054483221773],[-16.49874167361317,16.010451198951987],[-16.49874369648409,16.010722317735876],[-16.498187786032577,16.01135884069569],[-16.498282572725,16.01153893459502],[-16.497815380012447,16.011542194129316],[-16.497826837199966,16.013078534308658],[-16.498015737964074,16.01334834929356],[-16.498763927328298,16.0134335051852],[-16.498767973962973,16.01397574259006],[-16.499428124257513,16.01478453119176],[-16.49944904466487,16.017586089605132],[-16.50010786021831,16.01821412899026],[-16.500117989350677,16.019569721009677],[-16.499748946644093,16.02020494284276],[-16.499284433961517,16.020569698576676],[-16.498546337696716,16.021840139551873],[-16.49855578393702,16.02310535925664],[-16.498936983997854,16.02409684950795],[-16.498949134287425,16.02572355989531],[-16.497837236861812,16.026996610955273],[-16.49663862060521,16.029174037907314],[-16.496081983240675,16.02972018639835],[-16.495056085472754,16.02999847216185],[-16.493939429042808,16.030638895969492],[-16.49365908620238,16.030640848405056],[-16.493474209392545,16.030913268755224],[-16.491704749632778,16.03173898175943],[-16.4913336443354,16.032103073427304],[-16.490029394300244,16.032654405210913],[-16.48984585322187,16.033107569171946],[-16.48938062174358,16.033381933973107],[-16.488826635724546,16.03428955864047],[-16.48845417900883,16.03447289977997],[-16.487901527030377,16.035561268907582],[-16.48753040778304,16.035925355048548],[-16.485943760293924,16.036207489810213]],[[-16.497711160031674,16.010096878416977],[-16.497713181464878,16.01036799733807],[-16.497900057479427,16.01036669382811],[-16.497898035794233,16.01009557493024],[-16.497711160031674,16.010096878416977]],[[-16.49916872076122,16.01758804768888],[-16.499168045970695,16.017497674837024],[-16.498795630122697,16.01768103076477],[-16.498890420838,16.017861123992553],[-16.49916872076122,16.01758804768888]],[[-16.48812788117161,16.01567656255524],[-16.4877541175751,16.015679153242534],[-16.48784488005926,16.015317012282317],[-16.487471117083604,16.01531960242044],[-16.487473125389045,16.015590722479768],[-16.487660007137524,16.015589427468917],[-16.487662685274177,16.01595092083958],[-16.487848228096706,16.01576887896704],[-16.487759474287298,16.016402139934222],[-16.488321461398264,16.016579000093785],[-16.48812788117161,16.01567656255524]],[[-16.48756187998523,16.014957461538796],[-16.48746843940295,16.014958108996996],[-16.48747044765702,16.01522922906576],[-16.48756187998523,16.014957461538796]],[[-16.49555060849459,15.99601299912018],[-16.495737471349642,15.996011698626672],[-16.495828885784583,15.995739928802285],[-16.496015748362076,15.995738628088453],[-16.49629133457727,15.995104064615326],[-16.496379385339896,15.994380428831752],[-16.49627519577145,15.992935108558301],[-16.495987511099198,15.991942954435544],[-16.495972723181815,15.98995474387345],[-16.495873918007273,15.98923240821909],[-16.495685045569335,15.98896258858998],[-16.495672279151943,15.987245496959279],[-16.495483409077423,15.986975676922818],[-16.495383264681507,15.986072594031635],[-16.495102984194613,15.9860745430708],[-16.494914787554812,15.985895095641254],[-16.493980519738212,15.98590158891373],[-16.493702252121263,15.98617465613326],[-16.4934306922727,15.98735145652023],[-16.49343605940048,15.988074443239709],[-16.493625599064856,15.988434638521172],[-16.493636335762183,15.989880611635467],[-16.49328073720756,15.992323287429892],[-16.493096561372504,15.992686078751435],[-16.49301453759767,15.994223073997771],[-16.493768025240264,15.995031239847638],[-16.493676608174095,15.995303009022054],[-16.494616293961222,15.996019499152597],[-16.49461830934975,15.99629061881295],[-16.495179570933143,15.996377092406377],[-16.49555060849459,15.99601299912018]],[[-16.495754956371023,15.985798874968769],[-16.495568103003368,15.985800174670057],[-16.49566287331194,15.98598027136564],[-16.495754956371023,15.985798874968769]],[[-16.49528849456106,15.985892497196634],[-16.495195067815953,15.985893146868625],[-16.495195739419763,15.985983520150523],[-16.49528849456106,15.985892497196634]],[[-16.495744879121254,15.98444327598192],[-16.495651453068444,15.98444392579488],[-16.495652124813052,15.984534299070038],[-16.495744879121254,15.98444327598192]]]}},{"type":"Feature","properties":{"fid":4491.0,"DN":7,"Nature":"Empreinte urbaine"},"geometry":{"type":"Polygon","coordinates":[[[-16.495621229013476,15.980377127599732],[-16.495517732722046,15.979022177388375],[-16.494860412114086,15.97857485625936],[-16.494580141999798,15.978576803728513],[-16.494201752719324,15.977946786075428],[-16.494192361881886,15.976681558537823],[-16.494564039192483,15.976407842643829],[-16.494655448760042,15.976136073464852],[-16.4958706090204,15.976218005961643],[-16.4958719519824,15.976398752630956],[-16.49605812503091,15.976307080082622],[-16.496250342871807,15.977028767234845],[-16.4965332978861,15.977388310972733],[-16.496538000773104,15.978020924040687],[-16.49635384181571,15.978383717002341],[-16.496542703871008,15.978653537070151],[-16.49645062423659,15.978834933581151],[-16.49664419064543,15.97973736644226],[-16.49627721363527,15.980643699122906],[-16.49590418823314,15.980736671751869],[-16.495621229013476,15.980377127599732]],[[-16.495697193273703,15.97802677171217],[-16.4955103471154,15.978028070748808],[-16.4954142386513,15.977667226843824],[-16.49522739280241,15.977668525606337],[-16.495230749117255,15.978120392346124],[-16.495513704144813,15.978479937414944],[-16.495700550722155,15.978478638339663],[-16.495697193273703,15.97802677171217]]]}}]}