{"type":"FeatureCollection","name":"urbanisation-empreinte-2017.geojson","features":[{"type":"Feature","properties":{"fid":940.0,"DN":7},"geometry":{"type":"Polygon","coordinates":[[[-16.496861330538128,16.058997038473247],[-16.49686065495046,16.05890666587399],[-16.497047576261814,16.058905359265893],[-16.496861330538128,16.058997038473247]]]}},{"type":"Feature","properties":{"fid":963.0,"DN":7},"geometry":{"type":"Polygon","coordinates":[[[-16.454329705069792,16.05838631301325],[-16.454234273883912,16.05811582463772],[-16.454514003700904,16.058023546215658],[-16.454516629490552,16.058385043560097],[-16.454329705069792,16.05838631301325]]]}},{"type":"Feature","properties":{"fid":1078.0,"DN":7},"geometry":{"type":"Polygon","coordinates":[[[-16.49422554740247,16.056484877870513],[-16.494130065035442,16.05621441166538],[-16.492342212256144,16.054600080971802],[-16.49252306914481,16.0537854232774],[-16.492892188048202,16.05315020860894],[-16.493263325789755,16.05278611187002],[-16.493729941628228,16.052692481318505],[-16.494193186474863,16.052146985961013],[-16.494941521723508,16.05223214273278],[-16.495882846458578,16.053129346000585],[-16.49588487114294,16.05340046406349],[-16.495510363846613,16.05331270151494],[-16.495418255117762,16.053494099359234],[-16.494483672937616,16.053500621523177],[-16.494299453241904,16.0538634164662],[-16.494212062477644,16.05467742312908],[-16.49449378752649,16.054856212588852],[-16.494599385939296,16.056482269472845],[-16.49422554740247,16.056484877870513]]]}},{"type":"Feature","properties":{"fid":1120.0,"DN":7},"geometry":{"type":"Polygon","coordinates":[[[-16.445580953473918,16.05058256148867],[-16.445580301386297,16.050492186729215],[-16.445952832433928,16.050308914644855],[-16.445954789189773,16.050580038880746],[-16.445580953473918,16.05058256148867]]]}},{"type":"Feature","properties":{"fid":1148.0,"DN":7},"geometry":{"type":"Polygon","coordinates":[[[-16.445849591052312,16.04895392400499],[-16.445848938913272,16.048863549242576],[-16.445942397035708,16.0488629186005],[-16.445849591052312,16.04895392400499]]]}},{"type":"Feature","properties":{"fid":1155.0,"DN":7},"geometry":{"type":"Polygon","coordinates":[[[-16.444073885134973,16.048965898536746],[-16.44407193113105,16.04869477403428],[-16.444353608388205,16.04887363397657],[-16.44426145304525,16.049055013577256],[-16.444073885134973,16.048965898536746]]]}},{"type":"Feature","properties":{"fid":1200.0,"DN":7},"geometry":{"type":"Polygon","coordinates":[[[-16.505562386428846,16.047729288211876],[-16.50555491754136,16.046735192512312],[-16.505648372147984,16.0467345359193],[-16.505562386428846,16.047729288211876]]]}},{"type":"Feature","properties":{"fid":1209.0,"DN":7},"geometry":{"type":"Polygon","coordinates":[[[-16.505460784008747,16.046645476719657],[-16.50545942617845,16.046464732027385],[-16.50555288066309,16.046464075486774],[-16.505460784008747,16.046645476719657]]]}},{"type":"Feature","properties":{"fid":1214.0,"DN":7},"geometry":{"type":"Polygon","coordinates":[[[-16.50536597168947,16.046465388527285],[-16.505364613960726,16.04628464382408],[-16.505458068365492,16.04628398733197],[-16.50536597168947,16.046465388527285]]]}},{"type":"Feature","properties":{"fid":1330.0,"DN":7},"geometry":{"type":"Polygon","coordinates":[[[-16.458420367896817,16.04254221861453],[-16.458419710365956,16.042451844303695],[-16.4585131649763,16.042451208426986],[-16.458420367896817,16.04254221861453]]]}},{"type":"Feature","properties":{"fid":1338.0,"DN":7},"geometry":{"type":"Polygon","coordinates":[[[-16.4582321436902,16.04236274161582],[-16.45823148625193,16.042272367295876],[-16.458417737798563,16.042180721366474],[-16.458419052839293,16.04236146999207],[-16.4582321436902,16.04236274161582]]]}},{"type":"Feature","properties":{"fid":1384.0,"DN":7},"geometry":{"type":"Polygon","coordinates":[[[-16.50532049721554,16.04041043925262],[-16.50531981863942,16.040320066848576],[-16.505413270265812,16.040319410613236],[-16.50532049721554,16.04041043925262]]]}},{"type":"Feature","properties":{"fid":1387.0,"DN":7},"geometry":{"type":"Polygon","coordinates":[[[-16.505413270265812,16.040319410613236],[-16.505412591651947,16.04022903821229],[-16.505506043231915,16.04022838194014],[-16.505413270265812,16.040319410613236]]]}},{"type":"Feature","properties":{"fid":1392.0,"DN":7},"geometry":{"type":"Polygon","coordinates":[[[-16.505506043231915,16.04022838194014],[-16.505505364580294,16.04013800954229],[-16.505598816113842,16.040137353233327],[-16.505506043231915,16.04022838194014]]]}},{"type":"Feature","properties":{"fid":1394.0,"DN":7},"geometry":{"type":"Polygon","coordinates":[[[-16.505598816113842,16.040137353233327],[-16.505598137424467,16.040046980838586],[-16.505691588911592,16.040046324492813],[-16.505598816113842,16.040137353233327]]]}},{"type":"Feature","properties":{"fid":1397.0,"DN":7},"geometry":{"type":"Polygon","coordinates":[[[-16.505691588911592,16.040046324492813],[-16.505690910184466,16.039955952101174],[-16.50578436162517,16.039955295718585],[-16.505691588911592,16.040046324492813]]]}},{"type":"Feature","properties":{"fid":1402.0,"DN":7},"geometry":{"type":"Polygon","coordinates":[[[-16.50578436162517,16.039955295718585],[-16.505783682860294,16.03986492333005],[-16.505877134254575,16.039864266910648],[-16.50578436162517,16.039955295718585]]]}},{"type":"Feature","properties":{"fid":1544.0,"DN":7},"geometry":{"type":"Polygon","coordinates":[[[-16.50686774614185,16.034886563596437],[-16.5068670671149,16.03479619121046],[-16.506960516100726,16.03479553452073],[-16.50686774614185,16.034886563596437]]]}},{"type":"Feature","properties":{"fid":1563.0,"DN":7},"geometry":{"type":"Polygon","coordinates":[[[-16.506770902228602,16.034435358292136],[-16.506768865352054,16.034164241108332],[-16.506862314047726,16.034163584486546],[-16.506770902228602,16.034435358292136]]]}},{"type":"Feature","properties":{"fid":1580.0,"DN":7},"geometry":{"type":"Polygon","coordinates":[[[-16.508916144514213,16.03387801159154],[-16.508911385272334,16.03324540541255],[-16.50900483344748,16.033244747893967],[-16.508916144514213,16.03387801159154]]]}},{"type":"Feature","properties":{"fid":1615.0,"DN":7},"geometry":{"type":"Polygon","coordinates":[[[-16.490402517606483,16.032561434800954],[-16.49040184610008,16.032471061712073],[-16.490495294709454,16.032470412287605],[-16.490402517606483,16.032561434800954]]]}},{"type":"Feature","properties":{"fid":1662.0,"DN":7},"geometry":{"type":"Polygon","coordinates":[[[-16.508989876290528,16.031256556880006],[-16.508989196469713,16.031166184552124],[-16.50908264367306,16.031165527082553],[-16.508989876290528,16.031256556880006]]]}},{"type":"Feature","properties":{"fid":1697.0,"DN":7},"geometry":{"type":"Polygon","coordinates":[[[-16.44254780131774,16.031713723596862],[-16.4435777051726,16.031977932312724],[-16.444324006384058,16.0317921491797],[-16.444694552891757,16.03133775686083],[-16.445163105024545,16.03151535897975],[-16.445258508490987,16.031785854093105],[-16.445912659718278,16.03178144511177],[-16.445911356858076,16.031600695302263],[-16.446191055519165,16.03150843025626],[-16.44619366174437,16.031869929830435],[-16.446474663989555,16.031958414159725],[-16.446475967387872,16.032139163918096],[-16.44694321885605,16.03213601212986],[-16.447038625023122,16.032406506214517],[-16.44722552582531,16.032405245110617],[-16.447601936295584,16.032764221732958],[-16.447515007905746,16.03366860076126],[-16.448356066497638,16.033662922209732],[-16.448358024363102,16.033934046576867],[-16.448545579193294,16.034023158986464],[-16.448655350552105,16.036281896886923],[-16.44848280839461,16.03827140414391],[-16.44876839171532,16.038992507722103],[-16.44952059246624,16.03962007715709],[-16.449523206083164,16.03998157592433],[-16.449246764362705,16.04052571958715],[-16.449251990986994,16.04124871713603],[-16.449533007741397,16.041337196189406],[-16.449534968185738,16.04160832022118],[-16.450193072977452,16.042146143450296],[-16.45047670711723,16.042596119650693],[-16.450484554873277,16.04368061515346],[-16.450114655870014,16.044225392404694],[-16.449933628455188,16.04504002864419],[-16.45002839234752,16.045220145620718],[-16.44928727768701,16.04612894927407],[-16.449295774450867,16.047303819631335],[-16.44901670967352,16.047486464939613],[-16.44902063078677,16.04802871280993],[-16.448836982858918,16.04848184991521],[-16.448557916063844,16.048664494775608],[-16.448839596764405,16.048843348493904],[-16.448840903742184,16.04902409777854],[-16.449869596277185,16.04910751865607],[-16.45043230728997,16.04937484734445],[-16.45043492422648,16.0497363456369],[-16.450717916740516,16.05009594572356],[-16.452211942051658,16.04990506683931],[-16.45230409021762,16.04972368439111],[-16.452773347359333,16.0499916399636],[-16.452958297919373,16.049719249105912],[-16.453517735958332,16.049534696947365],[-16.453515769104985,16.049263573596008],[-16.453795487328655,16.049171297030945],[-16.45398043576156,16.048898905447484],[-16.454168007251567,16.048988011456185],[-16.454166039589108,16.048716888169565],[-16.453979124159247,16.04871815657392],[-16.454071270206473,16.04853677352291],[-16.453884354936697,16.04853804183077],[-16.4538823877161,16.048266918498527],[-16.453694817034677,16.048177812167758],[-16.45369219448616,16.047816314347198],[-16.453967976215804,16.047181791021497],[-16.453966009057282,16.04691066766511],[-16.453777784045588,16.046731186833018],[-16.453772539214516,16.046008191108637],[-16.454143086311973,16.045553782635622],[-16.45413915197954,16.045011535875854],[-16.453951584379578,16.044922429501817],[-16.45394109497772,16.043476437871107],[-16.45412341615729,16.042842548553512],[-16.45420048115974,16.04058255235244],[-16.454571673969184,16.04021851831065],[-16.45494745648189,16.040487105019366],[-16.455321271814586,16.040484567624617],[-16.455504242742077,16.039941051997243],[-16.45615447925584,16.03939436302128],[-16.456153166512514,16.039213614162968],[-16.456525666206947,16.039030326030876],[-16.45652172711783,16.03848807951794],[-16.456707976213774,16.038396435269544],[-16.456613210345875,16.038216321365322],[-16.45680011576526,16.038215051472147],[-16.456890941870103,16.037852918824285],[-16.457264095160912,16.037760004050007],[-16.457449029450935,16.037487610451677],[-16.457812326587657,16.03603907902333],[-16.457998572817818,16.035947433870234],[-16.457996601662405,16.035676310717836],[-16.458458601060496,16.034950138197765],[-16.458534307565948,16.0325093943437],[-16.458810713884255,16.03196524130354],[-16.45871200662714,16.031242881781306],[-16.4588943046536,16.03060898987409],[-16.459454999026583,16.030605175501666],[-16.45973403094551,16.030422519049246],[-16.45973271575147,16.030241770329074],[-16.459919613480483,16.030240498332255],[-16.46039080512859,16.03077956362091],[-16.460577703303493,16.030778291009288],[-16.461050872699687,16.031588477466304],[-16.461243038338647,16.032310198501484],[-16.46209462648572,16.033750454468265],[-16.462099238248403,16.03438307409964],[-16.461913654358753,16.034565096789457],[-16.461924853925137,16.03610145869258],[-16.462114392635254,16.036461681188445],[-16.4622150932999,16.03745516017773],[-16.46203148378903,16.037908305758528],[-16.461381269347065,16.038455010912575],[-16.46138258673694,16.038635759361227],[-16.46091598162483,16.038729318097033],[-16.460353948437593,16.0385523896389],[-16.459700437274325,16.038647218776696],[-16.45951484741764,16.038829239827525],[-16.459427315121054,16.03964324468036],[-16.458684291672743,16.04028095312679],[-16.458597413412637,16.04118533218083],[-16.458226226896944,16.041549372707994],[-16.458414450270237,16.04172884978871],[-16.45813671693344,16.042092254393125],[-16.457949808011733,16.04209352574999],[-16.457858325341633,16.04236528437476],[-16.457954409224968,16.042726146063224],[-16.457768814198847,16.042908165978904],[-16.457956381236468,16.042997269042807],[-16.458140661323064,16.042634500333037],[-16.45851448012642,16.042631957040317],[-16.458611880620513,16.043173566913868],[-16.458425628294908,16.043265213072846],[-16.458330858260954,16.04308510032537],[-16.458332830828034,16.043356223250285],[-16.458051150899923,16.043177381988627],[-16.457865555587386,16.043359402008008],[-16.4578668702321,16.043540150658373],[-16.4580531231007,16.0434485049451],[-16.458147893096644,16.04362861781596],[-16.458057067615613,16.043990750836794],[-16.457776701561908,16.043992657926267],[-16.45768193168399,16.043812544883764],[-16.457402222963257,16.04390482580252],[-16.457213998201553,16.043725347961857],[-16.45721859758604,16.044357968386883],[-16.457499621418556,16.044446436317084],[-16.45731533874611,16.044809204650065],[-16.457695077622414,16.04562003131769],[-16.45770099384251,16.046433400110246],[-16.4574245679055,16.046977552910338],[-16.45723765436942,16.04697882402259],[-16.45686711241366,16.04743323742815],[-16.456492627508478,16.047345404240243],[-16.456027312585586,16.047619702850906],[-16.45575153713289,16.04825422831435],[-16.455850247640594,16.048976588282706],[-16.455572500472364,16.04933999054023],[-16.45529278304338,16.049432269376503],[-16.45529409589203,16.049613018132202],[-16.455481668561788,16.04970212288136],[-16.455573813565337,16.04952073927494],[-16.455762042889084,16.04970021813459],[-16.456042417178647,16.04969831302124],[-16.45632147764682,16.049515658869947],[-16.457069141459876,16.049510575858157],[-16.45706716980502,16.04923945293559],[-16.457346228618324,16.04905679757161],[-16.45743771425558,16.048785039019297],[-16.457811544646486,16.04878249600472],[-16.45772137453666,16.04923500324099],[-16.457909605326996,16.049414480081136],[-16.457914208626008,16.050047099974442],[-16.45810244040175,16.0502265765546],[-16.458104413585083,16.050497699326876],[-16.457918154474626,16.050589345566582],[-16.457827326526246,16.050951478558158],[-16.457922100474402,16.05113159113037],[-16.45810901782651,16.0511303191013],[-16.458298566586294,16.051490543875765],[-16.45830185596139,16.051942415066154],[-16.45867898242072,16.052391741152903],[-16.458683589048846,16.053024360653264],[-16.45849732800012,16.053116007548223],[-16.458592761798283,16.053386493866864],[-16.45831304062213,16.053478776966223],[-16.458223528425616,16.054021658525368],[-16.45794512181917,16.054294689687534],[-16.457385018390656,16.054388879841195],[-16.45719941293318,16.054570900008233],[-16.456638650969303,16.054574714021047],[-16.455696822510877,16.053586949895983],[-16.454950455926863,16.05377277808748],[-16.45476550497056,16.054045170651328],[-16.454768130528468,16.05440666808924],[-16.45514328499406,16.054584877550816],[-16.455147881120162,16.05521749792052],[-16.45468385957762,16.055672543779128],[-16.454031601317084,16.055948109060438],[-16.45394338907846,16.05667173850373],[-16.453666284804765,16.057125513581315],[-16.453856488667224,16.05757611665344],[-16.45376565116618,16.057938248561744],[-16.45414474951275,16.05865870534855],[-16.454331674203143,16.058657436035862],[-16.454426449402863,16.05883754998867],[-16.454800299053787,16.058835010681133],[-16.454892448173773,16.05865362711966],[-16.454987223854108,16.05883374078282],[-16.455174148637663,16.05883247072149],[-16.45517611897182,16.059103593630766],[-16.45592316183047,16.059008137392695],[-16.456393760662483,16.059456831117323],[-16.45686962238229,16.06062851740656],[-16.457340885131334,16.06116758269286],[-16.457155273889263,16.061349603232763],[-16.457157905020313,16.061711100039183],[-16.457346148067906,16.061890576245435],[-16.457720660985874,16.061978405547265],[-16.457718686834717,16.061707283018528],[-16.45809122487666,16.061523989196534],[-16.45808990847645,16.061343240867096],[-16.458556567207978,16.061249684008608],[-16.45855459201946,16.060978561562727],[-16.4590225668102,16.061065752038207],[-16.459212786838545,16.06151634888659],[-16.459683398801257,16.061965034180965],[-16.459687352528668,16.062507278742117],[-16.45913052132827,16.06305334577124],[-16.45847495499769,16.06287705522293],[-16.458383466058276,16.063148814288933],[-16.458666493009204,16.063508400693532],[-16.459041009393147,16.063596227374127],[-16.459329968115362,16.06476917955557],[-16.459612340161193,16.065038390253378],[-16.459986200523613,16.065035840938172],[-16.460080984119276,16.065215951613865],[-16.457179614414084,16.06469344821119],[-16.454002457141648,16.064805428798383],[-16.45288284215004,16.06508416637349],[-16.451859966963443,16.065814136390795],[-16.451677623933936,16.06644802478087],[-16.450931681843976,16.066453081902402],[-16.44877220613631,16.065110226302927],[-16.448863171846817,16.065021029573202],[-16.448763165040663,16.064117916971394],[-16.448949441086707,16.064026277426574],[-16.448946824376787,16.063664779376907],[-16.448758586403176,16.0634852953293],[-16.447763411239002,16.063548655949457],[-16.44749865230352,16.063029920993465],[-16.44644222291344,16.060182465168698],[-16.446489963026956,16.059975851892414],[-16.446301730827322,16.059796365159094],[-16.446204351090316,16.059254748423342],[-16.44603987392912,16.059176610742853],[-16.446016449419812,16.059120894976033],[-16.446008940965076,16.058081139931577],[-16.44637952679258,16.057626742101913],[-16.446561881415718,16.056992857003085],[-16.44693442298824,16.056809582400557],[-16.446930505261427,16.056267334471837],[-16.446182160259404,16.05618200949158],[-16.44552271117392,16.055463428082614],[-16.445237110471066,16.054742322216562],[-16.444769154059728,16.054655099847356],[-16.44401820921033,16.054208267573472],[-16.443826076303118,16.053486529133163],[-16.444011694018553,16.053304519623445],[-16.444005830701553,16.052491146401138],[-16.44447247844339,16.052397621322157],[-16.444471175116842,16.052216871744303],[-16.444658094599497,16.05221561136503],[-16.44465679112108,16.052034861798962],[-16.445212985150945,16.051398456379037],[-16.44577569772738,16.051665797228605],[-16.446242342415147,16.051572268511418],[-16.446333191927867,16.051210138705947],[-16.44604694351602,16.05039865864459],[-16.446512932628224,16.050214754853762],[-16.446697239793487,16.049851993970755],[-16.44538425597742,16.04922820096168],[-16.445850243195515,16.049044298766614],[-16.446131270076755,16.049132781445383],[-16.446126704248165,16.048500158181486],[-16.445846330398755,16.04850205018507],[-16.445848938913272,16.048863549242576],[-16.44528819009123,16.04886733223973],[-16.445099970192206,16.048687843325983],[-16.444820247620147,16.048780108812984],[-16.444725486243435,16.048599989344165],[-16.444445112080377,16.04860187952614],[-16.44425689314223,16.04842238978492],[-16.443602036044325,16.048336423304786],[-16.443507275960748,16.048156303182903],[-16.443134095245476,16.0482491960285],[-16.443039335612703,16.04806907566038],[-16.443504020758933,16.04770442886085],[-16.44312563407282,16.04707432256651],[-16.443038033948973,16.04788832589504],[-16.442759612694967,16.048161338468503],[-16.442292973524136,16.048254859108855],[-16.442287769597815,16.047531859802586],[-16.44210020390001,16.04744274283295],[-16.442097602390056,16.04708124312797],[-16.441535557399284,16.04690426600074],[-16.44143949977681,16.04654339481834],[-16.441531656824782,16.04636201627608],[-16.441718571089627,16.046360758907028],[-16.441714670159257,16.045818509198764],[-16.44152710634342,16.045729391561515],[-16.441434949532095,16.04591077008871],[-16.441247385729305,16.045821652204193],[-16.441155228619067,16.046003030633717],[-16.440968314641296,16.046004287484287],[-16.440966365217868,16.045733162534848],[-16.44077815204971,16.045553669215064],[-16.440144481626625,16.0454049920262],[-16.439522948601546,16.043570754457928],[-16.44067220781705,16.038326100910346],[-16.442337045240926,16.032575804900485],[-16.442525608357943,16.03171655811722],[-16.44254780131774,16.031713723596862]],[[-16.458004343184054,16.062428367261667],[-16.457723293246207,16.062339902241217],[-16.457727899863457,16.06297252142531],[-16.45810241495681,16.063060349869502],[-16.458004343184054,16.062428367261667]],[[-16.446750763873276,16.057262718406413],[-16.446563839854687,16.057263980996968],[-16.446564492676007,16.05735435566002],[-16.446750763873276,16.057262718406413]],[[-16.451475405893255,16.05144649990133],[-16.451472132019383,16.050994627314836],[-16.451002873899398,16.05072666896574],[-16.451001564825418,16.050545919883398],[-16.450533616976237,16.05045870947869],[-16.45063165627165,16.051090698617546],[-16.450445392640887,16.05118233868076],[-16.45035455072569,16.05154446961981],[-16.451290451815215,16.05171888973342],[-16.451475405893255,16.05144649990133]],[[-16.45463726471661,16.049255962899306],[-16.454824836796494,16.049345068278253],[-16.45510455437677,16.049252790044637],[-16.454635296384694,16.04898483967616],[-16.454449036766224,16.04907648292638],[-16.454545118929992,16.049437346167068],[-16.45463726471661,16.049255962899306]],[[-16.454539870398584,16.048714350872107],[-16.454258841376536,16.04862587947961],[-16.454354266941476,16.048896368445796],[-16.454634640282435,16.048894465266866],[-16.454539870398584,16.048714350872107]],[[-16.45472416127609,16.04835158434272],[-16.454536590202594,16.048262478787183],[-16.454538558307622,16.0485336020405],[-16.45472416127609,16.04835158434272]],[[-16.454443788705795,16.04835348757616],[-16.454350331173984,16.048354121905856],[-16.45435098712476,16.048444496331143],[-16.454443788705795,16.04835348757616]],[[-16.44359292103514,16.047071175227728],[-16.44349946365099,16.047071804776937],[-16.44340795915766,16.04734355890872],[-16.44359617630202,16.047523049558663],[-16.44359292103514,16.047071175227728]],[[-16.443406006262684,16.04707243428542],[-16.44331254887022,16.047073063753167],[-16.443313199788943,16.04716343863212],[-16.443406006262684,16.04707243428542]],[[-16.442090448580302,16.046087118874375],[-16.441903534601337,16.046088376546855],[-16.441904835088202,16.046269126433128],[-16.442090448580302,16.046087118874375]],[[-16.45422801780293,16.044378280537458],[-16.454134562115566,16.044378914620324],[-16.454135873484336,16.04455966355441],[-16.45422801780293,16.044378280537458]],[[-16.457680617182497,16.043631796223057],[-16.45758716198707,16.04363243178233],[-16.45758781919362,16.043722806116847],[-16.457680617182497,16.043631796223057]],[[-16.45739959446549,16.043543328435902],[-16.457212684129466,16.043544599261907],[-16.45721334116341,16.04363497361227],[-16.45739959446549,16.043543328435902]],[[-16.45599120190058,16.04264911162487],[-16.45580429228072,16.04265038115417],[-16.455804948641223,16.04274075556887],[-16.45599120190058,16.04264911162487]],[[-16.455143548051463,16.041751078770645],[-16.4548625288717,16.04166260733049],[-16.454865152470585,16.042024105169656],[-16.455143548051463,16.041751078770645]],[[-16.458133430057547,16.041640382754892],[-16.458039975809275,16.041641018434838],[-16.45804063313396,16.041731392767826],[-16.458133430057547,16.041640382754892]],[[-16.46020259128859,16.030600087393665],[-16.460109142270547,16.03060072354955],[-16.460109800050528,16.030691097891786],[-16.46020259128859,16.030600087393665]]]}},{"type":"Feature","properties":{"fid":1742.0,"DN":7},"geometry":{"type":"Polygon","coordinates":[[[-16.47887832010397,16.028574193214215],[-16.4788776539633,16.02848381961798],[-16.478971101205705,16.028483175369598],[-16.47887832010397,16.028574193214215]]]}},{"type":"Feature","properties":{"fid":1764.0,"DN":7},"geometry":{"type":"Polygon","coordinates":[[[-16.48017991459628,16.027661434519576],[-16.48017924790946,16.027571060969],[-16.480272694671704,16.02757041618944],[-16.48017991459628,16.027661434519576]]]}},{"type":"Feature","properties":{"fid":1765.0,"DN":7},"geometry":{"type":"Polygon","coordinates":[[[-16.478497871390584,16.027673033665682],[-16.478497205460698,16.027582660046292],[-16.478684099134245,16.027581371910664],[-16.478497871390584,16.027673033665682]]]}},{"type":"Feature","properties":{"fid":1791.0,"DN":7},"geometry":{"type":"Polygon","coordinates":[[[-16.47241652008309,16.026720697177183],[-16.472415856933228,16.026630323301298],[-16.472509303585664,16.026629681939305],[-16.47241652008309,16.026720697177183]]]}},{"type":"Feature","properties":{"fid":1793.0,"DN":7},"geometry":{"type":"Polygon","coordinates":[[[-16.509045937529258,16.026285420416976],[-16.50904457828572,16.02610467568152],[-16.509138023129776,16.026104018389663],[-16.509045937529258,16.026285420416976]]]}},{"type":"Feature","properties":{"fid":1845.0,"DN":7},"geometry":{"type":"Polygon","coordinates":[[[-16.50920632198716,16.022759583171258],[-16.50920292433759,16.022307721212048],[-16.509296367407295,16.022307064002675],[-16.50920632198716,16.022759583171258]]]}},{"type":"Feature","properties":{"fid":1881.0,"DN":7},"geometry":{"type":"Polygon","coordinates":[[[-16.50891240469673,16.02095410642496],[-16.508911046049807,16.020773361588727],[-16.509004488418007,16.0207727045676],[-16.50891240469673,16.02095410642496]]]}},{"type":"Feature","properties":{"fid":1883.0,"DN":7},"geometry":{"type":"Polygon","coordinates":[[[-16.509004488418007,16.0207727045676],[-16.509003809059035,16.020682332152205],[-16.50909725138086,16.020681675094327],[-16.509004488418007,16.0207727045676]]]}},{"type":"Feature","properties":{"fid":1932.0,"DN":7},"geometry":{"type":"Polygon","coordinates":[[[-16.508711256618074,16.019057599259487],[-16.508708540042605,16.018696109486502],[-16.508895422858835,16.018694795745557],[-16.508711256618074,16.019057599259487]]]}},{"type":"Feature","properties":{"fid":1935.0,"DN":7},"geometry":{"type":"Polygon","coordinates":[[[-16.506889107878486,16.0501601428093],[-16.50679429238027,16.04998005555792],[-16.506513924155477,16.049982027101244],[-16.506413673278185,16.04907896138913],[-16.50613058897414,16.04871944313341],[-16.506220647754887,16.048266924720267],[-16.50593824424778,16.04799777837],[-16.50592941507837,16.046822938220664],[-16.505741826750274,16.046733879285576],[-16.50573843155378,16.046282017611315],[-16.505550843823844,16.04619295845414],[-16.50554948595269,16.046012213761767],[-16.505269801924435,16.04610455556135],[-16.50517499006956,16.045924467239175],[-16.505158022461828,16.043665157909576],[-16.505249439597137,16.043393384470708],[-16.50543634571653,16.043392071776186],[-16.50543091574789,16.04266909276104],[-16.505338820409087,16.04285049386383],[-16.50515191478618,16.04285180643025],[-16.505134950862455,16.040592496430264],[-16.50597126449357,16.039953982831303],[-16.505876455451947,16.039773894525215],[-16.506803497563357,16.03877323226798],[-16.507077057293532,16.037867538206402],[-16.506977494127863,16.037054843836277],[-16.507160318711474,16.036511295995954],[-16.507153526594045,16.03560757235946],[-16.50696391148922,16.03524739642326],[-16.50695508370475,16.034072555435685],[-16.506672022154902,16.03371303568119],[-16.50676139713874,16.033170144707015],[-16.50657450065987,16.033171457742863],[-16.50656907023473,16.032448478419695],[-16.507026804196347,16.03117998201634],[-16.507011189830287,16.029101416375223],[-16.507276592690392,16.02711125332096],[-16.507461446632526,16.026838822874293],[-16.507365285827373,16.026477989729575],[-16.50717771684188,16.02638893031481],[-16.50726844660728,16.026026784057454],[-16.50698200391063,16.025215401232195],[-16.507152604598765,16.02304514934389],[-16.507427505188105,16.0223202004658],[-16.50769493733128,16.020601154223396],[-16.508244727605657,16.01915125543928],[-16.508149928158392,16.018971167134932],[-16.508240654003167,16.01860902066286],[-16.50843228991853,16.01924031451799],[-16.508711935772798,16.01914797170076],[-16.508714652435117,16.019509461457982],[-16.508996336396965,16.019688235530822],[-16.509092495695448,16.02004906819178],[-16.50881692440235,16.020683646146],[-16.50882235872329,16.02140662550952],[-16.508919877565344,16.02194820296791],[-16.509107442852024,16.02203726118409],[-16.50911219920637,16.022669867965316],[-16.508928030385018,16.023032671815123],[-16.509024871207007,16.023483876663207],[-16.50875133417694,16.0243895719468],[-16.50875744903177,16.025202923471557],[-16.509045937529258,16.026285420416976],[-16.50897764018057,16.029629854857518],[-16.50916317350384,16.029447795340964],[-16.509165212984023,16.029718912343778],[-16.5090778847546,16.03053292079261],[-16.508888271982457,16.03017274627938],[-16.508723809118823,16.033156348005416],[-16.508826095418712,16.034330530649],[-16.508643956760377,16.034964451770964],[-16.50874284488598,16.035686772730028],[-16.508465895872124,16.036140606664745],[-16.508570903445428,16.037676278285865],[-16.508482892357712,16.038399914126035],[-16.508296670986226,16.03849160137468],[-16.508300750067757,16.039033835134102],[-16.508676593739512,16.039302321779143],[-16.5086806740656,16.03984455540241],[-16.508961708027606,16.03993295449294],[-16.508780926637222,16.040747620324627],[-16.508883901469247,16.042012174021398],[-16.508704479084674,16.043007584305595],[-16.50871128149615,16.043911306671887],[-16.508897507454687,16.043819618692666],[-16.5088995485024,16.04409073536614],[-16.508712642030577,16.04409205113568],[-16.508807455904666,16.044272137724107],[-16.5086239505008,16.044725314585097],[-16.508456090034983,16.04725705249956],[-16.508552266152083,16.047617883459697],[-16.50827598292044,16.04816209032527],[-16.5082793842573,16.048613951390895],[-16.508001058611242,16.048887041378787],[-16.50809587453844,16.049067128065104],[-16.507910323628437,16.049249187974528],[-16.507912364068517,16.049520304634633],[-16.507728172758974,16.04988310887638],[-16.507448484752903,16.04997545386465],[-16.507449844690264,16.050156198331855],[-16.506889107878486,16.0501601428093]],[[-16.50621589252028,16.047634318600885],[-16.506122437518595,16.04763497547714],[-16.5061231167827,16.047725347786166],[-16.50621589252028,16.047634318600885]],[[-16.50535103762697,16.044477196618562],[-16.505257584059922,16.044477852992152],[-16.505260299019557,16.044839342474052],[-16.50535103762697,16.044477196618562]],[[-16.50544381237641,16.044386167839587],[-16.505350358855797,16.044386824249997],[-16.50535103762697,16.044477196618562],[-16.50544381237641,16.044386167839587]],[[-16.505422771315118,16.041584624143685],[-16.505329319099474,16.041585280433484],[-16.505330676377405,16.041766025218717],[-16.505422771315118,16.041584624143685]],[[-16.506434447296854,16.03940846572125],[-16.506340996139024,16.03940912236539],[-16.50634167513473,16.039499494734518],[-16.506434447296854,16.03940846572125]],[[-16.506526540303607,16.039227064311362],[-16.50643308923428,16.039227720988418],[-16.5064337682634,16.039318093355227],[-16.506526540303607,16.039227064311362]],[[-16.50715013069805,16.035155710511642],[-16.507056681552616,16.035156367298327],[-16.507057360681063,16.03524673967337],[-16.50715013069805,16.035155710511642]]]}},{"type":"Feature","properties":{"fid":1936.0,"DN":7},"geometry":{"type":"Polygon","coordinates":[[[-16.50268962429724,16.038530974489387],[-16.50212756466644,16.03835415863632],[-16.50175037688889,16.037904914436346],[-16.501746315819556,16.037362678981843],[-16.501832997697953,16.03645829863955],[-16.50210996288526,16.036004471968],[-16.50228738453905,16.034737946586795],[-16.502924598556124,16.032474048878647],[-16.503073576637927,16.027411874346047],[-16.503435171358632,16.025782548361203],[-16.503426369718284,16.024607704426884],[-16.503785250133337,16.02261688765064],[-16.50460185480418,16.01935757894788],[-16.50515708570046,16.018630667080874],[-16.505717734833958,16.018626734660764],[-16.506281095999096,16.01898429095869],[-16.506561420933593,16.018982323421604],[-16.506564811896077,16.019434186072072],[-16.506751695584313,16.019432874138513],[-16.506846494089427,16.019612963142077],[-16.506761870383034,16.02078846185497],[-16.506397595473025,16.02205630105321],[-16.506323822104907,16.024677759651123],[-16.50614371616074,16.025582796609267],[-16.506436940978052,16.02729790548583],[-16.50626836865685,16.029739274313368],[-16.505638661214345,16.03299727557718],[-16.505652229904463,16.034804724474352],[-16.505954294568177,16.037694673075915],[-16.50577078715141,16.03814784779803],[-16.505583885949022,16.038149160366853],[-16.505399020284823,16.03842159002777],[-16.504278967136226,16.03861020611138],[-16.50268962429724,16.038530974489387]],[[-16.50470071570599,16.020079904687524],[-16.504607273474512,16.020080559807596],[-16.504607950827793,16.020170932411517],[-16.50470071570599,16.020079904687524]],[[-16.504883535370737,16.019536358755342],[-16.50479009340008,16.01953701393339],[-16.504792125647118,16.01980813173364],[-16.504883535370737,16.019536358755342]],[[-16.506563455498075,16.01925344101425],[-16.5064700137315,16.01925409691227],[-16.506470691886314,16.019344469445468],[-16.506563455498075,16.01925344101425]]]}},{"type":"Feature","properties":{"fid":1941.0,"DN":7},"geometry":{"type":"Polygon","coordinates":[[[-16.508335453327312,16.018789108940666],[-16.50823997508461,16.01851864819737],[-16.50842685777616,16.01851733487847],[-16.508335453327312,16.018789108940666]]]}},{"type":"Feature","properties":{"fid":1945.0,"DN":7},"geometry":{"type":"Polygon","coordinates":[[[-16.508801302277856,16.018605080195034],[-16.508799943940815,16.01842433531004],[-16.508893385220688,16.018423678430942],[-16.508801302277856,16.018605080195034]]]}},{"type":"Feature","properties":{"fid":1957.0,"DN":7},"geometry":{"type":"Polygon","coordinates":[[[-16.508797906467827,16.018153217976636],[-16.508797227318848,16.018062845530594],[-16.508890668430634,16.018062188667095],[-16.508797906467827,16.018153217976636]]]}},{"type":"Feature","properties":{"fid":2089.0,"DN":7},"geometry":{"type":"Polygon","coordinates":[[[-16.49960218250166,16.01306614142409],[-16.499600832936324,16.01288539567961],[-16.499694272035573,16.012884743023967],[-16.49960218250166,16.01306614142409]]]}},{"type":"Feature","properties":{"fid":2094.0,"DN":7},"geometry":{"type":"Polygon","coordinates":[[[-16.49913296280918,16.01279828545556],[-16.499132288247335,16.012707912561982],[-16.49922572728415,16.012707260117242],[-16.49913296280918,16.01279828545556]]]}},{"type":"Feature","properties":{"fid":2101.0,"DN":7},"geometry":{"type":"Polygon","coordinates":[[[-16.499224378089384,16.012526514335462],[-16.499223703498473,16.0124361414434],[-16.49931714240496,16.012435488969647],[-16.499224378089384,16.012526514335462]]]}},{"type":"Feature","properties":{"fid":2132.0,"DN":7},"geometry":{"type":"Polygon","coordinates":[[[-16.498745045086267,16.010903063587868],[-16.498744370783022,16.010812690662263],[-16.498931247122705,16.01081138621986],[-16.498745045086267,16.010903063587868]]]}},{"type":"Feature","properties":{"fid":2135.0,"DN":7},"geometry":{"type":"Polygon","coordinates":[[[-16.498464056241144,16.010814647021185],[-16.498463382068213,16.01072427408318],[-16.498556820211153,16.010723622008033],[-16.498464056241144,16.010814647021185]]]}},{"type":"Feature","properties":{"fid":2289.0,"DN":7},"geometry":{"type":"Polygon","coordinates":[[[-16.485052918727387,16.004219835714824],[-16.485052250876844,16.004129462167384],[-16.485145686526334,16.00412881618562],[-16.485052918727387,16.004219835714824]]]}},{"type":"Feature","properties":{"fid":2489.0,"DN":7},"geometry":{"type":"Polygon","coordinates":[[[-16.509192229880465,15.996008009078917],[-16.509191551543413,15.995917636463403],[-16.50928498234201,15.995916980311543],[-16.509192229880465,15.996008009078917]]]}},{"type":"Feature","properties":{"fid":2497.0,"DN":7},"geometry":{"type":"Polygon","coordinates":[[[-16.49368130762983,15.995935621866149],[-16.49368063626612,15.995845248605063],[-16.49377406769789,15.995844599198037],[-16.49368130762983,15.995935621866149]]]}},{"type":"Feature","properties":{"fid":2507.0,"DN":7},"geometry":{"type":"Polygon","coordinates":[[[-16.509095407603514,15.995556802089132],[-16.509094729330126,15.995466429465774],[-16.50918815992329,15.995465773374002],[-16.509095407603514,15.995556802089132]]]}},{"type":"Feature","properties":{"fid":2511.0,"DN":7},"geometry":{"type":"Polygon","coordinates":[[[-16.509094051061087,15.995376056841637],[-16.50909269453602,15.995195311590999],[-16.509186125003318,15.995194655510922],[-16.509094051061087,15.995376056841637]]]}},{"type":"Feature","properties":{"fid":2563.0,"DN":7},"geometry":{"type":"Polygon","coordinates":[[[-16.508695242118687,15.992034892564124],[-16.50869456418239,15.991944519894496],[-16.50878799315691,15.99194386411709],[-16.508695242118687,15.992034892564124]]]}},{"type":"Feature","properties":{"fid":2568.0,"DN":7},"geometry":{"type":"Polygon","coordinates":[[[-16.496642190172633,15.992028774966656],[-16.496641517651465,15.991938401795394],[-16.49673494714171,15.991937751255929],[-16.496642190172633,15.992028774966656]]]}},{"type":"Feature","properties":{"fid":2572.0,"DN":7},"geometry":{"type":"Polygon","coordinates":[[[-16.496923151407596,15.992117196373817],[-16.497014562901974,15.991845426237516],[-16.497390299170615,15.992113942623456],[-16.49729821527772,15.992295339739133],[-16.496923151407596,15.992117196373817]]]}},{"type":"Feature","properties":{"fid":2582.0,"DN":7},"geometry":{"type":"Polygon","coordinates":[[[-16.508782569487263,15.99122088276295],[-16.50878189154809,15.99113051009014],[-16.508875320140785,15.991129854307244],[-16.508782569487263,15.99122088276295]]]}},{"type":"Feature","properties":{"fid":2603.0,"DN":7},"geometry":{"type":"Polygon","coordinates":[[[-16.49634307610806,15.989500276935841],[-16.496341059296565,15.989229157318862],[-16.496526571094932,15.98904711027501],[-16.496902301219478,15.98931562808311],[-16.49634307610806,15.989500276935841]]]}},{"type":"Feature","properties":{"fid":2621.0,"DN":7},"geometry":{"type":"Polygon","coordinates":[[[-16.497081086801263,15.988229848786506],[-16.497172496787574,15.987958078657197],[-16.497454125054546,15.988136873038709],[-16.497456143220692,15.98840799254475],[-16.497081086801263,15.988229848786506]]]}},{"type":"Feature","properties":{"fid":2629.0,"DN":7},"geometry":{"type":"Polygon","coordinates":[[[-16.496888851681344,15.987508164268869],[-16.496888179249652,15.987417791069902],[-16.49698160663009,15.987417140602103],[-16.496888851681344,15.987508164268869]]]}},{"type":"Feature","properties":{"fid":2631.0,"DN":7},"geometry":{"type":"Polygon","coordinates":[[[-16.497167788824868,15.98732546635668],[-16.497167116275993,15.98723509316774],[-16.49726054355965,15.987234442585992],[-16.497167788824868,15.98732546635668]]]}},{"type":"Feature","properties":{"fid":2632.0,"DN":7},"geometry":{"type":"Polygon","coordinates":[[[-16.49726054355965,15.987234442585992],[-16.497259870973153,15.987144069400149],[-16.497353298210573,15.987143418781706],[-16.49726054355965,15.987234442585992]]]}},{"type":"Feature","properties":{"fid":2663.0,"DN":7},"geometry":{"type":"Polygon","coordinates":[[[-16.497721624903082,15.986417830541994],[-16.497720952145706,15.986327457368416],[-16.497814378984224,15.986326806581994],[-16.497721624903082,15.986417830541994]]]}},{"type":"Feature","properties":{"fid":2730.0,"DN":7},"geometry":{"type":"Polygon","coordinates":[[[-16.508453773803144,16.009660173865086],[-16.50816396367433,16.008396927078458],[-16.507977768723553,16.008488611923337],[-16.507881618825728,16.008127777741752],[-16.50797098543451,16.007584886273058],[-16.507678470027503,16.00596014770905],[-16.50775766546755,16.0040616672317],[-16.5075552040003,16.00198440845732],[-16.508009489658797,16.00026404983414],[-16.508197711564826,16.00044348341143],[-16.508380508481885,15.999899935886159],[-16.508752882568178,15.999716566607086],[-16.50856466095154,15.999537133488763],[-16.509029788190837,15.999262735184125],[-16.509027752975552,15.99899161739679],[-16.509214617439042,15.998990304949674],[-16.50911982833706,15.998810216005834],[-16.509306014110386,15.998718530905908],[-16.509395374963077,15.998175639076074],[-16.509400124760965,15.998808247175894],[-16.509586310382346,15.998716561844109],[-16.50956052529923,15.995282403390997],[-16.509089981537986,15.994833821080281],[-16.509082521151576,15.993839722110906],[-16.509362810652647,15.993837753924401],[-16.509356705958265,15.99302440025667],[-16.508980275711487,15.992665533681972],[-16.50897756336748,15.992304043067556],[-16.50916374346265,15.99221235854975],[-16.5088827781718,15.99212395362198],[-16.50887468290261,15.99104491180361],[-16.509491391530595,15.991538932481603],[-16.51146543686894,15.99158713939983],[-16.511040472472367,15.993283701786034],[-16.511047263168894,15.994187427353607],[-16.510402757239174,15.99545724048785],[-16.51041090385491,15.996541711260802],[-16.510881454647386,15.996990290012127],[-16.510886887924386,15.99771327027688],[-16.51015097622193,15.999254857925472],[-16.510168629485534,16.00160454390208],[-16.510455721427235,16.00250629848656],[-16.51045979669071,16.003048533518914],[-16.510279040995805,16.0038631999383],[-16.510002132956483,16.0043170330872],[-16.5099148097545,16.00513104249292],[-16.510032016443354,16.008293422832143],[-16.50966234500781,16.00883828541103],[-16.509666419829095,16.009380520323447],[-16.509480903885496,16.009562578972535],[-16.50910647642468,16.009474833348975],[-16.508453773803144,16.009660173865086]],[[-16.50806306501865,16.007403485055033],[-16.50796962882878,16.00740414113356],[-16.507970307129476,16.007494513703705],[-16.50806306501865,16.007403485055033]],[[-16.507923514560975,16.001258804517104],[-16.50783008122144,16.00125946029007],[-16.507830759185108,16.00134983291763],[-16.507923514560975,16.001258804517104]],[[-16.50801287970161,16.000715912968403],[-16.507919446618235,16.000716568758584],[-16.507920802581797,16.000897314014573],[-16.50801287970161,16.000715912968403]]]}},{"type":"Feature","properties":{"fid":2798.0,"DN":7},"geometry":{"type":"Polygon","coordinates":[[[-16.467921619570276,16.03822957376631],[-16.46754516474458,16.037870636864568],[-16.467077242985845,16.037783460638746],[-16.46669880733881,16.037153399985893],[-16.46623154830378,16.03715659577639],[-16.466323017551804,16.036884834589273],[-16.466694841232023,16.036611155848945],[-16.46668955332613,16.035888163622268],[-16.46659411934788,16.035617680699342],[-16.466312444500595,16.03543884988079],[-16.46640457387277,16.035257462740237],[-16.466217672013386,16.035258740775188],[-16.46621040422331,16.03426462611224],[-16.46592939223438,16.034176168658085],[-16.465926750050013,16.0338146723448],[-16.46611166874199,16.03354227245474],[-16.46629856901104,16.033540994645165],[-16.46648216542892,16.033087846365394],[-16.467412697346965,16.032539210084607],[-16.467596290446167,16.032086061095963],[-16.468155663832956,16.031901475627855],[-16.46815434092422,16.031720727615422],[-16.468525491268476,16.031356672582987],[-16.46852350648303,16.031085550594526],[-16.469176986750053,16.030990696890118],[-16.46982516900677,16.03017284965353],[-16.470664217032155,16.029895963089416],[-16.47112681934743,16.02926014172441],[-16.471407163128635,16.02925821889375],[-16.471595384754366,16.02943768457709],[-16.472248857432152,16.02934282206594],[-16.472236920684516,16.027716092453307],[-16.472700176597478,16.027170642268345],[-16.47260341346782,16.026719414404923],[-16.472883753513123,16.026717489941518],[-16.47306931997128,16.026535459063286],[-16.473250905088587,16.02581118496921],[-16.473246260776357,16.025178568006186],[-16.472588160159198,16.02464081523549],[-16.47221371427279,16.024553006365675],[-16.472488746738847,16.02382809151451],[-16.47342253651929,16.023731302978646],[-16.473610754161513,16.02391076726536],[-16.474264871424054,16.02390627397642],[-16.47473475423329,16.024264558476908],[-16.475575763159156,16.024258776496502],[-16.476231210505805,16.02443502460302],[-16.476607652143368,16.02479394749614],[-16.47679786862842,16.025244529778686],[-16.476899295984776,16.026328370967818],[-16.477367192920568,16.026415527724204],[-16.477831762316228,16.02605081513524],[-16.478765557683776,16.02595400270457],[-16.479696019874698,16.02540531834781],[-16.480349473541512,16.025310432540262],[-16.48071725502467,16.024494491274147],[-16.48090481251284,16.02458357499327],[-16.48099692401702,16.024402182928053],[-16.481370037920417,16.024309229108372],[-16.482297814890597,16.02339904062202],[-16.48220303533767,16.02321893911263],[-16.482480031673315,16.022765135044235],[-16.482475359209236,16.022132520546087],[-16.482658909704345,16.02167936188855],[-16.48255745608544,16.02059552538872],[-16.482739002778263,16.019871246203948],[-16.482816426083993,16.017701636220632],[-16.4830900768042,16.016795964293195],[-16.483083401794435,16.01589222903295],[-16.48345182553724,16.01516665830056],[-16.483823585586624,16.014892954662518],[-16.484467649983433,16.013532830417475],[-16.484533703948063,16.009826870608368],[-16.484882742884754,16.006480466186467],[-16.484787302649412,16.006209991525925],[-16.485244465767273,16.00485115845934],[-16.485239122171553,16.00412817016325],[-16.484860705318617,16.00349813910129],[-16.484857366699355,16.003046271286422],[-16.484948130867213,16.002684131181216],[-16.485227767938817,16.00259181986699],[-16.484946127672266,16.002413010484936],[-16.484943456805485,16.00205151621222],[-16.485315859789324,16.00186818544663],[-16.485127655043513,16.001688730211228],[-16.485026208038686,16.00060489320408],[-16.48455903791254,16.000608121755633],[-16.484555700606425,16.000156253757442],[-16.48436883294577,16.000157544855515],[-16.48417796164891,15.999616594075366],[-16.48399042728675,15.999527511172925],[-16.483795555451,15.998444318020118],[-16.483416488375596,15.997723909137846],[-16.483405819615246,15.996277930335824],[-16.483122856861666,15.995918370188186],[-16.482928661373922,15.994925548919694],[-16.48310619268421,15.993659027541282],[-16.483006763739613,15.992846308718153],[-16.483927065513516,15.990942012765466],[-16.483919064661933,15.989857528251669],[-16.484199351849277,15.989855593342298],[-16.48456973306471,15.98940114444857],[-16.484757924859487,15.989580601385583],[-16.485033541241428,15.988946049702413],[-16.486432298561844,15.988574870297459],[-16.486804008155616,15.988301165348517],[-16.486892760612232,15.987667903974542],[-16.487263799838257,15.987303824804405],[-16.48735321879015,15.986760936943137],[-16.487540073751497,15.986759644303302],[-16.487538069164287,15.986488523526184],[-16.487257787093217,15.986490462390508],[-16.48725578292188,15.986219341571738],[-16.486974833266892,15.986130906417074],[-16.487064920713973,15.985678392217233],[-16.487344533613847,15.985586080091322],[-16.487341600063143,15.985189227557642],[-16.487676741660927,15.98491511431192],[-16.487900417081363,15.984949586863435],[-16.488272786634674,15.984766253601755],[-16.48845696559086,15.984403466033504],[-16.488829333583553,15.984220131927518],[-16.4888279962536,15.984039384807229],[-16.48923127235649,15.983643659328864],[-16.489552564266724,15.983380873781144],[-16.490129939000695,15.983216963856586],[-16.49022068775052,15.982854822442905],[-16.490407538840877,15.98285352761942],[-16.490498286975736,15.982491386133134],[-16.490869979906275,15.982217675426655],[-16.491053482498213,15.981764512658328],[-16.491704778070645,15.981398483984394],[-16.49254560118862,15.981392650717227],[-16.492637015212466,15.981120882092787],[-16.49310145659425,15.98075614618305],[-16.493100115733895,15.980575399357473],[-16.493286964462502,15.980574102212747],[-16.493569920099315,15.980933649762438],[-16.49357193207651,15.981204769932328],[-16.493759452100413,15.981293845708805],[-16.49385757244617,15.98192581045774],[-16.49461168383644,15.982824351208778],[-16.494615039909828,15.983276217859867],[-16.49433878989397,15.983820405591407],[-16.494344159035183,15.984543392247254],[-16.494625108774866,15.9846318176953],[-16.494626451363292,15.984812564326665],[-16.494440270031582,15.984904236291829],[-16.49435087084856,15.985447125496359],[-16.494071933262934,15.985629819779552],[-16.494073275442826,15.985810566439968],[-16.493699568380737,15.98581316276011],[-16.493609496081234,15.986265678472519],[-16.49342331292093,15.986357349698824],[-16.493424654582586,15.986538096400702],[-16.493237800329144,15.986539394135802],[-16.493333910665168,15.98690023869828],[-16.493148397529325,15.987082283098722],[-16.493153763547646,15.987805269929664],[-16.493343973304114,15.988255838872869],[-16.493357391659583,15.990063305497262],[-16.493181268706188,15.991510576648837],[-16.492907017913165,15.99232588340096],[-16.492911714027226,15.992958496642716],[-16.492726195384737,15.993140541087653],[-16.492730891182088,15.993773154333887],[-16.492919094060234,15.993952603087655],[-16.49320810996605,15.99512550876011],[-16.493679293551587,15.995664502080535],[-16.493589218808214,15.996117017763982],[-16.493776081927788,15.996115718967348],[-16.493868170572984,15.995934323003786],[-16.49396294503017,15.996114420008372],[-16.493961602038112,15.995933673511725],[-16.494148464955472,15.995932374405845],[-16.494622340242913,15.996832858112437],[-16.495182931280286,15.99682895837144],[-16.495924334187478,15.996010397970826],[-16.496391491206747,15.996007145620949],[-16.496569609627517,15.994830993508565],[-16.496849902125344,15.994829041518928],[-16.496845865758637,15.994286802672185],[-16.497220260906754,15.994374572671628],[-16.497498533665734,15.99410150053741],[-16.497691452506686,15.994913556462128],[-16.497694818173496,15.995365421968108],[-16.497418563223963,15.995909613773991],[-16.497520745008615,15.997083813002499],[-16.49724717983194,15.997989497131572],[-16.497366866332175,16.00151339607556],[-16.497181344883064,16.00169544455731],[-16.497201542639754,16.00440663622516],[-16.497389086563963,16.00449570666782],[-16.497304405433823,16.00567120743083],[-16.497493971187918,16.006031396726677],[-16.497500033102604,16.006844753857052],[-16.497417373645224,16.00829137345527],[-16.49714110332624,16.008835565851776],[-16.497520915702722,16.00964631681829],[-16.497895340274322,16.009734083055392],[-16.49799012581647,16.00991417719783],[-16.49771924599723,16.011181354058852],[-16.498278528049127,16.010996696946485],[-16.498370618051894,16.010815299059573],[-16.49846540459994,16.01099539289484],[-16.49790881856358,16.011541542303707],[-16.497910166487344,16.011722288211228],[-16.49735020832819,16.011816571577693],[-16.497164678195443,16.011998620688683],[-16.497168046464758,16.012450485586687],[-16.497638610855557,16.01289909206245],[-16.49829403348294,16.013075274445328],[-16.498296056098994,16.01334639321883],[-16.49894878259308,16.01316108182835],[-16.499040198250203,16.01288931076021],[-16.49932051561268,16.012887353402746],[-16.49931781703787,16.01252586185784],[-16.49941260534483,16.01270595510587],[-16.49959813385744,16.012523904181197],[-16.499509418061216,16.013157166921786],[-16.498951480616583,16.01352257341319],[-16.49895485324302,16.013974437876538],[-16.499235846795,16.0140628533802],[-16.499520889422776,16.014693505675247],[-16.499256088729208,16.016774039374745],[-16.49935155418532,16.017044505263893],[-16.499166696402593,16.017316929130946],[-16.498700165012313,16.017410564605697],[-16.498331795381876,16.01813615704915],[-16.498245772423786,16.019130911012404],[-16.49843333107758,16.019219979213773],[-16.498618866038424,16.019037928653493],[-16.49889919203683,16.019035971115418],[-16.499269585509523,16.018581496310794],[-16.499452419312522,16.018037953794497],[-16.49963862729139,16.017946275334825],[-16.499826860407964,16.018125715189676],[-16.499830911162015,16.018667952093203],[-16.500021170884203,16.019118510108516],[-16.499933130654842,16.019842145584924],[-16.499469294169216,16.020297274446044],[-16.49928240904962,16.020298580108317],[-16.499284433961517,16.020569698576676],[-16.498820594345293,16.021024826274132],[-16.498361474932754,16.02211256307719],[-16.49893968394139,16.024458340727193],[-16.498855014170974,16.0256338399388],[-16.498578728326233,16.026178035039845],[-16.498113525730652,16.02645241658235],[-16.497557574097193,16.027088940890664],[-16.49728330612032,16.027904253251602],[-16.496912892545033,16.028358726093494],[-16.496914915329114,16.028629844653526],[-16.49635895420152,16.029266366566475],[-16.496453749247653,16.029446460404042],[-16.49626820338398,16.029628509907216],[-16.494869864351525,16.030090147673423],[-16.49459154227254,16.030363220064828],[-16.49272864468517,16.031189591917343],[-16.49263654168367,16.031370988278226],[-16.491797525746808,16.031647958758057],[-16.4913336443354,16.032103073427304],[-16.490401174597967,16.032380688622396],[-16.490216963148146,16.03274347972637],[-16.48984451066667,16.03292682295663],[-16.4896609689624,16.033379986804707],[-16.48938129283014,16.033472307096474],[-16.4891063132837,16.03419723896116],[-16.488178524335872,16.035107457631028],[-16.487991624458417,16.035108754628173],[-16.48799363608206,16.035379874124125],[-16.48771462670648,16.03556256569903],[-16.487715967575014,16.035743312045646],[-16.487344847654462,16.036107397916286],[-16.487064496327736,16.036109342379152],[-16.48687893558439,16.03629138489061],[-16.486131331116372,16.0362965677448],[-16.485473160332802,16.035758861031617],[-16.48509868962787,16.035671076970036],[-16.484814993027992,16.035221151973683],[-16.48396859197719,16.0345039873579],[-16.4836842311205,16.033963687112756],[-16.483119523814697,16.033425325325553],[-16.48283917569729,16.03342726394989],[-16.48265094082859,16.033247809360596],[-16.48264826867499,16.03288631574695],[-16.482084902712455,16.03252869755277],[-16.482083567200206,16.03234795068896],[-16.481235853334123,16.031450026311024],[-16.481234518681408,16.031269279359392],[-16.480859390580825,16.03109111350272],[-16.48019791675121,16.030101520087612],[-16.479256773497717,16.029204231005934],[-16.47897176738843,16.028573548962015],[-16.479254108168476,16.02884273669947],[-16.47990757321814,16.02874785130891],[-16.480091801099285,16.028385067669166],[-16.48046558965364,16.028382488331886],[-16.480651150047148,16.02820045136811],[-16.480649149291967,16.027929330785575],[-16.480459588183408,16.027569126508315],[-16.480272694671704,16.02757041618944],[-16.480271361226738,16.027389669093573],[-16.479710681093984,16.027393537114957],[-16.47971201403433,16.027574284256715],[-16.478122752305108,16.027494862194043],[-16.47831164346595,16.027764695272516],[-16.478124749590144,16.02776598309806],[-16.47802997120235,16.027585879673627],[-16.477843077469227,16.027587167239865],[-16.47774630269274,16.027135942700422],[-16.477463300937487,16.026776378896223],[-16.476809840402368,16.02687125641284],[-16.476066921323834,16.02750901728578],[-16.476074899591687,16.028593501867086],[-16.475616303547955,16.029771574833372],[-16.47533662418437,16.029863876954174],[-16.4745015698823,16.030683023809274],[-16.47450289841848,16.0308637713219],[-16.474130432449765,16.031047088198257],[-16.473762613530745,16.031863020942225],[-16.473019666744797,16.03250077333106],[-16.47228600276249,16.034403757007997],[-16.471917507821967,16.035129313658842],[-16.471546357788515,16.035493374509198],[-16.47145622252197,16.035945884991676],[-16.47108440723198,16.036219571363272],[-16.471085733172288,16.03640031906152],[-16.47043422499453,16.036766301553374],[-16.470250635184062,16.0372194526042],[-16.469970942641083,16.037311748737952],[-16.469507657809306,16.037857195104685],[-16.46857644711729,16.038315467862887],[-16.467921619570276,16.03822957376631]],[[-16.485656044030133,16.03521532662156],[-16.485562593935892,16.035215974045673],[-16.485563263383177,16.035306347310893],[-16.485656044030133,16.03521532662156]],[[-16.483963242548242,16.033781000635557],[-16.483776343547895,16.0337822938555],[-16.483871130297665,16.033962393958856],[-16.483963242548242,16.033781000635557]],[[-16.48377567497264,16.033691920503994],[-16.483588107552507,16.033602840193552],[-16.483589444530462,16.033783586912698],[-16.48377567497264,16.033691920503994]],[[-16.471694136425644,16.030160034496625],[-16.471132783655733,16.030073506852958],[-16.471134109104167,16.030254254650643],[-16.470947874950006,16.030345910323273],[-16.47150856555337,16.030342064510226],[-16.471603339866892,16.030522171153947],[-16.471694136425644,16.030160034496625]],[[-16.488037788822165,16.01612907691855],[-16.487850906603747,16.01613037230065],[-16.487947696155334,16.016581591260007],[-16.488134578785367,16.016580295758178],[-16.488037788822165,16.01612907691855]],[[-16.488121853685428,16.014863202605312],[-16.488028413170856,16.014863850303488],[-16.488029082832398,16.014954223638252],[-16.488121853685428,16.014863202605312]],[[-16.48550940868773,16.00277062883442],[-16.4852297715372,16.002862940524018],[-16.485231107290826,16.003043687624775],[-16.485511412689554,16.003041749452187],[-16.48550940868773,16.00277062883442]],[[-16.497500552684848,15.9943726198878],[-16.497407122096458,15.994373270856329],[-16.497407795069492,15.994463643975422],[-16.497500552684848,15.9943726198878]],[[-16.484664495952746,15.989581246627854],[-16.484571067041735,15.98958189182956],[-16.48457173403665,15.989672265518877],[-16.484664495952746,15.989581246627854]]]}}]}