{"type":"FeatureCollection","name":"urbanisation-empreinte-2020.geojson","features":[{"type":"Feature","properties":{"fid":1250.0,"DN":7},"geometry":{"type":"Polygon","coordinates":[[[-16.457721977107642,16.062159153895813],[-16.457812808544098,16.061797020879016],[-16.45846573730621,16.061611817227217],[-16.45856117612824,16.061882303021438],[-16.45837622384217,16.062154698718405],[-16.457721977107642,16.062159153895813]]]}},{"type":"Feature","properties":{"fid":1269.0,"DN":7},"geometry":{"type":"Polygon","coordinates":[[[-16.457249395185492,16.06143934137865],[-16.45724544833674,16.060897096172713],[-16.457617327488602,16.060623429059483],[-16.45761930136214,16.060894551627882],[-16.457433032739775,16.060986198177243],[-16.457435664309504,16.06134769495107],[-16.457623907214014,16.061527170926585],[-16.45753241754192,16.06179892970637],[-16.457249395185492,16.06143934137865]]]}},{"type":"Feature","properties":{"fid":1299.0,"DN":7},"geometry":{"type":"Polygon","coordinates":[[[-16.496770572059035,16.059359182124638],[-16.49676719428832,16.0589073191169],[-16.496952764361613,16.058725267397175],[-16.496950061919993,16.05836377700142],[-16.497136982717002,16.058362470358247],[-16.49723179457408,16.05854256215178],[-16.49695749380045,16.059357875559364],[-16.496770572059035,16.059359182124638]]]}},{"type":"Feature","properties":{"fid":1305.0,"DN":7},"geometry":{"type":"Polygon","coordinates":[[[-16.456202891884942,16.05891585673259],[-16.456201577414188,16.058735108206815],[-16.456386530076884,16.058462714321376],[-16.456759721231904,16.058369797406716],[-16.45685647093493,16.058821032833407],[-16.456483936385006,16.059004324229097],[-16.456202891884942,16.05891585673259]]]}},{"type":"Feature","properties":{"fid":1326.0,"DN":7},"geometry":{"type":"Polygon","coordinates":[[[-16.496946008386914,16.057821541384126],[-16.49694533281316,16.057731168778478],[-16.49703879291883,16.05773051550435],[-16.496946008386914,16.057821541384126]]]}},{"type":"Feature","properties":{"fid":1336.0,"DN":7},"geometry":{"type":"Polygon","coordinates":[[[-16.49685187270317,16.057731822011853],[-16.496851197175868,16.05764144940155],[-16.496944657243716,16.05764079617204],[-16.49685187270317,16.057731822011853]]]}},{"type":"Feature","properties":{"fid":1362.0,"DN":7},"geometry":{"type":"Polygon","coordinates":[[[-16.49591659626033,16.05764797945537],[-16.495913220795444,16.057196116198647],[-16.49600870608812,16.057466581340773],[-16.496195626128525,16.05746527558998],[-16.496196976580244,16.057646020867104],[-16.49591659626033,16.05764797945537]]]}},{"type":"Feature","properties":{"fid":1367.0,"DN":7},"geometry":{"type":"Polygon","coordinates":[[[-16.49666157529826,16.057281265258265],[-16.496660224459628,16.057100520013506],[-16.49675368428326,16.057099866888713],[-16.49666157529826,16.057281265258265]]]}},{"type":"Feature","properties":{"fid":1387.0,"DN":7},"geometry":{"type":"Polygon","coordinates":[[[-16.49526035095614,16.05738143003558],[-16.49525630225858,16.05683919394859],[-16.495536681531217,16.056837236320423],[-16.495722251071996,16.05665518570125],[-16.495723601024768,16.05683593103124],[-16.49553735642979,16.056927608991963],[-16.495634190989033,16.057378819690427],[-16.49526035095614,16.05738143003558]]]}},{"type":"Feature","properties":{"fid":1429.0,"DN":7},"geometry":{"type":"Polygon","coordinates":[[[-16.49628638512199,16.057103132105212],[-16.496284359402033,16.05683201418574],[-16.496003305127836,16.05674360013885],[-16.495999254588597,16.05620136420428],[-16.496276932094034,16.055837915086936],[-16.496464525864194,16.05592698187243],[-16.496469928199673,16.05664996297647],[-16.4966575228341,16.05673902951452],[-16.496660224459628,16.057100520013506],[-16.49628638512199,16.057103132105212]]]}},{"type":"Feature","properties":{"fid":1517.0,"DN":7},"geometry":{"type":"Polygon","coordinates":[[[-16.494039302315386,16.056576554561385],[-16.494037279706824,16.056305436349476],[-16.493661419339606,16.056036925473002],[-16.493660071318313,16.05585617995883],[-16.493473152562345,16.05585748337018],[-16.49328353847236,16.055497295518983],[-16.49234288561457,16.054690453794343],[-16.49233951886541,16.05423858967374],[-16.49270729213867,16.05342262959369],[-16.493448894155016,16.052604063297718],[-16.493729267732476,16.05260210853649],[-16.494100402894883,16.052238010543714],[-16.494099054813713,16.0520572650019],[-16.494847389713374,16.052142422135105],[-16.495410159088816,16.05240962684256],[-16.4960684125263,16.05294729533872],[-16.496163895475362,16.053217760669124],[-16.49644426956289,16.0532158022826],[-16.49644697017894,16.053577292935604],[-16.495886895866075,16.05367158211929],[-16.495889595557244,16.05403307284931],[-16.49607786244401,16.054212512818683],[-16.496451021232325,16.054119528891434],[-16.49645574765737,16.054752137470675],[-16.4958042361089,16.05511819763667],[-16.49570740272878,16.054666986863097],[-16.495524534093462,16.055210528097756],[-16.495244831790764,16.055302858214553],[-16.495247530612392,16.055664348996014],[-16.494969176726528,16.055937424219334],[-16.494978621556,16.057202641984208],[-16.494039302315386,16.056576554561385]]]}},{"type":"Feature","properties":{"fid":1552.0,"DN":7},"geometry":{"type":"Polygon","coordinates":[[[-16.45044670126788,16.05136308779707],[-16.45044604695229,16.05127271323931],[-16.45053950600763,16.051272080500237],[-16.45044670126788,16.05136308779707]]]}},{"type":"Feature","properties":{"fid":1620.0,"DN":7},"geometry":{"type":"Polygon","coordinates":[[[-16.452772036751643,16.049810891011255],[-16.452771381454074,16.049720516533917],[-16.453051100725997,16.049628240863935],[-16.453052411569672,16.049808989796894],[-16.452772036751643,16.049810891011255]]]}},{"type":"Feature","properties":{"fid":1640.0,"DN":7},"geometry":{"type":"Polygon","coordinates":[[[-16.505666706945295,16.049174588724576],[-16.5056646695895,16.04890347177462],[-16.50575812520243,16.048902815047494],[-16.505666706945295,16.049174588724576]]]}},{"type":"Feature","properties":{"fid":1644.0,"DN":7},"geometry":{"type":"Polygon","coordinates":[[[-16.457441001105426,16.049236910497346],[-16.45744034372706,16.049146536203306],[-16.457533801499554,16.04914590049569],[-16.457441001105426,16.049236910497346]]]}},{"type":"Feature","properties":{"fid":1674.0,"DN":7},"geometry":{"type":"Polygon","coordinates":[[[-16.505569176781798,16.048633011492278],[-16.50556781867652,16.048452266842506],[-16.505661274083227,16.04845161017557],[-16.505569176781798,16.048633011492278]]]}},{"type":"Feature","properties":{"fid":2236.0,"DN":7},"geometry":{"type":"Polygon","coordinates":[[[-16.457849123945326,16.04110004361292],[-16.457848466734212,16.041009669266888],[-16.457941920696225,16.041009033694735],[-16.457849123945326,16.04110004361292]]]}},{"type":"Feature","properties":{"fid":2283.0,"DN":7},"geometry":{"type":"Polygon","coordinates":[[[-16.50886689643136,16.039752867738635],[-16.508866216286325,16.03966249547707],[-16.508959667453208,16.039661837722313],[-16.50886689643136,16.039752867738635]]]}},{"type":"Feature","properties":{"fid":2480.0,"DN":7},"geometry":{"type":"Polygon","coordinates":[[[-16.462207844299556,16.03646104393266],[-16.462111098013892,16.036009810117587],[-16.461832061210345,16.036192470037452],[-16.462015669959708,16.035739324650493],[-16.46220389051408,16.03591879866795],[-16.462577696119308,16.03591624932857],[-16.462580332632704,16.03627774611439],[-16.462207844299556,16.03646104393266]]]}},{"type":"Feature","properties":{"fid":2885.0,"DN":7},"geometry":{"type":"Polygon","coordinates":[[[-16.509159094660767,16.028905561314055],[-16.509157055297884,16.028634444289956],[-16.509250501314963,16.028633786848236],[-16.509159094660767,16.028905561314055]]]}},{"type":"Feature","properties":{"fid":2984.0,"DN":7},"geometry":{"type":"Polygon","coordinates":[[[-16.44273730187876,16.032073966578867],[-16.443578355565585,16.032068307308073],[-16.44422990547551,16.031702403493007],[-16.444415504348598,16.031520394959408],[-16.44440899706933,16.030616645259272],[-16.444594594847775,16.030434636648604],[-16.445043616555548,16.027900990392926],[-16.44532070674289,16.027447226988773],[-16.445601051224664,16.02744533808532],[-16.445882698146224,16.027624198697623],[-16.445885954412176,16.028076073388423],[-16.44607545670048,16.02843631332832],[-16.447011246031934,16.028610761669697],[-16.447200750843667,16.028971000390218],[-16.447575850137277,16.029149227983247],[-16.447111865109,16.0296042549593],[-16.44721052972297,16.030326623441763],[-16.44786402337794,16.03023183406038],[-16.448240430470904,16.030590809873456],[-16.44805483614658,16.030772821377536],[-16.448062012314143,16.03176694442265],[-16.44778296666009,16.031949586694214],[-16.447694082291612,16.032582841292133],[-16.44854101028072,16.03339053551007],[-16.448544273768846,16.03384240942571],[-16.448733134179264,16.034112271217545],[-16.44876708566374,16.03881175826283],[-16.44905071138982,16.03926173713745],[-16.449519939072445,16.03952970246331],[-16.44953104733462,16.041066072150546],[-16.45000224107967,16.041605159956294],[-16.450283258592485,16.041693637954534],[-16.45057016212568,16.04259548723079],[-16.450576702301618,16.04349923345348],[-16.450300259548964,16.044043378466817],[-16.45030287533131,16.04440487695996],[-16.44965587470646,16.045403423793736],[-16.449476805743032,16.046489183715583],[-16.449289892000763,16.0464904478597],[-16.449114088388423,16.048028080816735],[-16.449586606740358,16.04874791717642],[-16.449773522563266,16.048746652600627],[-16.44986828836447,16.048926769455427],[-16.45033492408827,16.04883323247929],[-16.450710064414682,16.049011450981197],[-16.45099371073256,16.04946142532324],[-16.451461001629927,16.049458260373548],[-16.451275394509924,16.049640275554342],[-16.451555769275977,16.049638376317635],[-16.45192763752102,16.049364719891287],[-16.452488386081743,16.049360919408098],[-16.452583809762896,16.049631409313342],[-16.452770070871487,16.049539767576846],[-16.452678578470596,16.04981152466792],[-16.45249166189596,16.049812791859043],[-16.45258970679581,16.050444779655823],[-16.452964851925756,16.05062299376889],[-16.45334262010662,16.05116270494374],[-16.453809914482655,16.05115953454574],[-16.454181125964507,16.050795499852594],[-16.454175878278306,16.050072504531816],[-16.454456909359514,16.050160975857253],[-16.454641201493548,16.049798209324354],[-16.454546431104735,16.049618094982936],[-16.454360170875432,16.049709738202576],[-16.454168663147428,16.04907838588348],[-16.454354922917386,16.048986742866365],[-16.454451004857997,16.049347606169725],[-16.454638576958832,16.049436711710804],[-16.454824836796494,16.049345068278253],[-16.45463135983397,16.048442593208605],[-16.454067991105255,16.04808490133614],[-16.454066023694775,16.04781377801463],[-16.45443919687282,16.0477208666034],[-16.45443591711778,16.04726899445638],[-16.454152922802592,16.046909399411078],[-16.45414243057943,16.04546340817762],[-16.454327375535364,16.045191016524818],[-16.454412961764422,16.044105888876366],[-16.454598561109297,16.043923871543797],[-16.454879583462628,16.044012343059975],[-16.45515863766162,16.043829690896306],[-16.455155357123022,16.04337781873048],[-16.455432441579603,16.0429240430111],[-16.45599382770455,16.04301060924886],[-16.456272222869924,16.042737581421466],[-16.456082687268974,16.042377353584193],[-16.45496057489928,16.042294594218635],[-16.455050093626877,16.041751713151626],[-16.454394601175753,16.041575403718294],[-16.454388044618376,16.04067165886948],[-16.455136988042774,16.04084733423836],[-16.455509491727234,16.04066404757196],[-16.455508179455798,16.040483298683],[-16.455787884630467,16.040391020530894],[-16.45653026200174,16.039662946926825],[-16.45680536882705,16.038938046744953],[-16.456802085631974,16.03848617470535],[-16.45708113060718,16.038303520727688],[-16.457079817122782,16.03812277192579],[-16.457266722416044,16.038121501633128],[-16.457543138709443,16.03757734957729],[-16.457535912807607,16.03658323126578],[-16.458368435896944,16.035402645634452],[-16.45844020048209,16.032419655452088],[-16.45870674935083,16.030519886606516],[-16.458892332979307,16.030337866695543],[-16.459172679806144,16.030335959726333],[-16.459170707791102,16.030064836574645],[-16.458983152917284,16.029975733512504],[-16.45916807849652,16.029703339028057],[-16.459917640468582,16.02996937526873],[-16.459918955805644,16.03015012397853],[-16.46048359626571,16.03068855300908],[-16.460486228100663,16.0310500503098],[-16.460767891917744,16.031228889798324],[-16.460865290139374,16.031770499158696],[-16.461147613625116,16.03203971231455],[-16.461245013445236,16.032581321345113],[-16.461622105761847,16.033030645507278],[-16.461624740053452,16.03339214254495],[-16.46181295789818,16.033571617155538],[-16.461823497218898,16.035017605034284],[-16.46201171688123,16.035197079302662],[-16.462015669959708,16.035739324650493],[-16.4617359746737,16.035831610194116],[-16.461645158096328,16.036193744160087],[-16.461832061210345,16.036192470037452],[-16.46192880700371,16.03664370401587],[-16.462116369458585,16.036732803821515],[-16.462217070388405,16.037726282773498],[-16.461937372527114,16.037818568785802],[-16.461103545741988,16.038818418647768],[-16.46072973448089,16.038820965865966],[-16.460260495721236,16.03855302616757],[-16.45969977933483,16.038556844484816],[-16.459514189553914,16.03873886552967],[-16.45933451967919,16.039734255144793],[-16.459147613055528,16.039735527364034],[-16.458404588315183,16.040373234937366],[-16.458407875528547,16.040825106574157],[-16.457473336771322,16.040831462423846],[-16.457480564379907,16.041825580370006],[-16.457667473091007,16.041824309442852],[-16.457670758956475,16.042276181167416],[-16.457019861417777,16.042732500668546],[-16.456938230913778,16.04435987442221],[-16.457126456096226,16.04453935246602],[-16.457034971454874,16.044811110864032],[-16.457315995880908,16.044899578985646],[-16.457321253110376,16.045622573641978],[-16.45750947989255,16.04580205120242],[-16.457607537341822,16.0464340357863],[-16.457328482239447,16.04661669121218],[-16.457236997180203,16.046888449701346],[-16.45639720006375,16.04707491636623],[-16.455938451982373,16.048252958399914],[-16.45594304870827,16.04888557891839],[-16.45547904252755,16.049340625400042],[-16.455481012046942,16.04961174851221],[-16.45576335618407,16.04988096684795],[-16.456883539820858,16.049692595481666],[-16.457254742761943,16.0493285560987],[-16.45781680500437,16.049505490239582],[-16.457820092864498,16.04995736161079],[-16.458009639830475,16.0503175868138],[-16.45745151973009,16.050682899094813],[-16.457454149554156,16.05104439621269],[-16.458110333361855,16.05131106760119],[-16.45886524272795,16.05230009415655],[-16.458782313885024,16.05374671789133],[-16.458505224595115,16.054200498111534],[-16.457478478610618,16.054388243955827],[-16.45710661007804,16.054661910040757],[-16.456732768600254,16.054664452731025],[-16.456073946953204,16.05403628073089],[-16.45523149259782,16.053861247910397],[-16.454858308718286,16.053954161564157],[-16.454675326544702,16.054497677154284],[-16.454862903754222,16.054586782051423],[-16.454675982906714,16.054588051514767],[-16.4544916871953,16.05495081827926],[-16.454496281374084,16.055583438811173],[-16.45412440623227,16.055857100206758],[-16.454034225878527,16.056309606552496],[-16.454318547359595,16.056849949084576],[-16.45469239331863,16.056847410270887],[-16.454787167828275,16.057027524137293],[-16.45479635951014,16.058292764751055],[-16.454236899184576,16.05847732202411],[-16.454334299772928,16.05901893338832],[-16.45480423874829,16.05937725658285],[-16.45573689398053,16.05909978240091],[-16.456110743902475,16.05909724076587],[-16.456298983426894,16.059276718215752],[-16.45639639009219,16.059818328110403],[-16.456584630585827,16.059997805220327],[-16.45658660298023,16.060268927929553],[-16.456774186527454,16.060358030589327],[-16.456965716194784,16.060989378367587],[-16.45696703154972,16.061170126793744],[-16.456685983766338,16.061081660217422],[-16.45669124430869,16.061804653987203],[-16.457254000033373,16.06207196074973],[-16.457533733478268,16.061979678073143],[-16.457354700912866,16.06306544066084],[-16.45773053230855,16.063334018084596],[-16.458572370077405,16.063418663320444],[-16.459232550034873,16.064227572092694],[-16.459424092046312,16.064858916503947],[-16.458396635026286,16.06495629690018],[-16.457179614414084,16.06469344821119],[-16.455403120778,16.06461515387602],[-16.454750178802175,16.064800349176664],[-16.453722061449827,16.064807332983786],[-16.452789376746885,16.065084800664735],[-16.452044931560195,16.06554174540532],[-16.45158481332525,16.066539032982554],[-16.45099270695258,16.066491029960122],[-16.448676446198863,16.06505067862302],[-16.448675586658062,16.06493192008712],[-16.448862517659325,16.06493065506688],[-16.448767089749847,16.06466016406248],[-16.448580158993227,16.064661428978706],[-16.448488001625453,16.06484281042219],[-16.448363207207098,16.064723819818983],[-16.44829929447628,16.06459859734992],[-16.448297801086092,16.064392202449095],[-16.4485788509088,16.064480679936516],[-16.44857623479001,16.064119181842685],[-16.4489481327234,16.063845528403316],[-16.448946170209744,16.06357440486252],[-16.44866446754285,16.06339555323192],[-16.44810367873955,16.063399346932226],[-16.447734154213883,16.06349133345868],[-16.44749865230352,16.063029920993465],[-16.446470074162225,16.06025753426591],[-16.446582773364735,16.059884845905877],[-16.446393888336413,16.059614984602444],[-16.44638997135175,16.05907273668554],[-16.445916131109048,16.058172145636984],[-16.44647168340167,16.057445361563914],[-16.44693834086508,16.057351830300934],[-16.446842267058067,16.056990963089778],[-16.44665534330067,16.056992225739396],[-16.44674749940774,16.056810845116726],[-16.446467114005735,16.056812738885352],[-16.446371694073115,16.056542246031935],[-16.445433815669187,16.056096681842746],[-16.44543185890971,16.05582555768362],[-16.445151474723403,16.055827449617418],[-16.444963247847596,16.05564796122216],[-16.44448877142935,16.054656990779804],[-16.444018860752383,16.05429864236414],[-16.443986499850993,16.054292610406897],[-16.44372388570562,16.053667976255777],[-16.44373391870555,16.0536679086443],[-16.44372740502724,16.052764160535098],[-16.44334497894339,16.05276673727856],[-16.443208268486405,16.05244156812163],[-16.442512520421648,16.050952507996584],[-16.44259026535045,16.05060271888885],[-16.442964101598726,16.05060020149498],[-16.443152321695266,16.05077969226431],[-16.4430627684025,16.051322570898325],[-16.443250989315462,16.05150206150646],[-16.443252942568765,16.05177318603649],[-16.443630037239004,16.052222541434418],[-16.444097987594297,16.052309766818226],[-16.444183629253267,16.051224639149982],[-16.443901297287724,16.050955404457678],[-16.44427317944602,16.0506817602948],[-16.444740474582392,16.05067860976582],[-16.44501759246066,16.05022484504632],[-16.444735260997454,16.049955611405494],[-16.444733305971756,16.049684487007394],[-16.44407909599509,16.04968889717536],[-16.44389087624996,16.049509407186903],[-16.443887619893975,16.049057532998486],[-16.443512484499824,16.048879302057284],[-16.443510531266494,16.04860817748529],[-16.442106057540364,16.04825611712314],[-16.442010648417767,16.04798562130169],[-16.441542058688896,16.04780801547892],[-16.441631615420928,16.04726513710003],[-16.441817880270634,16.04717350463719],[-16.44116302769692,16.04708753027129],[-16.440977412444443,16.047269537154733],[-16.440877456767076,16.046366415784956],[-16.440591888086757,16.04564530070302],[-16.44014607699913,16.04540970021075],[-16.439522948601546,16.043570754457928],[-16.44067220781705,16.038326100910346],[-16.442337045240926,16.032575804900485],[-16.442457543787874,16.032026715606193],[-16.44273730187876,16.032073966578867]],[[-16.448579504948924,16.064571054458007],[-16.448672316204863,16.064480047506276],[-16.4485788509088,16.064480679936516],[-16.448579504948924,16.064571054458007]],[[-16.45166297894787,16.051535607978693],[-16.451659049781192,16.050993360922277],[-16.451097641851863,16.05090678507645],[-16.45090679715494,16.05036580370315],[-16.45034604538792,16.05036960027922],[-16.45025782037895,16.051093229462346],[-16.450538851654095,16.05118170594544],[-16.450258474601934,16.05118360402918],[-16.450259783060424,16.051364353160494],[-16.450447355587638,16.051453462354047],[-16.450448664239694,16.05163421146564],[-16.45166297894787,16.051535607978693]],[[-16.4462390803153,16.05112039488034],[-16.44614235936724,16.05066915206862],[-16.445861982485212,16.05067104434129],[-16.44567702096975,16.05094342991281],[-16.445680281764208,16.05139530366387],[-16.445869157159756,16.051665166511413],[-16.446056076012013,16.05166390495482],[-16.4462390803153,16.05112039488034]],[[-16.454364107019885,16.050251984671675],[-16.4542706485994,16.050252619039576],[-16.454271304596016,16.050342993452087],[-16.454364107019885,16.050251984671675]],[[-16.444915660899834,16.049050603021975],[-16.444728744390755,16.049051863384282],[-16.444729396032702,16.049142238189944],[-16.444915660899834,16.049050603021975]],[[-16.442008046976596,16.047624121600684],[-16.441821781827354,16.04771575425231],[-16.441822432101336,16.047806129185407],[-16.442009347688874,16.047804871452758],[-16.442008046976596,16.047624121600684]],[[-16.454954671404074,16.041481224117913],[-16.454861217097392,16.041481858406193],[-16.454861872982452,16.041572232868738],[-16.454954671404074,16.041481224117913]],[[-16.45935760540229,16.030063565081058],[-16.459264156598795,16.03006420084819],[-16.459265471355412,16.030244949609234],[-16.45935760540229,16.030063565081058]]]}},{"type":"Feature","properties":{"fid":3004.0,"DN":7},"geometry":{"type":"Polygon","coordinates":[[[-16.50923554625677,16.02664559520725],[-16.50923486653136,16.02655522285087],[-16.509328311576954,16.02655456545818],[-16.50923554625677,16.02664559520725]]]}},{"type":"Feature","properties":{"fid":3029.0,"DN":7},"geometry":{"type":"Polygon","coordinates":[[[-16.471574836870605,16.026636093729095],[-16.471574174103427,16.026545719818184],[-16.47166762075195,16.02654507882602],[-16.471574836870605,16.026636093729095]]]}},{"type":"Feature","properties":{"fid":3571.0,"DN":7},"geometry":{"type":"Polygon","coordinates":[[[-16.50632837091048,16.050164085820487],[-16.50595318758875,16.049985969088212],[-16.506229479468754,16.049441764553702],[-16.506042567776557,16.049443078421188],[-16.506036454193076,16.048629727711415],[-16.505756766902685,16.048722070418023],[-16.505848184883625,16.048450296719512],[-16.505471647275403,16.04809143414415],[-16.505556275481883,16.04691593719206],[-16.505176347595206,16.046105211964242],[-16.50507746359992,16.04538288937609],[-16.505046248427774,16.041225759432074],[-16.505227045542725,16.04041109545115],[-16.50643308923428,16.039227720988418],[-16.50698564454411,16.0381393121327],[-16.507155564183712,16.035878689458684],[-16.506577894816548,16.03362331979423],[-16.50656974902269,16.032538850837852],[-16.506754608309386,16.032266420623046],[-16.50711617770436,16.03063709094951],[-16.507100562969725,16.028558525289203],[-16.50728473939831,16.02819572247098],[-16.507064589927566,16.023768785441312],[-16.507695616097507,16.02069152669415],[-16.507881822008105,16.020599841213002],[-16.50806395424871,16.019965920831766],[-16.50825015931875,16.019874235097053],[-16.508437722338762,16.0199632941071],[-16.50835174989198,16.02095804774482],[-16.508819641528074,16.021045135834065],[-16.508722802838943,16.02059393065404],[-16.50900245035411,16.020501587319046],[-16.5089117253711,16.02086373400724],[-16.509198167810638,16.02167511443607],[-16.508943658370946,16.025111236788465],[-16.50904457828572,16.02610467568152],[-16.508861086305547,16.026557852014953],[-16.508974241510924,16.02917799313928],[-16.509162493685796,16.02935742300512],[-16.509165212984023,16.029718912343778],[-16.508976280699677,16.029449110172585],[-16.50897899967884,16.029810599539296],[-16.509172011533707,16.030622635635257],[-16.50918085029783,16.031797475796328],[-16.508993955306625,16.031798790830745],[-16.508902547245015,16.032070565263357],[-16.508911385272334,16.03324540541255],[-16.509098281618286,16.033244090334705],[-16.50893246353099,16.036046946769083],[-16.509032033665438,16.036859639669],[-16.508670473543592,16.038488971291],[-16.508675233665567,16.039121577231743],[-16.508862815626316,16.039210634157417],[-16.508874378313493,16.040746962563784],[-16.508791809639856,16.04219357632596],[-16.508608305672844,16.042646753098307],[-16.50863075331671,16.045629036840488],[-16.508448607027546,16.04626295808472],[-16.508555667990287,16.04806974449052],[-16.508190010382773,16.049156842482024],[-16.507449844690264,16.050156198331855],[-16.50632837091048,16.050164085820487]],[[-16.505928735941847,16.046732565895958],[-16.50574046865867,16.04655313461824],[-16.50573843155378,16.046282017611315],[-16.505927377681815,16.04655182124419],[-16.506019473859986,16.046370419848945],[-16.50582781159587,16.04573912694453],[-16.505547449178476,16.045741096717297],[-16.505458747269802,16.046374359680076],[-16.505836639541396,16.046913967267532],[-16.505928735941847,16.046732565895958]],[[-16.508022118092832,16.026834882473995],[-16.507835227623424,16.026836196103428],[-16.507835906731152,16.02692656851592],[-16.508022118092832,16.026834882473995]]]}},{"type":"Feature","properties":{"fid":3616.0,"DN":7},"geometry":{"type":"Polygon","coordinates":[[[-16.508904253075784,16.019869637360294],[-16.508994298489426,16.0194171182539],[-16.509087740222874,16.019416461250618],[-16.509091136967278,16.019868323355382],[-16.508904253075784,16.019869637360294]]]}},{"type":"Feature","properties":{"fid":3618.0,"DN":7},"geometry":{"type":"Polygon","coordinates":[[[-16.508808094223618,16.019508804572745],[-16.5088074150095,16.019418432138522],[-16.508900856751634,16.019417775216535],[-16.508808094223618,16.019508804572745]]]}},{"type":"Feature","properties":{"fid":3648.0,"DN":7},"geometry":{"type":"Polygon","coordinates":[[[-16.508712614931863,16.019238344141243],[-16.508711256618074,16.019057599259487],[-16.50899158134018,16.019055628540308],[-16.508899498252376,16.019237030353516],[-16.508712614931863,16.019238344141243]]]}},{"type":"Feature","properties":{"fid":3663.0,"DN":7},"geometry":{"type":"Polygon","coordinates":[[[-16.508149249264495,16.018880794668693],[-16.508428215785706,16.01869807979308],[-16.50852641067334,16.01933003021389],[-16.50871397326302,16.01941908901986],[-16.50843364799754,16.019421059419997],[-16.508342243258692,16.01969283349754],[-16.508149249264495,16.018880794668693]]]}},{"type":"Feature","properties":{"fid":3664.0,"DN":7},"geometry":{"type":"Polygon","coordinates":[[[-16.507961687405206,16.01879173530008],[-16.50796100860404,16.018701362824473],[-16.508054450049052,16.018700706299487],[-16.507961687405206,16.01879173530008]]]}},{"type":"Feature","properties":{"fid":3670.0,"DN":7},"geometry":{"type":"Polygon","coordinates":[[[-16.508896102080232,16.018785168182184],[-16.508894743641775,16.01860442330814],[-16.509081626356583,16.018603109412414],[-16.509083664272918,16.01887422669891],[-16.508896102080232,16.018785168182184]]]}},{"type":"Feature","properties":{"fid":3674.0,"DN":7},"geometry":{"type":"Polygon","coordinates":[[[-16.50212824171641,16.038444531189842],[-16.501751730613258,16.038085659581544],[-16.501654895802055,16.037634451244127],[-16.50183164404509,16.036277553473738],[-16.50210860902319,16.035823726817597],[-16.502286030629786,16.03455720142985],[-16.502745150329496,16.033469456826296],[-16.502924598556124,16.032474048878647],[-16.50316296025116,16.026868983972097],[-16.503964688326114,16.02162147913207],[-16.504601177489874,16.019267206336874],[-16.504787383798003,16.019175523522037],[-16.504970880073387,16.018722350163383],[-16.505623615580628,16.018537017591203],[-16.506746947678845,16.018800266476852],[-16.507123427561787,16.0191591322658],[-16.50694739845042,16.020606404638958],[-16.50640098675236,16.022508163608695],[-16.50641455295372,16.02431561363366],[-16.506143037874903,16.025492424114866],[-16.5064335485496,16.026846043139145],[-16.506442369089072,16.028020885199545],[-16.506272439911957,16.030281509022434],[-16.505728038893857,16.032454384786927],[-16.5057436434064,16.034532951010767],[-16.506034170113132,16.03588656858723],[-16.505956330816137,16.037965790272583],[-16.505212797238283,16.03851327471885],[-16.50409206537436,16.038611517416758],[-16.50212824171641,16.038444531189842]]]}},{"type":"Feature","properties":{"fid":3697.0,"DN":7},"geometry":{"type":"Polygon","coordinates":[[[-16.50889134762163,16.018152561109236],[-16.508890668430634,16.018062188667095],[-16.508984109538073,16.01806153176295],[-16.50889134762163,16.018152561109236]]]}},{"type":"Feature","properties":{"fid":3706.0,"DN":7},"geometry":{"type":"Polygon","coordinates":[[[-16.508704465309677,16.018153874803396],[-16.508702428001833,16.017882757451208],[-16.50888931006166,16.01788144378044],[-16.508704465309677,16.018153874803396]]]}},{"type":"Feature","properties":{"fid":3983.0,"DN":7},"geometry":{"type":"Polygon","coordinates":[[[-16.499043570935694,16.013341175231744],[-16.499042896389966,16.013250802339016],[-16.499136335683136,16.01325014991166],[-16.499043570935694,16.013341175231744]]]}},{"type":"Feature","properties":{"fid":4000.0,"DN":7},"geometry":{"type":"Polygon","coordinates":[[[-16.49932119026717,16.012977726287005],[-16.49941260534483,16.01270595510587],[-16.499506044368697,16.012705302539235],[-16.49950874331408,16.01306679404685],[-16.49932119026717,16.012977726287005]]]}},{"type":"Feature","properties":{"fid":4006.0,"DN":7},"geometry":{"type":"Polygon","coordinates":[[[-16.499225052684608,16.012616887226745],[-16.499224378089384,16.012526514335462],[-16.49931781703787,16.01252586185784],[-16.499225052684608,16.012616887226745]]]}},{"type":"Feature","properties":{"fid":4014.0,"DN":7},"geometry":{"type":"Polygon","coordinates":[[[-16.49931579315207,16.012254743190894],[-16.4993151185321,16.012164370300344],[-16.499408557308254,16.012163717797588],[-16.49931579315207,16.012254743190894]]]}},{"type":"Feature","properties":{"fid":4514.0,"DN":7},"geometry":{"type":"Polygon","coordinates":[[[-16.496558175797315,15.993294649838711],[-16.496557503257815,15.99320427667459],[-16.49665093333962,15.993203626121563],[-16.496558175797315,15.993294649838711]]]}},{"type":"Feature","properties":{"fid":4534.0,"DN":7},"geometry":{"type":"Polygon","coordinates":[[[-16.4975805230349,15.99256450648648],[-16.497579850068437,15.992474133358618],[-16.497673279767287,15.992473482390192],[-16.4975805230349,15.99256450648648]]]}},{"type":"Feature","properties":{"fid":4544.0,"DN":7},"geometry":{"type":"Polygon","coordinates":[[[-16.49701725366637,15.99220691885912],[-16.49710799233305,15.99184477553962],[-16.497295523992758,15.991933847167092],[-16.497204112859777,15.992205617391818],[-16.49701725366637,15.99220691885912]]]}},{"type":"Feature","properties":{"fid":4727.0,"DN":7},"geometry":{"type":"Polygon","coordinates":[[[-16.496341731562758,15.989319530525304],[-16.49624695882736,15.989139434368944],[-16.49624292559803,15.988597195085845],[-16.496521864825265,15.988414497850998],[-16.496519175623025,15.988053005019996],[-16.49633164802181,15.987963932346078],[-16.49632223759071,15.986698707219256],[-16.496133367276517,15.986428887771293],[-16.496320221179516,15.986427587529187],[-16.49640961516683,15.985884697969125],[-16.497156356079714,15.985789122037941],[-16.49743865373537,15.986058289924049],[-16.497905787320597,15.986055036252782],[-16.498003251310745,15.986596624371021],[-16.497723643201056,15.986688950058012],[-16.497628870738076,15.986508854468385],[-16.497444034805326,15.986781275402393],[-16.49736137003599,15.988227896913612],[-16.497175187146727,15.988319571383062],[-16.497364733479642,15.988679762768498],[-16.49671544468446,15.989316929059447],[-16.496341731562758,15.989319530525304]]]}},{"type":"Feature","properties":{"fid":4821.0,"DN":7},"geometry":{"type":"Polygon","coordinates":[[[-16.508273006326952,16.010474839321926],[-16.50826486377465,16.009390368880275],[-16.508077311126428,16.009301308780927],[-16.507978447076322,16.008578984484032],[-16.50779157359179,16.008580296620543],[-16.507782756436015,16.007405453168765],[-16.50796895053242,16.00731376856262],[-16.507964880845392,16.0067715331205],[-16.50778004361253,16.00704396284914],[-16.507860593881848,16.005326227751247],[-16.50766626487373,16.004333440874742],[-16.507852456313344,16.004241756584104],[-16.5076649088323,16.004152695655186],[-16.50775495328618,16.003700176795583],[-16.50756469460945,16.003249625247065],[-16.507559949198598,16.002617016871472],[-16.50764457029314,16.001441516984116],[-16.507920124597845,16.000806941386973],[-16.508008133672043,16.000083304574932],[-16.508192286981032,15.999720502430636],[-16.50875084766546,15.999445448796463],[-16.509121185209466,15.99899096119353],[-16.50939401791705,15.997994893897607],[-16.50918815992329,15.995465773374002],[-16.50946709480734,15.995283059637309],[-16.50946505953584,15.995011941804602],[-16.5091806987411,15.994471674508093],[-16.50917120345086,15.993206457631988],[-16.508886168359524,15.992575816915396],[-16.508509739790572,15.992216949357505],[-16.50850363919702,15.991403595246545],[-16.508595034349668,15.99113182153422],[-16.5087808249368,15.990969725931707],[-16.509491391530595,15.991538932481603],[-16.511498298313978,15.991587941888486],[-16.511495393971085,15.99165371126024],[-16.51122189854286,15.992559407596595],[-16.511226652328595,15.993192015491552],[-16.511041151522456,15.993374074346328],[-16.510864477449825,15.994730976360211],[-16.510400720683013,15.995186122776909],[-16.510503655940227,15.996450681997844],[-16.510975565057628,15.997080005614846],[-16.510888246287106,15.997894015335197],[-16.51070206209108,15.997985701685733],[-16.510243729574633,15.999163828679112],[-16.510262062884408,16.001603887098547],[-16.510545079873946,16.001963406484936],[-16.51064394760571,16.00268572951556],[-16.51045979669071,16.003048533518914],[-16.510465230618735,16.003771513517965],[-16.5100034911143,16.00449777810868],[-16.51001435700253,16.005943738167076],[-16.509648763399696,16.007030835498266],[-16.509751706874543,16.008295393621662],[-16.509482262043406,16.00974332394949],[-16.50882955902356,16.00992866564896],[-16.508554676532707,16.01065361524061],[-16.508273006326952,16.010474839321926]],[[-16.50796962882878,16.00740414113356],[-16.507876192634566,16.007404797171468],[-16.507876870893273,16.00749516974551],[-16.50796962882878,16.00740414113356]]]}},{"type":"Feature","properties":{"fid":4906.0,"DN":7},"geometry":{"type":"Polygon","coordinates":[[[-16.467922942835205,16.038410321688172],[-16.467356937836726,16.03769116811927],[-16.467170033789532,16.037692447172827],[-16.46688504981074,16.03706174737153],[-16.46706666387277,16.036337476541366],[-16.466216350559016,16.035077992661737],[-16.46611827504434,16.034446013162192],[-16.46555625082222,16.03426909766106],[-16.465371330750433,16.03454149717275],[-16.465368029208303,16.034089626681272],[-16.46620379758467,16.03336088542694],[-16.466202476307597,16.033180137280432],[-16.46666642191552,16.032725072038417],[-16.466946771100886,16.032723154632986],[-16.467225137039385,16.032450114749018],[-16.46750151870925,16.031905952467653],[-16.467688417337154,16.031904673573987],[-16.46805956890994,16.03154061925526],[-16.468056923345255,16.031179123199482],[-16.468241836867904,16.03090672185099],[-16.469176324873146,16.03090032291817],[-16.47038254752449,16.029717137158862],[-16.470756340200964,16.029714574528917],[-16.471126156667683,16.029169767817308],[-16.471686843939626,16.029165921812712],[-16.471781617755987,16.029346028429767],[-16.472154083216402,16.0291627156903],[-16.472244215200455,16.02871020502465],[-16.471586767404233,16.028262823990957],[-16.471489343207757,16.027721221599595],[-16.471207013647366,16.027452022605964],[-16.47139390781508,16.02745074083027],[-16.471578150770046,16.027087963271846],[-16.47185849145981,16.027086040104887],[-16.472234931360084,16.02744497082642],[-16.472887070377276,16.02716935921401],[-16.47325289557173,16.02608230651299],[-16.47324692423681,16.025268941860404],[-16.473058042140593,16.024999103492345],[-16.47277770451742,16.0250010279828],[-16.472589486444843,16.024821563005876],[-16.471842582680917,16.024917066394135],[-16.47165436545703,16.024737600518655],[-16.47165038919899,16.02419535696508],[-16.473048092131208,16.023643495446812],[-16.47342319999597,16.023821676837834],[-16.474357652828967,16.023815258095034],[-16.47473409014681,16.02417418467498],[-16.47510853602058,16.024261989114464],[-16.47613710030663,16.02434529375704],[-16.47679587346667,16.024973408648204],[-16.476899295984776,16.026328370967818],[-16.477461304675895,16.02650525788604],[-16.477459973856103,16.026324510541983],[-16.47774031273435,16.02632257978005],[-16.47783242787943,16.02614118879475],[-16.478484553601493,16.02586556112834],[-16.47931957195256,16.025046401455462],[-16.48034547364466,16.024768191148123],[-16.48062314296543,16.024404762567972],[-16.48127592568934,16.024219500704383],[-16.482018148006365,16.02349135050461],[-16.482386587241766,16.022765780596846],[-16.48256880334226,16.02213187497963],[-16.483082066843703,16.015711481971458],[-16.48419267293583,16.014257756473075],[-16.484466981986767,16.01344245692418],[-16.48453704332969,16.010278738205088],[-16.48488207501135,16.006390092651007],[-16.484862040796234,16.00367888622174],[-16.48466649067959,16.002505321423786],[-16.483708792516516,15.999348699663052],[-16.482837895731635,15.995287688435129],[-16.48282789924108,15.993932082650977],[-16.483185626821935,15.991760534693809],[-16.48317896237421,15.990856797370883],[-16.48354801456356,15.990221602474698],[-16.483544681810248,15.989769733832933],[-16.483912397755184,15.988953791070418],[-16.48390973111201,15.988592296175929],[-16.484560395703866,15.988135912693666],[-16.485963153971248,15.988306978617251],[-16.486613144643787,15.987760215758259],[-16.486800000596062,15.987758923682906],[-16.486798664777094,15.987578176454754],[-16.487356559435106,15.987212804927715],[-16.4873545550353,15.986941684139326],[-16.487540073751497,15.986759644303302],[-16.48725578292188,15.986219341571738],[-16.487317942653323,15.985208577018986],[-16.487590996092592,15.984985245850941],[-16.487620805360546,15.985041899621105],[-16.488180696924303,15.984947647343416],[-16.48845696559086,15.984403466033504],[-16.488921422410147,15.984038737974016],[-16.488920380597335,15.983897938564068],[-16.489786146560576,15.983189826172808],[-16.489806400380225,15.983161977269472],[-16.490313444024274,15.98276380154148],[-16.490681790627466,15.982038223600838],[-16.49123832359444,15.981492096752458],[-16.491797533003098,15.981307462544898],[-16.491981032789745,15.980854299196096],[-16.49244480479208,15.980399191204139],[-16.492819172310774,15.980486971344932],[-16.49290991533148,15.980124829223746],[-16.4930960932559,15.980033158861874],[-16.493565225636214,15.980301036005189],[-16.49376012285619,15.9813842190887],[-16.494705109181997,15.982823701911432],[-16.49470846546498,15.98327556854322],[-16.494524299118797,15.98363836045815],[-16.494535710151922,15.985174706937158],[-16.493980519738212,15.98590158891373],[-16.493421971276454,15.986176602993812],[-16.493147056067695,15.98690153638313],[-16.493062348025102,15.98807703881003],[-16.493350011351428,15.989069198892746],[-16.49336141750131,15.990605545423286],[-16.49317791403197,15.9910587100465],[-16.493004473222626,15.992867474369774],[-16.49281962560089,15.993139892202185],[-16.492824992579212,15.993862878735316],[-16.493111323520548,15.994674291428348],[-16.49329885648056,15.994763366447781],[-16.493678622200772,15.995574128817095],[-16.494149808115356,15.996113120887047],[-16.49434137296577,15.996744434208804],[-16.49462368390837,15.997013604539303],[-16.494903979698165,15.997011654828276],[-16.494902635780953,15.996830908424581],[-16.49555329736619,15.996374491844565],[-16.496108507198397,15.995647604508429],[-16.496382075411987,15.994741921473592],[-16.496376022846643,15.993928563011766],[-16.496653623691238,15.993565118757886],[-16.496651605921066,15.99329399928182],[-16.497025999126553,15.993381769792478],[-16.49721218657314,15.993290095088328],[-16.497210840911173,15.993109348813437],[-16.49749045797701,15.993017023065086],[-16.4974891120892,15.992836276808683],[-16.497675971826776,15.992834974881458],[-16.497587925950352,15.993558610841113],[-16.497790268788105,15.995635890117805],[-16.497614176851364,15.997083161877313],[-16.497430005596517,15.997445956464398],[-16.49753488194244,15.998981647761687],[-16.497351382278598,15.999434815459239],[-16.497543634329876,16.000156497676908],[-16.49735878741118,16.000428919284168],[-16.49727141275765,16.001242928069715],[-16.497284204608295,16.00296001620945],[-16.497573263198426,16.00413291178822],[-16.49742410978491,16.00919510343818],[-16.497988777981142,16.00973343126658],[-16.49808962945334,16.010726881977508],[-16.498742347899164,16.010541571880733],[-16.498931921509957,16.01090175913772],[-16.498746393705698,16.011083809436712],[-16.498745045086267,16.010903063587868],[-16.498558168645328,16.01090436787552],[-16.49837331461874,16.011176790819224],[-16.498093673547586,16.011269119686663],[-16.49800293111213,16.011631263387752],[-16.497537085721262,16.011815268268904],[-16.497540454787575,16.012267133097396],[-16.497728006493652,16.012356202542996],[-16.49773002825012,16.01262732140507],[-16.49810513265748,16.012805459708737],[-16.49810782909971,16.013166951445584],[-16.499043570935694,16.013341175231744],[-16.498857366718422,16.013432852871997],[-16.498861413605155,16.013975090253613],[-16.499520889422776,16.014693505675247],[-16.499543835887614,16.017766182499624],[-16.49973071862792,16.017764876810467],[-16.500109210713163,16.018394874603086],[-16.500118664660707,16.019660093804678],[-16.49900680531008,16.020933148126698],[-16.498546337696716,16.021840139551873],[-16.4985537596715,16.022834240761473],[-16.498937658977265,16.02418722231394],[-16.498857039216073,16.025904958325867],[-16.498487307611217,16.026449806155874],[-16.498300416679562,16.026451111450445],[-16.497836562253223,16.02690623812723],[-16.4968241657205,16.028991988140483],[-16.496175430325973,16.02971953460821],[-16.49496331166102,16.03008949639661],[-16.49431254625369,16.030545919209136],[-16.49403220359105,16.030547872121243],[-16.49394010206168,16.030729268927594],[-16.49365975909507,16.03073122137474],[-16.49272864468517,16.031189591917343],[-16.49263654168367,16.031370988278226],[-16.491518525171212,16.031830654612722],[-16.49114741935189,16.032194745998243],[-16.490494623165276,16.032380039201776],[-16.489753075529965,16.03319859144892],[-16.489754418026767,16.033379337667206],[-16.48947474194944,16.03347165807718],[-16.488920756167282,16.034379282965393],[-16.488362741418143,16.034744667860362],[-16.487715967575014,16.035743312045646],[-16.487344847654462,16.036107397916286],[-16.48687893558439,16.03629138489061],[-16.486037880538607,16.036297215418447],[-16.485287598315757,16.03594090226568],[-16.4848170003729,16.03549227185909],[-16.48481566213869,16.03531152526961],[-16.48396859197719,16.0345039873579],[-16.48396725459432,16.034323240682042],[-16.48265027278379,16.033157435958362],[-16.48264893670699,16.032976689151546],[-16.482083567200206,16.03234795068896],[-16.481896669375256,16.032349242158848],[-16.481706433668588,16.031898666216104],[-16.480105135571225,16.03019253846596],[-16.480103802047335,16.03001179140045],[-16.479257439840673,16.029294604580585],[-16.479256107159017,16.0291138574305],[-16.479069212106722,16.02911514618415],[-16.478500535152698,16.028034528135375],[-16.47784241183796,16.027496793592945],[-16.477651524978256,16.026955839045],[-16.477088849609384,16.026688579067926],[-16.476159703361173,16.02741800058316],[-16.476074234712662,16.02850312815631],[-16.475709086761967,16.029680558239367],[-16.474130432449765,16.031047088198257],[-16.473669828436687,16.03195403683456],[-16.472928208299685,16.032772536558586],[-16.472653831653428,16.03358782609157],[-16.472284012497102,16.034132635555814],[-16.47228600276249,16.034403757007997],[-16.472099765539575,16.0344954139251],[-16.471362771486152,16.035946526257288],[-16.470713916531558,16.03667400489185],[-16.470341436190232,16.036857316280763],[-16.470250635184062,16.0372194526042],[-16.469879478334434,16.03758351107552],[-16.46969257459973,16.037584792319215],[-16.469322078281884,16.03803922385988],[-16.468483656743256,16.038406481903433],[-16.467922942835205,16.038410321688172]],[[-16.472141484316474,16.027445612100642],[-16.47214214737833,16.027535985980865],[-16.472234931360084,16.02744497082642],[-16.472141484316474,16.027445612100642]],[[-16.497996191288845,16.01072753384953],[-16.49799686525177,16.010817906806896],[-16.49808962945334,16.010726881977508],[-16.497996191288845,16.01072753384953]],[[-16.47868676321575,16.027942866352934],[-16.478593316212898,16.027943510456367],[-16.478593982201865,16.02803388406879],[-16.47868676321575,16.027942866352934]],[[-16.498891095519717,16.017951496852877],[-16.49861077103415,16.017953454251526],[-16.49842793494243,16.018496996242362],[-16.49861616763465,16.01867643719877],[-16.498524074903862,16.018857835351362],[-16.498805075350212,16.018946250814],[-16.498891095519717,16.017951496852877]],[[-16.488414902698292,16.01657835220062],[-16.48794501739458,16.016220097957518],[-16.487664693921626,16.016222040859315],[-16.487761483125027,16.01667325993062],[-16.48804314671408,16.016852063486485],[-16.487955063100717,16.017575697776955],[-16.488329500108616,16.01766347974115],[-16.488414902698292,16.01657835220062]],[[-16.497904774895755,16.01099930456227],[-16.497811336596634,16.010999956364653],[-16.497812010488495,16.011090329327395],[-16.497904774895755,16.01099930456227]],[[-16.49799753921901,16.010908279763473],[-16.497904100966206,16.010908931602604],[-16.497904774895755,16.01099930456227],[-16.49799753921901,16.010908279763473]],[[-16.497217569393296,15.994013080156448],[-16.497030035738277,15.993924008639985],[-16.49694198739264,15.994647644503184],[-16.49722227958707,15.99464569204977],[-16.497217569393296,15.994013080156448]],[[-16.492632323623045,15.980488268076503],[-16.49253889927274,15.980488916381463],[-16.49253956944501,15.980579289818579],[-16.492632323623045,15.980488268076503]]]}},{"type":"Feature","properties":{"fid":4919.0,"DN":7},"geometry":{"type":"Polygon","coordinates":[[[-16.495707937487307,15.979472744851012],[-16.495707265941693,15.979382371535733],[-16.49580068964297,15.979381721898639],[-16.495707937487307,15.979472744851012]]]}},{"type":"Feature","properties":{"fid":4928.0,"DN":7},"geometry":{"type":"Polygon","coordinates":[[[-16.495900158159696,15.980194431960735],[-16.495801361230495,15.979472095210058],[-16.495892098477473,15.979109952293618],[-16.495986865365587,15.979290049198346],[-16.496173712654212,15.9792887496481],[-16.496169682239493,15.978746509851126],[-16.496542703871008,15.978653537070151],[-16.496550094879552,15.979647643181547],[-16.496361231760286,15.979377823224715],[-16.49608096072099,15.97937977274411],[-16.496083647599786,15.979741265938703],[-16.496270495298884,15.97973996626872],[-16.496365262858642,15.979920062942305],[-16.496273854413282,15.980191832705632],[-16.495900158159696,15.980194431960735]]]}},{"type":"Feature","properties":{"fid":4951.0,"DN":7},"geometry":{"type":"Polygon","coordinates":[[[-16.496259075114683,15.978203620236325],[-16.496255716473662,15.977751753713006],[-16.49644256231171,15.977750454050963],[-16.496441218717816,15.977569707451602],[-16.496630080019745,15.97783952751754],[-16.496633439520348,15.978291393959605],[-16.496259075114683,15.978203620236325]]]}}]}