{"type":"FeatureCollection","name":"quartiers-gandon","features":[{"type":"Feature","properties":{"nom":"Keur Martin","commune":"Gandon","population":1079},"geometry":{"type":"Point","coordinates":[-16.456013,15.972149]}},{"type":"Feature","properties":{"nom":"Leybar Boye","commune":"Gandon","population":1256},"geometry":{"type":"Point","coordinates":[-16.467563,15.98248]}},{"type":"Feature","properties":{"nom":"Gandon","commune":"Gandon","population":2255},"geometry":{"type":"Point","coordinates":[-16.452621,15.965621]}},{"type":"Feature","properties":{"nom":"Bekhare","commune":"Gandon","population":746},"geometry":{"type":"Point","coordinates":[-16.454058,15.959783]}},{"type":"Feature","properties":{"nom":"Diama Toubé","commune":"Gandon","population":204},"geometry":{"type":"Point","coordinates":[-16.453409,15.958253]}},{"type":"Feature","properties":{"nom":"Ngaye-Ngaye","commune":"Gandon","population":2318},"geometry":{"type":"Point","coordinates":[-16.453218,15.955442]}},{"type":"Feature","properties":{"nom":"Ndiobène Toubé Wolof","commune":"Gandon","population":2908},"geometry":{"type":"Point","coordinates":[-16.441801,15.987332]}},{"type":"Feature","properties":{"nom":"Ndialakhar Peulh","commune":"Gandon","population":516},"geometry":{"type":"Point","coordinates":[-16.356639,15.986691]}},{"type":"Feature","properties":{"nom":"Poundioum","commune":"Gandon","population":572},"geometry":{"type":"Point","coordinates":[-16.401141,15.935404]}},{"type":"Feature","properties":{"nom":"Rao","commune":"Gandon","population":2497},"geometry":{"type":"Point","coordinates":[-16.397532,15.923785]}},{"type":"Feature","properties":{"nom":"Rao Peul","commune":"Gandon","population":464},"geometry":{"type":"Point","coordinates":[-16.411081,15.911663]}},{"type":"Feature","properties":{"nom":"Yamane Sog","commune":"Gandon","population":551},"geometry":{"type":"Point","coordinates":[-16.381528,15.884086]}},{"type":"Feature","properties":{"nom":"Tiar Moussé Diop","commune":"Gandon","population":72},"geometry":{"type":"Point","coordinates":[-16.402293,15.850318]}},{"type":"Feature","properties":{"nom":"Sanar","commune":"Gandon","population":6495},"geometry":{"type":"Point","coordinates":[-16.430186,16.067041]}},{"type":"Feature","properties":{"nom":"Diougop","commune":"Gandon","population":5229},"geometry":{"type":"Point","coordinates":[-16.422598,16.055596]}},{"type":"Feature","properties":{"nom":"Sanar Peul","commune":"Gandon","population":5229},"geometry":{"type":"Point","coordinates":[-16.413312,16.055658]}},{"type":"Feature","properties":{"nom":"Boudiouck","commune":"Gandon","population":8065},"geometry":{"type":"Point","coordinates":[-16.435718,16.036947]}},{"type":"Feature","properties":{"nom":"Ndiawdoun","commune":"Gandon","population":1555},"geometry":{"type":"Point","coordinates":[-16.389447,16.068339]}},{"type":"Feature","properties":{"nom":"Mbarigo","commune":"Gandon","population":1223},"geometry":{"type":"Point","coordinates":[-16.358438,16.07738]}},{"type":"Feature","properties":{"nom":"Lampsar","commune":"Gandon","population":77},"geometry":{"type":"Point","coordinates":[-16.346232,16.106833]}},{"type":"Feature","properties":{"nom":"Mbakhana","commune":"Gandon","population":883},"geometry":{"type":"Point","coordinates":[-16.368167,16.089089]}},{"type":"Feature","properties":{"nom":"Beysous","commune":"Gandon","population":433},"geometry":{"type":"Point","coordinates":[-16.371918,16.093488]}},{"type":"Feature","properties":{"nom":"Merina Bara","commune":"Gandon","population":177},"geometry":{"type":"Point","coordinates":[-16.356705,15.840206]}},{"type":"Feature","properties":{"nom":"Ndiop","commune":"Gandon","population":68},"geometry":{"type":"Point","coordinates":[-16.35364,15.950687]}},{"type":"Feature","properties":{"nom":"Ndiaoussir Lebou","commune":"Gandon","population":3767},"geometry":{"type":"Point","coordinates":[-16.464537,15.945167]}},{"type":"Feature","properties":{"nom":"Ndiakhere","commune":"Gandon","population":null},"geometry":{"type":"Point","coordinates":[-16.450362,15.933138]}},{"type":"Feature","properties":{"nom":"Ndiallakar Wolof","commune":"Gandon","population":null},"geometry":{"type":"Point","coordinates":[-16.375496,15.985442]}},{"type":"Feature","properties":{"nom":"Ndiallakhar Peul","commune":"Gandon","population":null},"geometry":{"type":"Point","coordinates":[-16.368088,15.971803]}},{"type":"Feature","properties":{"nom":"Iba Bala","commune":"Gandon","population":null},"geometry":{"type":"Point","coordinates":[-16.359907,15.877682]}},{"type":"Feature","properties":{"nom":"Ndious Dieye","commune":"Gandon","population":null},"geometry":{"type":"Point","coordinates":[-16.35281,15.889847]}},{"type":"Feature","properties":{"nom":"Mbarak","commune":"Gandon","population":null},"geometry":{"type":"Point","coordinates":[-16.356104,15.897841]}},{"type":"Feature","properties":{"nom":"Khelkom Diaw","commune":"Gandon","population":null},"geometry":{"type":"Point","coordinates":[-16.367953,15.836157]}},{"type":"Feature","properties":{"nom":"Daima Thiaguel","commune":"Gandon","population":null},"geometry":{"type":"Point","coordinates":[-16.452136,15.94111]}}]}