{"type": "FeatureCollection", "features": [{"type": "Feature", "geometry": {"type": "Point", "coordinates": [-16.49360646983642, 16.028826473682273]}, "properties": {"Nom_quartier": "TENDJIGUENE", "Commune": "Saint-Louis", "Population": 5558}}, {"type": "Feature", "geometry": {"type": "Point", "coordinates": [-16.49171377240678, 16.02637885150866]}, "properties": {"Nom_quartier": "BALACOS", "Commune": "Saint-Louis", "Population": 4457}}, {"type": "Feature", "geometry": {"type": "Point", "coordinates": [-16.49493599565938, 16.021852135087855]}, "properties": {"Nom_quartier": "Diamaguene", "Commune": "Saint-Louis", "Population": 9824}}, {"type": "Feature", "geometry": {"type": "Point", "coordinates": [-16.485903481616287, 16.023705038165886]}, "properties": {"Nom_quartier": "Ndiolofene Nord", "Commune": "Saint-Louis", "Population": 6194}}, {"type": "Feature", "geometry": {"type": "Point", "coordinates": [-16.486921567064464, 16.02015359196136]}, "properties": {"Nom_quartier": "Ndiolofene Sud", "Commune": "Saint-Louis", "Population": 3253}}, {"type": "Feature", "geometry": {"type": "Point", "coordinates": [-16.486654609343685, 16.01575197862669]}, "properties": {"Nom_quartier": "Cité Niakh", "Commune": "Saint-Louis", "Population": 7008}}, {"type": "Feature", "geometry": {"type": "Point", "coordinates": [-16.493988209416845, 16.015883193749872]}, "properties": {"Nom_quartier": "Leona", "Commune": "Saint-Louis", "Population": 7666}}, {"type": "Feature", "geometry": {"type": "Point", "coordinates": [-16.497428884495864, 16.017217641086837]}, "properties": {"Nom_quartier": "HLM", "Commune": "Saint-Louis", "Population": 2931}}, {"type": "Feature", "geometry": {"type": "Point", "coordinates": [-16.492017629167194, 16.012365316117368]}, "properties": {"Nom_quartier": "Eaux Claires", "Commune": "Saint-Louis", "Population": 6497}}, {"type": "Feature", "geometry": {"type": "Point", "coordinates": [-16.487366608612138, 16.010086085512178]}, "properties": {"Nom_quartier": "Medina course Paethieuly", "Commune": "Saint-Louis", "Population": 4711}}, {"type": "Feature", "geometry": {"type": "Point", "coordinates": [-16.489769796866877, 16.005644829886396]}, "properties": {"Nom_quartier": "Diaminar", "Commune": "Saint-Louis", "Population": 7455}}, {"type": "Feature", "geometry": {"type": "Point", "coordinates": [-16.485708219196454, 15.999129761169177]}, "properties": {"Nom_quartier": "Guinaw ray", "Commune": "Saint-Louis", "Population": 17876}}, {"type": "Feature", "geometry": {"type": "Point", "coordinates": [-16.496425759712913, 15.999529601995807]}, "properties": {"Nom_quartier": "Pikine Bas senegal", "Commune": "Saint-Louis", "Population": 14876}}, {"type": "Feature", "geometry": {"type": "Point", "coordinates": [-16.493045728107255, 16.00287820912098]}, "properties": {"Nom_quartier": "Pikine Tableau walo", "Commune": "Saint-Louis", "Population": 24159}}, {"type": "Feature", "geometry": {"type": "Point", "coordinates": [-16.490091420547753, 15.997015079549296]}, "properties": {"Nom_quartier": "Pikine Sor daga", "Commune": "Saint-Louis", "Population": 11553}}, {"type": "Feature", "geometry": {"type": "Point", "coordinates": [-16.492091837293028, 15.985541644504185]}, "properties": {"Nom_quartier": "Pikine Sor diagne", "Commune": "Saint-Louis", "Population": 15570}}, {"type": "Feature", "geometry": {"type": "Point", "coordinates": [-16.504062717046406, 16.034825336996814]}, "properties": {"Nom_quartier": "Haut Nord", "Commune": "Saint-Louis", "Population": 1790}}, {"type": "Feature", "geometry": {"type": "Point", "coordinates": [-16.50473141095128, 16.028459050224956]}, "properties": {"Nom_quartier": "Nord centre", "Commune": "Saint-Louis", "Population": 3037}}, {"type": "Feature", "geometry": {"type": "Point", "coordinates": [-16.505283469802166, 16.02267613578786]}, "properties": {"Nom_quartier": "SUD", "Commune": "Saint-Louis", "Population": 2096}}, {"type": "Feature", "geometry": {"type": "Point", "coordinates": [-16.50719142896636, 16.04383239586486]}, "properties": {"Nom_quartier": "Goxumbacc", "Commune": "Saint-Louis", "Population": 22175}}, {"type": "Feature", "geometry": {"type": "Point", "coordinates": [-16.50803878298355, 16.034899499029926]}, "properties": {"Nom_quartier": "Haut Ndar toute", "Commune": "Saint-Louis", "Population": 6297}}, {"type": "Feature", "geometry": {"type": "Point", "coordinates": [-16.508279554508924, 16.02848205929577]}, "properties": {"Nom_quartier": "Bas Ndar toute", "Commune": "Saint-Louis", "Population": 3355}}, {"type": "Feature", "geometry": {"type": "Point", "coordinates": [-16.508394504583627, 16.024253363594692]}, "properties": {"Nom_quartier": "Guet Ndar Lodo", "Commune": "Saint-Louis", "Population": 7371}}, {"type": "Feature", "geometry": {"type": "Point", "coordinates": [-16.508990949279607, 16.0147909674953]}, "properties": {"Nom_quartier": "Guet Ndar Dakk", "Commune": "Saint-Louis", "Population": 10352}}, {"type": "Feature", "geometry": {"type": "Point", "coordinates": [-16.50972568584312, 15.99827793959588]}, "properties": {"Nom_quartier": "Hydrobase", "Commune": "Saint-Louis", "Population": 6175}}, {"type": "Feature", "geometry": {"type": "Point", "coordinates": [-16.469960730042015, 16.031349857656892]}, "properties": {"Nom_quartier": "Khor Usine", "Commune": "Saint-Louis", "Population": 9155}}, {"type": "Feature", "geometry": {"type": "Point", "coordinates": [-16.471494043382748, 16.033694001974695]}, "properties": {"Nom_quartier": "Khor Mission", "Commune": "Saint-Louis", "Population": 1057}}, {"type": "Feature", "geometry": {"type": "Point", "coordinates": [-16.450578772409663, 16.061297544074375]}, "properties": {"Nom_quartier": "Bango Nord", "Commune": "Saint-Louis", "Population": 9155}}, {"type": "Feature", "geometry": {"type": "Point", "coordinates": [-16.454692864402226, 16.04809300583255]}, "properties": {"Nom_quartier": "Bango Sud", "Commune": "Saint-Louis", "Population": 7317}}, {"type": "Feature", "geometry": {"type": "Point", "coordinates": [-16.44402200496774, 16.04639551055178]}, "properties": {"Nom_quartier": "Ngallele Nord", "Commune": "Saint-Louis", "Population": 3601}}, {"type": "Feature", "geometry": {"type": "Point", "coordinates": [-16.447001461384186, 16.03662911386654]}, "properties": {"Nom_quartier": "Ngallele sud", "Commune": "Saint-Louis", "Population": 1390}}, {"type": "Feature", "geometry": {"type": "Point", "coordinates": [-16.485548558091306, 16.032234098592447]}, "properties": {"Nom_quartier": "Darou Medina marmyal", "Commune": "Saint-Louis", "Population": 6711}}, {"type": "Feature", "geometry": {"type": "Point", "coordinates": [-16.484395336708822, 16.028481689146464]}, "properties": {"Nom_quartier": "Darou Route de khor", "Commune": "Saint-Louis", "Population": 10413}}]}