{"type":"FeatureCollection","name":"quartiers-gandiol","features":[{"type":"Feature","properties":{"nom":"Mbambara","commune":"Ndiébène Gandiol","population":227},"geometry":{"type":"Point","coordinates":[-16.492671,15.948587]}},{"type":"Feature","properties":{"nom":"Gantour","commune":"Ndiébène Gandiol","population":1191},"geometry":{"type":"Point","coordinates":[-16.425961,15.890221]}},{"type":"Feature","properties":{"nom":"Keur Barka","commune":"Ndiébène Gandiol","population":2853},"geometry":{"type":"Point","coordinates":[-16.488192,15.958414]}},{"type":"Feature","properties":{"nom":"Dégou Niaye","commune":"Ndiébène Gandiol","population":923},"geometry":{"type":"Point","coordinates":[-16.514282,15.835079]}},{"type":"Feature","properties":{"nom":"Darou Bou Mbaye","commune":"Ndiébène Gandiol","population":1130},"geometry":{"type":"Point","coordinates":[-16.513168,15.843014]}},{"type":"Feature","properties":{"nom":"Gouye René","commune":"Ndiébène Gandiol","population":803},"geometry":{"type":"Point","coordinates":[-16.509459,15.849914]}},{"type":"Feature","properties":{"nom":"Pelour 1","commune":"Ndiébène Gandiol","population":785},"geometry":{"type":"Point","coordinates":[-16.438832,15.84451]}},{"type":"Feature","properties":{"nom":"Pelour 2","commune":"Ndiébène Gandiol","population":117},"geometry":{"type":"Point","coordinates":[-16.444098,15.839812]}},{"type":"Feature","properties":{"nom":"Ricotte","commune":"Ndiébène Gandiol","population":389},"geometry":{"type":"Point","coordinates":[-16.487769,15.86678]}},{"type":"Feature","properties":{"nom":"Ndoye Wolf","commune":"Ndiébène Gandiol","population":258},"geometry":{"type":"Point","coordinates":[-16.43622,15.866775]}},{"type":"Feature","properties":{"nom":"Ndiébène Gandiol","commune":"Ndiébène Gandiol","population":4732},"geometry":{"type":"Point","coordinates":[-16.50181,15.894036]}},{"type":"Feature","properties":{"nom":"Tassinère","commune":"Ndiébène Gandiol","population":1557},"geometry":{"type":"Point","coordinates":[-16.508469,15.88662]}},{"type":"Feature","properties":{"nom":"Mouit","commune":"Ndiébène Gandiol","population":2159},"geometry":{"type":"Point","coordinates":[-16.506059,15.865518]}},{"type":"Feature","properties":{"nom":"Ndiol","commune":"Ndiébène Gandiol","population":530},"geometry":{"type":"Point","coordinates":[-16.500176,15.879066]}},{"type":"Feature","properties":{"nom":"Ndiebene Gandiole","commune":"Ndiébène Gandiol","population":4855},"geometry":{"type":"Point","coordinates":[-16.492391,15.943461]}},{"type":"Feature","properties":{"nom":"Ndoye Peul","commune":"Ndiébène Gandiol","population":124},"geometry":{"type":"Point","coordinates":[-16.438096,15.856297]}},{"type":"Feature","properties":{"nom":"H1 Keur Abdou Ka","commune":"Ndiébène Gandiol","population":168},"geometry":{"type":"Point","coordinates":[-16.499206,15.891722]}},{"type":"Feature","properties":{"nom":"Diele Mbame","commune":"Ndiébène Gandiol","population":1367},"geometry":{"type":"Point","coordinates":[-16.493151,15.940286]}},{"type":"Feature","properties":{"nom":"Lakhrar 2","commune":"Ndiébène Gandiol","population":313},"geometry":{"type":"Point","coordinates":[-16.496186,15.885663]}},{"type":"Feature","properties":{"nom":"Mbaw","commune":"Ndiebene Gandiol","population":null},"geometry":{"type":"Point","coordinates":[-16.52069,15.809306]}},{"type":"Feature","properties":{"nom":"Wekhe","commune":"Ndiebene Gandiol","population":null},"geometry":{"type":"Point","coordinates":[-16.476816,15.811296]}},{"type":"Feature","properties":{"nom":"Ngiling Mbaw","commune":null,"population":null},"geometry":{"type":"Point","coordinates":[-16.523767,15.796741]}},{"type":"Feature","properties":{"nom":"Tiarene","commune":null,"population":null},"geometry":{"type":"Point","coordinates":[-16.431463,15.821293]}},{"type":"Feature","properties":{"nom":"Ndop","commune":null,"population":null},"geometry":{"type":"Point","coordinates":[-16.484746,15.791275]}},{"type":"Feature","properties":{"nom":"Ndiagane Fall","commune":null,"population":null},"geometry":{"type":"Point","coordinates":[-16.468514,15.81047]}},{"type":"Feature","properties":{"nom":"Keur Amadou Sow","commune":null,"population":null},"geometry":{"type":"Point","coordinates":[-16.46651,15.807031]}}]}