{"type":"FeatureCollection","name":"conservation-zones.geojson","features":[{"type":"Feature","properties":{"categorie":"Protection Naturel"},"geometry":{"type":"Polygon","coordinates":[[[-16.516404,15.874175],[-16.516416,15.874173],[-16.516576,15.874223],[-16.516762,15.874222],[-16.516867,15.874028],[-16.51684,15.873887],[-16.516851,15.873681],[-16.516743,15.873424],[-16.516681,15.873294],[-16.516732,15.87315],[-16.516729,15.872793],[-16.516526,15.872214],[-16.516534,15.872164],[-16.516572,15.871933],[-16.516611,15.871752],[-16.516756,15.87161],[-16.51682,15.871287],[-16.516832,15.871133],[-16.516817,15.870901],[-16.516763,15.87076],[-16.516761,15.870529],[-16.516904,15.870064],[-16.516903,15.869923],[-16.516781,15.869641],[-16.516713,15.869384],[-16.516676,15.86932],[-16.516781,15.868613],[-16.516825,15.868522],[-16.516867,15.868611],[-16.516854,15.868765],[-16.516824,15.868916],[-16.516856,15.868932],[-16.516976,15.868996],[-16.517201,15.868917],[-16.517293,15.868749],[-16.517345,15.868607],[-16.517544,15.868464],[-16.517703,15.868425],[-16.517876,15.868462],[-16.518049,15.868499],[-16.518302,15.868613],[-16.518528,15.868599],[-16.518528,15.868535],[-16.518381,15.868471],[-16.518234,15.868369],[-16.518153,15.868241],[-16.518007,15.868165],[-16.51782,15.868063],[-16.517726,15.868038],[-16.517739,15.867922],[-16.51795,15.867767],[-16.518215,15.867623],[-16.518454,15.86748],[-16.518705,15.867285],[-16.518864,15.867284],[-16.518972,15.867438],[-16.51896,15.867592],[-16.519001,15.867759],[-16.519109,15.867964],[-16.519216,15.868092],[-16.519256,15.868066],[-16.519121,15.867836],[-16.519119,15.867643],[-16.519197,15.867385],[-16.519329,15.867255],[-16.519435,15.867126],[-16.519632,15.866828],[-16.519764,15.866776],[-16.519949,15.866635],[-16.519953,15.866632],[-16.520002,15.865947],[-16.519984,15.865742],[-16.519952,15.865722],[-16.51992,15.865553],[-16.519829,15.865073],[-16.519405,15.864129],[-16.519435,15.863423],[-16.518959,15.862794],[-16.519047,15.860803],[-16.518609,15.858018],[-16.51803,15.857023],[-16.518156,15.856061],[-16.518066,15.855674],[-16.518406,15.855649],[-16.518538,15.855431],[-16.518685,15.855185],[-16.518744,15.855041],[-16.518802,15.854795],[-16.518844,15.854434],[-16.518871,15.854059],[-16.518868,15.853727],[-16.51882,15.853295],[-16.518729,15.853022],[-16.518495,15.852693],[-16.518489,15.852546],[-16.518663,15.852243],[-16.51893,15.851996],[-16.519286,15.851763],[-16.519448,15.851632],[-16.519671,15.851559],[-16.52004,15.851051],[-16.520083,15.850806],[-16.52014,15.850459],[-16.520048,15.850171],[-16.519747,15.849784],[-16.519774,15.84938],[-16.519802,15.849077],[-16.519829,15.84876],[-16.519916,15.848456],[-16.519871,15.848341],[-16.519846,15.848341],[-16.519722,15.848342],[-16.519471,15.848632],[-16.519141,15.848688],[-16.519142,15.848684],[-16.519116,15.848688],[-16.519246,15.847199],[-16.519385,15.846919],[-16.520384,15.845778],[-16.521165,15.844204],[-16.521644,15.842671],[-16.52202,15.841467],[-16.523118,15.839544],[-16.52379,15.837962],[-16.524586,15.83609],[-16.525562,15.834252],[-16.525689,15.833509],[-16.525743,15.833194],[-16.525783,15.832958],[-16.525834,15.83245],[-16.52593,15.831842],[-16.526026,15.831258],[-16.526124,15.830844],[-16.526221,15.830479],[-16.526395,15.83021],[-16.526643,15.829795],[-16.526692,15.8296],[-16.526765,15.829308],[-16.526813,15.829041],[-16.52682491335502,15.82876169801012],[-16.528487659222723,15.828668880640732],[-16.526775971850793,15.836716059902296],[-16.526485626476408,15.837767343806446],[-16.526241,15.838562],[-16.525267,15.843141],[-16.525197307569886,15.843498191891289],[-16.524919136455594,15.844619995381326],[-16.5246643610144,15.845122322518877],[-16.524700966869876,15.846042067504076],[-16.524690969163174,15.846093308359931],[-16.524358927046215,15.846979433343344],[-16.523720258352625,15.85141652008789],[-16.523653,15.851801],[-16.522755,15.855592],[-16.52267101848994,15.856126427791283],[-16.522327887429025,15.857026567992117],[-16.52226815428561,15.85812710595436],[-16.521447,15.862227],[-16.521041,15.863248],[-16.520935,15.864122],[-16.52101102386613,15.86512130166199],[-16.52081232406932,15.865855549743335],[-16.520375851725106,15.869050871260008],[-16.520225,15.869731],[-16.520005,15.87046],[-16.519866,15.871989],[-16.519845,15.872265],[-16.519798,15.872863],[-16.519766040772392,15.873515167988417],[-16.519765912644456,15.873516105985876],[-16.519555,15.873772],[-16.51935,15.874342],[-16.51933606681424,15.874380836753406],[-16.51926701493966,15.874507981690911],[-16.51908331834389,15.875093717210365],[-16.518816,15.875863],[-16.518544,15.876543],[-16.518383,15.877132],[-16.518203,15.877758],[-16.518004,15.878205],[-16.517693,15.878474],[-16.517253,15.878781],[-16.516922,15.87889],[-16.516702,15.87907],[-16.516464,15.87925],[-16.516243,15.879269],[-16.516058,15.879146],[-16.516019,15.878771],[-16.516109,15.878521],[-16.516329,15.878395],[-16.516531,15.878269],[-16.516381,15.877984],[-16.516341,15.877592],[-16.516468,15.877342],[-16.516797,15.876929],[-16.517035,15.876678],[-16.517144,15.876463],[-16.517014,15.876097],[-16.516974,15.875983],[-16.516711,15.875272],[-16.516559,15.874613],[-16.516404,15.874175]]]}},{"type":"Feature","properties":{"categorie":"Protection Naturel"},"geometry":{"type":"Polygon","coordinates":[[[-16.501138,15.943686],[-16.501398,15.944051],[-16.501573,15.944604],[-16.501562,15.944843],[-16.501316,15.945575],[-16.501126,15.945869],[-16.501168,15.945327],[-16.500845,15.944758],[-16.500776,15.944514],[-16.500734,15.943518],[-16.501138,15.943686]]]}},{"type":"Feature","properties":{"categorie":"Protection Naturel"},"geometry":{"type":"Polygon","coordinates":[[[-16.483298,15.948142],[-16.483489,15.947435],[-16.483697,15.946608],[-16.483901,15.94603],[-16.484219,15.945473],[-16.48442,15.94516],[-16.484536,15.944175],[-16.484647,15.943408],[-16.484823,15.942698],[-16.485068,15.94206],[-16.485312,15.941336],[-16.485606,15.940376],[-16.485609,15.940368],[-16.486186,15.940582],[-16.486424,15.94063],[-16.486438,15.940633],[-16.486751,15.940552],[-16.487115,15.940203],[-16.487274,15.940196],[-16.487359,15.940071],[-16.487484,15.939973],[-16.487501,15.93996],[-16.487617,15.940139],[-16.487904,15.940316],[-16.488076,15.94044],[-16.488249,15.940632],[-16.488394,15.940935],[-16.488482,15.941184],[-16.488655,15.941349],[-16.488863,15.94136],[-16.488884,15.941361],[-16.48896,15.941339],[-16.488983,15.941332],[-16.489027,15.941484],[-16.489001,15.941733],[-16.489117,15.941995],[-16.489304,15.942174],[-16.489419,15.942187],[-16.489633,15.942199],[-16.489706,15.942365],[-16.489851,15.942654],[-16.490052,15.942833],[-16.490155,15.943123],[-16.490114,15.943399],[-16.489987,15.943635],[-16.489845,15.943789],[-16.489761,15.944024],[-16.489791,15.944149],[-16.489935,15.944286],[-16.489936,15.944521],[-16.489923,15.944715],[-16.489924,15.944853],[-16.489984,15.944943],[-16.489997,15.944963],[-16.490039,15.944894],[-16.490109,15.944658],[-16.490107,15.944451],[-16.490077,15.944257],[-16.490005,15.944119],[-16.489989,15.943981],[-16.490116,15.943718],[-16.490172,15.94351],[-16.490242,15.943288],[-16.490283,15.943039],[-16.490253,15.942873],[-16.490108,15.942639],[-16.489935,15.942474],[-16.489891,15.942281],[-16.489789,15.942019],[-16.489488,15.941896],[-16.489344,15.941814],[-16.489257,15.941621],[-16.489226,15.941262],[-16.489182,15.941096],[-16.48901,15.941014],[-16.488998,15.941021],[-16.488825,15.941112],[-16.488807,15.941109],[-16.488696,15.941086],[-16.488522,15.940741],[-16.488377,15.940479],[-16.488117,15.94019],[-16.487888,15.940054],[-16.487771,15.939764],[-16.487712,15.939488],[-16.487692,15.939512],[-16.487598,15.939627],[-16.487471,15.939738],[-16.487455,15.93973],[-16.487338,15.939668],[-16.487329,15.939677],[-16.486661,15.940356],[-16.486319,15.940423],[-16.486315,15.940419],[-16.485794,15.939952],[-16.485685,15.939798],[-16.485682,15.939322],[-16.485533,15.939048],[-16.485334,15.938551],[-16.485241,15.938207],[-16.485038,15.937966],[-16.484955,15.93751],[-16.485057,15.936975],[-16.48512,15.936645],[-16.485209,15.936212],[-16.485245,15.935843],[-16.485242,15.935424],[-16.485201,15.935183],[-16.485041,15.934828],[-16.48471,15.934424],[-16.484325,15.933893],[-16.484138,15.933437],[-16.484017,15.933108],[-16.483962,15.932727],[-16.48396,15.932422],[-16.484115,15.932192],[-16.484206,15.932027],[-16.484376,15.931898],[-16.484402,15.931897],[-16.484443,15.931866],[-16.484454,15.931847],[-16.484662,15.931528],[-16.4847,15.931299],[-16.48475,15.931019],[-16.484774,15.930676],[-16.484705,15.930244],[-16.484663,15.929813],[-16.484593,15.929267],[-16.484511,15.928785],[-16.484416,15.928481],[-16.484414,15.928176],[-16.484529,15.927768],[-16.484762,15.927246],[-16.485047,15.926812],[-16.485347,15.926454],[-16.485504,15.926351],[-16.485551,15.926395],[-16.485591,15.926355],[-16.486148,15.926251],[-16.486162,15.926248],[-16.486579,15.926342],[-16.486905,15.926616],[-16.487342,15.926786],[-16.48754,15.926854],[-16.488236,15.926946],[-16.489391,15.9271],[-16.489496,15.927127],[-16.489842,15.927218],[-16.490594,15.92744],[-16.490872,15.927654],[-16.49107,15.927925],[-16.49129,15.928276],[-16.491624,15.928582],[-16.491842,15.928866],[-16.4921,15.929184],[-16.492474,15.929431],[-16.492642,15.929502],[-16.492812,15.929575],[-16.492575,15.930292],[-16.492531,15.930279],[-16.492321,15.93037],[-16.492256,15.930459],[-16.492218,15.930548],[-16.492113,15.930562],[-16.491968,15.930563],[-16.491784,15.930462],[-16.491652,15.930387],[-16.491467,15.930299],[-16.49123,15.930212],[-16.491213,15.930246],[-16.491176,15.930219],[-16.491136,15.931364],[-16.491648,15.932207],[-16.49165,15.93223],[-16.491665,15.932258],[-16.491665,15.932305],[-16.49168,15.932341],[-16.491681,15.932398],[-16.491726,15.932459],[-16.491748,15.932505],[-16.491749,15.932516],[-16.491406,15.933098],[-16.491236,15.934646],[-16.491068,15.93507],[-16.491021,15.935271],[-16.490843,15.936041],[-16.49029,15.937488],[-16.489598,15.937282],[-16.48878,15.938611],[-16.489861,15.939404],[-16.489867,15.939409],[-16.489865,15.93941],[-16.489921,15.939496],[-16.489977,15.93956],[-16.490015,15.939599],[-16.490052,15.939653],[-16.490088,15.939698],[-16.490134,15.93967],[-16.490138,15.939669],[-16.490364,15.939983],[-16.490377,15.940002],[-16.490344,15.940013],[-16.490314,15.940056],[-16.49033,15.940106],[-16.49036,15.940174],[-16.490364,15.94021],[-16.490402,15.940273],[-16.490408,15.940551],[-16.490274,15.941412],[-16.490728,15.942228],[-16.490743,15.942245],[-16.490743,15.942248],[-16.490746,15.942247],[-16.491003,15.942534],[-16.491004,15.942535],[-16.490977,15.942549],[-16.490937,15.942573],[-16.490907,15.942612],[-16.490901,15.942675],[-16.490905,15.94272],[-16.490911,15.942774],[-16.490928,15.942851],[-16.490893,15.942849],[-16.490857,15.942918],[-16.490838,15.942951],[-16.490823,15.942999],[-16.490801,15.943058],[-16.490802,15.943059],[-16.490886,15.943091],[-16.490957,15.943085],[-16.49096,15.943084],[-16.491028,15.943108],[-16.491099,15.943131],[-16.491139,15.943144],[-16.491184,15.944078],[-16.491205,15.944508],[-16.491203,15.944525],[-16.491114,15.945165],[-16.493927,15.945146],[-16.494045,15.945406],[-16.494282,15.945539],[-16.494535,15.945645],[-16.494848,15.945852],[-16.49463,15.946145],[-16.49467,15.946166],[-16.494675,15.946237],[-16.494651,15.946295],[-16.494597,15.946343],[-16.494543,15.946391],[-16.494474,15.946449],[-16.494405,15.946502],[-16.493969,15.94724],[-16.49396045638924,15.947867480746027],[-16.483102257261688,15.948675780729657],[-16.483298,15.948142]]]}},{"type":"Feature","properties":{"categorie":"Protection Naturel"},"geometry":{"type":"Polygon","coordinates":[[[-16.491276,15.921614],[-16.491276,15.921603],[-16.491499,15.9217],[-16.491506,15.921702],[-16.491616,15.921685],[-16.49199,15.921674],[-16.492297,15.921528],[-16.492307,15.921523],[-16.492746,15.921655],[-16.492873,15.921719],[-16.493138,15.922094],[-16.493378,15.922789],[-16.493274,15.923074],[-16.493124,15.923378],[-16.493031,15.92365],[-16.492662,15.923756],[-16.49224,15.923996],[-16.492215,15.923996],[-16.491885,15.923996],[-16.491644,15.923878],[-16.491331,15.923627],[-16.490971,15.923501],[-16.491088,15.923345],[-16.491068,15.923179],[-16.491028,15.922975],[-16.491027,15.922734],[-16.49114,15.922567],[-16.491234,15.922362],[-16.49129,15.922084],[-16.491288,15.921862],[-16.491276,15.921614]]]}},{"type":"Feature","properties":{"categorie":"Protection Naturel"},"geometry":{"type":"Polygon","coordinates":[[[-16.476432,15.926577],[-16.474692,15.925647],[-16.473911,15.925222],[-16.473384,15.925838],[-16.474003,15.927064],[-16.475472,15.928319],[-16.475719,15.928818],[-16.47554,15.929378],[-16.47518,15.930028],[-16.475103,15.931162],[-16.475038610523864,15.931116746352114],[-16.47511557034219,15.930690087208822],[-16.473107419628004,15.926243060245165],[-16.47326,15.926038],[-16.473274,15.926094],[-16.473283,15.926],[-16.473301,15.925972],[-16.473296,15.925912],[-16.473466,15.925587],[-16.473649,15.925318],[-16.473786,15.925127],[-16.473889,15.924981],[-16.473946,15.924857],[-16.473968,15.924734],[-16.473933,15.9246],[-16.473897,15.924489],[-16.473792,15.924344],[-16.473722,15.924222],[-16.473617,15.924033],[-16.473605,15.923932],[-16.473707,15.923719],[-16.47381,15.923551],[-16.473901,15.923416],[-16.473946,15.923248],[-16.473943,15.922902],[-16.473873,15.922746],[-16.473791,15.922512],[-16.473765,15.922121],[-16.473775,15.921942],[-16.473843,15.921819],[-16.473923,15.921662],[-16.473979,15.921505],[-16.47407,15.921191],[-16.474091,15.921023],[-16.474125,15.920856],[-16.474205,15.920755],[-16.474215,15.920587],[-16.474191,15.920408],[-16.474143,15.920196],[-16.4742,15.920006],[-16.474395,15.91987],[-16.474554,15.919512],[-16.474623,15.919422],[-16.474633,15.919221],[-16.47455,15.919031],[-16.474503,15.918819],[-16.474582,15.918618],[-16.474592,15.918416],[-16.474556,15.918249],[-16.474474,15.918082],[-16.474404,15.917915],[-16.474321,15.917647],[-16.474216,15.917514],[-16.474111,15.917436],[-16.473915,15.917382],[-16.473776,15.917371],[-16.473522,15.917362],[-16.473337,15.917307],[-16.473105,15.917164],[-16.472896,15.917042],[-16.472721,15.916753],[-16.472631,15.916262],[-16.472639,15.915904],[-16.472544,15.915458],[-16.472484,15.915179],[-16.472494,15.914978],[-16.472597,15.914765],[-16.472711,15.914574],[-16.472871,15.914338],[-16.473055,15.914225],[-16.473169,15.91409],[-16.47333,15.913933],[-16.473467,15.913831],[-16.473743,15.913662],[-16.473881,15.913504],[-16.473948,15.913247],[-16.473946,15.912923],[-16.473851,15.912611],[-16.473522,15.912553],[-16.473525,15.912583],[-16.473798,15.9128],[-16.4738,15.913136],[-16.473687,15.913426],[-16.47336,15.913668],[-16.473073,15.913943],[-16.472769,15.914363],[-16.472447,15.914762],[-16.472388,15.915144],[-16.472437,15.915693],[-16.47241,15.915675],[-16.472298,15.915599],[-16.472008,15.915376],[-16.471923,15.915215],[-16.471865,15.914918],[-16.471789,15.914631],[-16.471616,15.914052],[-16.47167,15.913562],[-16.471677,15.913319],[-16.471778,15.913201],[-16.471927,15.913173],[-16.472224,15.913117],[-16.472521,15.913061],[-16.472548,15.912953],[-16.4725,15.91272],[-16.472424,15.91254],[-16.472478,15.912297],[-16.472634,15.912062],[-16.472839,15.912025],[-16.473023,15.911862],[-16.472993,15.911601],[-16.472943,15.911236],[-16.472935,15.911182],[-16.472789,15.910941],[-16.472743,15.91085],[-16.47267,15.910707],[-16.472731,15.910403],[-16.472883,15.910006],[-16.472899,15.909983],[-16.47255,15.909567],[-16.472243,15.909358],[-16.472024,15.909275],[-16.47188,15.909221],[-16.472006,15.909698],[-16.471954,15.910426],[-16.471591,15.912657],[-16.471547,15.913344],[-16.471977,15.920029],[-16.471867,15.920524],[-16.471188959699347,15.921994652508062],[-16.47017166495959,15.919741864853362],[-16.467908434220323,15.913322607155926],[-16.468074,15.912431],[-16.468404,15.909497],[-16.468355,15.908899],[-16.468764,15.907965],[-16.468863,15.907323],[-16.469057,15.906063],[-16.46908,15.906153],[-16.469087,15.906113],[-16.469182,15.905972],[-16.469198,15.905967],[-16.469198,15.905962],[-16.469288,15.905788],[-16.46948,15.905588],[-16.469619,15.905359],[-16.469754,15.905116],[-16.469863,15.904879],[-16.469934,15.904717],[-16.470005,15.904573],[-16.470129,15.904403],[-16.470246,15.904288],[-16.470363,15.904144],[-16.470386,15.904089],[-16.471219,15.904897],[-16.471144,15.904968],[-16.470979,15.905341],[-16.470941,15.905647],[-16.471224,15.906723],[-16.471608,15.908183],[-16.471974,15.907104],[-16.472163,15.906435],[-16.472306,15.906013],[-16.472341,15.905772],[-16.47256,15.907469],[-16.472605,15.908012],[-16.472728,15.908435],[-16.473093,15.909105],[-16.473149,15.909448],[-16.47314,15.90962],[-16.47314,15.909625],[-16.473301,15.909596],[-16.473327,15.909591],[-16.473435,15.909403],[-16.473567,15.909426],[-16.473815,15.909685],[-16.473948,15.909901],[-16.474217,15.910124],[-16.474469,15.910261],[-16.47486,15.910335],[-16.475072,15.910332],[-16.475394,15.910394],[-16.475221,15.910992],[-16.475365,15.91114],[-16.47556,15.911277],[-16.475936,15.911376],[-16.476158,15.911333],[-16.476624,15.911081],[-16.476855,15.910947],[-16.477002,15.910781],[-16.477078,15.910871],[-16.47713,15.911065],[-16.477071,15.911221],[-16.47682,15.911379],[-16.47651,15.911576],[-16.476269,15.911792],[-16.47608,15.912115],[-16.475992,15.912369],[-16.475892,15.912565],[-16.475662,15.912713],[-16.475481,15.912723],[-16.47538,15.912802],[-16.475371,15.912909],[-16.475423,15.913094],[-16.475423,15.913162],[-16.475394,15.913299],[-16.475344,15.913348],[-16.475184,15.913447],[-16.475034,15.913613],[-16.474925,15.913848],[-16.474835,15.914034],[-16.474726,15.914152],[-16.474585,15.91426],[-16.474496,15.914397],[-16.474527,15.914543],[-16.474618,15.91464],[-16.47469,15.914756],[-16.474761,15.914882],[-16.474803,15.915126],[-16.474834,15.915233],[-16.474965,15.915281],[-16.475219,15.915267],[-16.475241,15.915304],[-16.475465,15.915672],[-16.475643,15.915705],[-16.475724,15.915753],[-16.475795,15.915811],[-16.475826,15.915937],[-16.475828,15.916123],[-16.475879,15.916307],[-16.475951,15.916521],[-16.475953,15.916765],[-16.475956,15.917106],[-16.475958,15.917447],[-16.4759,15.91774],[-16.475861,15.917994],[-16.475823,15.918286],[-16.475722,15.918658],[-16.475836,15.919085],[-16.475795,15.919745],[-16.475656,15.920239],[-16.475454,15.921013],[-16.475127,15.92177],[-16.475376,15.922023],[-16.475617,15.922576],[-16.475718,15.922862],[-16.475881,15.923511],[-16.476042,15.923969],[-16.476303,15.924446],[-16.476487,15.92492],[-16.476887,15.925275],[-16.477646,15.925616],[-16.478151,15.926171],[-16.478806,15.926787],[-16.478908,15.926494],[-16.479064,15.926187],[-16.479218,15.925708],[-16.479374,15.925343],[-16.479452,15.92517],[-16.479488,15.924692],[-16.479723,15.924461],[-16.479862,15.924517],[-16.479864,15.924804],[-16.479826,15.924996],[-16.479787,15.925111],[-16.47977,15.925379],[-16.479772,15.925685],[-16.479676,15.926087],[-16.479521,15.926509],[-16.479141,15.927195],[-16.479256,15.927368],[-16.479693,15.928029],[-16.480127,15.929151],[-16.480603,15.929194],[-16.48159,15.931152],[-16.48252,15.93231],[-16.482719,15.93255],[-16.482978,15.932892],[-16.483086,15.933193],[-16.483133,15.933456],[-16.482986,15.934151],[-16.483034,15.934897],[-16.482818,15.935519],[-16.482584,15.93598],[-16.482568,15.936351],[-16.482655,15.936787],[-16.482694,15.936837],[-16.482457,15.937049],[-16.482204,15.937458],[-16.482133,15.937596],[-16.482058,15.937919],[-16.482013,15.938282],[-16.481966,15.938933],[-16.482001,15.939528],[-16.482146,15.940331],[-16.48237,15.94128],[-16.482428,15.94145],[-16.482564,15.941854],[-16.482827,15.942494],[-16.483176,15.942929],[-16.483193,15.942951],[-16.482974,15.943573],[-16.482675,15.944033],[-16.482459,15.9446],[-16.482113,15.945056],[-16.481567,15.94556],[-16.481707,15.945665],[-16.482392,15.946183],[-16.482511,15.94662],[-16.482566,15.947197],[-16.482501,15.947742],[-16.482267,15.948086],[-16.481897,15.948543],[-16.481747453945502,15.948776634240026],[-16.48076157455418,15.948850024522015],[-16.47828941315358,15.948866995067021],[-16.477643,15.948147],[-16.477239,15.94772],[-16.477021,15.947233],[-16.477016,15.946623],[-16.477149,15.94612],[-16.477399,15.945865],[-16.477624,15.945496],[-16.477874,15.945038],[-16.478053,15.944602],[-16.478235,15.943643],[-16.47836,15.942942],[-16.478286,15.942688],[-16.478109,15.942571],[-16.478009,15.942326],[-16.47804,15.942014],[-16.478249,15.941414],[-16.478464,15.940854],[-16.478496,15.940511],[-16.478313,15.940244],[-16.478351,15.939407],[-16.478427,15.93885],[-16.478811,15.936656],[-16.478812,15.936367],[-16.478712,15.936005],[-16.478612,15.935503],[-16.478617,15.935445],[-16.478647,15.935122],[-16.47864,15.934831],[-16.478572,15.934555],[-16.478449,15.934304],[-16.478124,15.934],[-16.477938,15.933857],[-16.477673,15.933538],[-16.47748,15.933135],[-16.477521,15.932867],[-16.477639,15.932774],[-16.477847,15.932364],[-16.477916,15.932092],[-16.477915,15.931956],[-16.478404,15.931612],[-16.478614,15.931407],[-16.478752,15.931066],[-16.478749,15.930658],[-16.478759,15.930645],[-16.478129,15.929949],[-16.478029,15.928802],[-16.478115,15.928007],[-16.477591,15.927069],[-16.476432,15.926577]],[[-16.474969,15.922333],[-16.474755,15.923093],[-16.474697,15.923468],[-16.474863,15.92437],[-16.475019,15.924616],[-16.47522,15.924933],[-16.475652,15.925406],[-16.476083,15.925707],[-16.476505,15.92583],[-16.476497,15.92543],[-16.476269,15.925154],[-16.476088,15.924868],[-16.475828,15.924449],[-16.475568,15.92403],[-16.475387,15.923572],[-16.475305,15.923133],[-16.475222,15.922693],[-16.474969,15.922333]]]}},{"type":"Feature","properties":{"categorie":"Protection Naturel"},"geometry":{"type":"MultiPolygon","coordinates":[[[[-16.476844,15.936485],[-16.47677,15.936492],[-16.476715,15.93651],[-16.476687,15.936517],[-16.47667,15.936417],[-16.476668,15.936115],[-16.476683,15.935893],[-16.476728,15.935585],[-16.476787,15.935601],[-16.476843,15.93532],[-16.47694,15.935129],[-16.477087,15.934985],[-16.477084,15.934667],[-16.477049,15.934397],[-16.47695,15.934239],[-16.476785,15.934129],[-16.476571,15.934035],[-16.47644,15.934052],[-16.476342,15.934132],[-16.476179,15.93426],[-16.476016,15.934452],[-16.475902,15.934564],[-16.475656,15.934661],[-16.475197,15.934712],[-16.474935,15.934841],[-16.474841,15.934887],[-16.474905,15.935001],[-16.474856,15.935024],[-16.474779,15.935071],[-16.474505,15.935056],[-16.47428509561942,15.93529417335989],[-16.474778377458538,15.932559457875128],[-16.474901,15.93274],[-16.475219,15.932963],[-16.475622,15.933042],[-16.476066,15.933182],[-16.476447,15.933241],[-16.476702,15.933321],[-16.476893,15.933442],[-16.477276,15.933787],[-16.477575,15.934235],[-16.477662,15.934541],[-16.477791,15.934888],[-16.477877,15.935113],[-16.477836,15.935235],[-16.477752,15.9354],[-16.477648,15.935544],[-16.477459,15.935708],[-16.477248,15.935751],[-16.477037,15.935875],[-16.477019,15.936243],[-16.477083,15.936406],[-16.477212,15.93663],[-16.477319,15.936793],[-16.4773,15.937162],[-16.477196,15.937408],[-16.477008,15.937695],[-16.476877,15.937925],[-16.476865,15.937824],[-16.476871,15.937817],[-16.476857,15.937776],[-16.476863,15.937723],[-16.476818,15.937642],[-16.4768,15.937561],[-16.476796,15.93746],[-16.476819,15.937239],[-16.476824,15.937113],[-16.47681,15.936946],[-16.476797,15.936803],[-16.476827,15.936695],[-16.476851,15.936569],[-16.476844,15.936485]]],[[[-16.472572,15.924347],[-16.472413,15.923853],[-16.472431,15.923425],[-16.472693,15.92316],[-16.472914,15.922625],[-16.47316,15.922153],[-16.473252,15.921727],[-16.47329,15.921291],[-16.473246,15.92093],[-16.473266,15.92039],[-16.473299,15.919988],[-16.473331,15.919529],[-16.473375,15.919144],[-16.473403,15.91892],[-16.473432,15.918719],[-16.473413,15.918575],[-16.473347,15.918467],[-16.47321,15.918485],[-16.473075,15.918555],[-16.473008,15.918435],[-16.473013,15.918217],[-16.473106,15.918032],[-16.473224,15.917854],[-16.473264,15.917727],[-16.473246,15.917607],[-16.473174,15.917504],[-16.472995,15.91743],[-16.472989,15.917362],[-16.472987,15.917333],[-16.473026,15.917374],[-16.473353,15.917487],[-16.473714,15.917551],[-16.473824,15.917564],[-16.47399,15.917632],[-16.47414,15.917788],[-16.474327,15.918095],[-16.474375,15.918241],[-16.474388,15.918338],[-16.474338,15.91866],[-16.474373,15.918966],[-16.474448,15.919158],[-16.474519,15.919333],[-16.474437,15.919483],[-16.474274,15.919658],[-16.474033,15.919884],[-16.473937,15.920225],[-16.473862,15.920549],[-16.473935,15.920833],[-16.473848,15.921201],[-16.473551,15.921567],[-16.47344,15.922131],[-16.473452,15.922377],[-16.473615,15.922857],[-16.473672,15.923114],[-16.473534,15.923288],[-16.473379,15.923466],[-16.473296,15.923819],[-16.473354,15.924185],[-16.473473,15.92442],[-16.47364,15.92483],[-16.473003,15.925576],[-16.472888371549196,15.925757980760883],[-16.47247585206631,15.924844461048213],[-16.472572,15.924347]]]]}},{"type":"Feature","properties":{"categorie":"Protection Naturel"},"geometry":{"type":"Polygon","coordinates":[[[-16.501664,15.945759],[-16.501848,15.94548],[-16.50203,15.945005],[-16.502138,15.945498],[-16.502130310423926,15.94581903980107],[-16.501589854110332,15.945847721577382],[-16.501664,15.945759]]]}},{"type":"Feature","properties":{"categorie":"Protection Naturel"},"geometry":{"type":"Polygon","coordinates":[[[-16.501222,15.941996],[-16.50113,15.942086],[-16.501126,15.941613],[-16.501243,15.941367],[-16.501308,15.941023],[-16.501305,15.940582],[-16.501149,15.940077],[-16.500963,15.940045],[-16.500928,15.939866],[-16.501092,15.939227],[-16.501138,15.938655],[-16.501217,15.937887],[-16.5014,15.937526],[-16.50155,15.937198],[-16.501773,15.937103],[-16.501785,15.937098],[-16.502005,15.937179],[-16.50216,15.937537],[-16.502213,15.937847],[-16.502149,15.938321],[-16.502085,15.938861],[-16.502058,15.93976],[-16.50225,15.94051],[-16.50237,15.940851],[-16.502457,15.941097],[-16.502631,15.941766],[-16.502685,15.942304],[-16.502823,15.942598],[-16.502795,15.942681],[-16.502575,15.942601],[-16.502381,15.942509],[-16.502149,15.942343],[-16.502033,15.94227],[-16.50182,15.942103],[-16.501684,15.942011],[-16.501542,15.942006],[-16.501222,15.941996]]]}},{"type":"Feature","properties":{"categorie":"Protection Naturel"},"geometry":{"type":"Polygon","coordinates":[[[-16.496281,15.947114],[-16.496265,15.946666],[-16.495999,15.946135],[-16.495845,15.945604],[-16.495638,15.944734],[-16.495595,15.943972],[-16.495686,15.94281],[-16.495721,15.942422],[-16.495986,15.941077],[-16.496587,15.939464],[-16.496793,15.938531],[-16.496976,15.937937],[-16.497036,15.937561],[-16.497439,15.936276],[-16.497669,15.935258],[-16.497714,15.934568],[-16.497773,15.933892],[-16.498005,15.934359],[-16.498054,15.934614],[-16.498021,15.93519],[-16.498002,15.935303],[-16.498428,15.935583],[-16.498404,15.935811],[-16.498425,15.93583],[-16.498402,15.935854],[-16.498324,15.93602],[-16.498391,15.936146],[-16.498563,15.936272],[-16.498852,15.936346],[-16.498998,15.936498],[-16.498986,15.936701],[-16.498843,15.936855],[-16.498752,15.937059],[-16.498702,15.937338],[-16.498755,15.93744],[-16.498859,15.93735],[-16.498965,15.937375],[-16.498991,15.937425],[-16.498927,15.937565],[-16.49898,15.937667],[-16.499059,15.937692],[-16.499165,15.937767],[-16.499178,15.937856],[-16.499126,15.937882],[-16.499008,15.937908],[-16.498876,15.937871],[-16.498731,15.937796],[-16.498507,15.937632],[-16.498256,15.937481],[-16.498058,15.937241],[-16.497846,15.937027],[-16.497647,15.936812],[-16.497561,15.936882],[-16.497469,15.937121],[-16.497323,15.937496],[-16.497214,15.937882],[-16.497096,15.938444],[-16.497078,15.938939],[-16.497364,15.939047],[-16.497376,15.939088],[-16.497481,15.939151],[-16.49756,15.939239],[-16.497588,15.939404],[-16.497589,15.939595],[-16.497603,15.939626],[-16.497581,15.939686],[-16.497616,15.940232],[-16.497588,15.940657],[-16.497402,15.940992],[-16.497061,15.941449],[-16.496906,15.941784],[-16.496784,15.942149],[-16.496786,15.942391],[-16.49685,15.942573],[-16.497101,15.942602],[-16.497446,15.942599],[-16.498543,15.942561],[-16.498918,15.942437],[-16.499141,15.94286],[-16.499332,15.943284],[-16.499429,15.943617],[-16.499527,15.944223],[-16.499593,15.944617],[-16.499533,15.944981],[-16.499275,15.945225],[-16.498955,15.945015],[-16.498597,15.944882],[-16.498049,15.944909],[-16.49769,15.944979],[-16.496997,15.945319],[-16.496903,15.945481],[-16.496889,15.945618],[-16.496989,15.945777],[-16.497145,15.945826],[-16.497366,15.945759],[-16.49797,15.945646],[-16.498405,15.945737],[-16.49868,15.945934],[-16.498822,15.946089],[-16.49891446416788,15.946492301157761],[-16.49834505402926,15.946670634270353],[-16.498104,15.94659],[-16.497799,15.946697],[-16.49757,15.946824],[-16.497437716675293,15.94695480254122],[-16.496233993761432,15.947331795572026],[-16.496281,15.947114]]]}},{"type":"Feature","properties":{"categorie":"Protection Naturel"},"geometry":{"type":"Polygon","coordinates":[[[-16.491792,15.932443],[-16.491749,15.932516],[-16.491748,15.932505],[-16.491726,15.932459],[-16.491681,15.932398],[-16.49168,15.932341],[-16.491665,15.932305],[-16.491665,15.932258],[-16.49165,15.93223],[-16.491648,15.932207],[-16.491792,15.932443]]]}},{"type":"Feature","properties":{"categorie":"Protection Naturel"},"geometry":{"type":"Polygon","coordinates":[[[-16.491182,15.920973],[-16.491141,15.920873],[-16.491065,15.920812],[-16.490932,15.9207],[-16.49083,15.92058],[-16.490744,15.920498],[-16.490681,15.920408],[-16.490657,15.920295],[-16.490656,15.920152],[-16.490709,15.920031],[-16.49091,15.919857],[-16.491034,15.919728],[-16.491135,15.91969],[-16.49122,15.919614],[-16.491242,15.919478],[-16.491259,15.91944],[-16.491258,15.91944],[-16.491303,15.91935],[-16.491341,15.919199],[-16.491371,15.919018],[-16.49137,15.918898],[-16.491368,15.918665],[-16.49136,15.918582],[-16.491374,15.918446],[-16.491405,15.918363],[-16.49149,15.91828],[-16.491582,15.918159],[-16.491643,15.918046],[-16.491674,15.917948],[-16.491674,15.917902],[-16.491673,15.917805],[-16.491672,15.917722],[-16.491664,15.917632],[-16.491694,15.917556],[-16.491693,15.917443],[-16.491685,15.917338],[-16.491653,15.917285],[-16.491614,15.917226],[-16.491582,15.917151],[-16.491597,15.917015],[-16.491605,15.916992],[-16.491659,15.916932],[-16.491635,15.916887],[-16.491635,15.916834],[-16.491665,15.916751],[-16.491602,15.916586],[-16.491468,15.916339],[-16.491381,15.916189],[-16.49138,15.916076],[-16.49141,15.915978],[-16.491449,15.915872],[-16.491479,15.915827],[-16.491564,15.915743],[-16.491672,15.915645],[-16.49171,15.915502],[-16.491741,15.915403],[-16.491779,15.91529],[-16.49184,15.915154],[-16.491838,15.914951],[-16.491861,15.914793],[-16.491859,15.914635],[-16.491834,15.914379],[-16.491818,15.914244],[-16.491777,15.914056],[-16.491714,15.913914],[-16.491667,15.913816],[-16.491611,15.913658],[-16.491634,15.91356],[-16.491703,15.913507],[-16.491766,15.913507],[-16.491828,15.913552],[-16.491891,15.913626],[-16.491977,15.913656],[-16.492062,15.91367],[-16.492171,15.913655],[-16.492233,15.913624],[-16.492303,15.913563],[-16.492333,15.91351],[-16.492348,15.91345],[-16.492317,15.913443],[-16.492279,15.913496],[-16.492225,15.913556],[-16.492124,15.913595],[-16.492054,15.913588],[-16.491984,15.913596],[-16.49189,15.913529],[-16.491835,15.913469],[-16.49178,15.913386],[-16.491717,15.913293],[-16.491662,15.913173],[-16.491429,15.913242],[-16.491407,15.913355],[-16.491368,15.913385],[-16.49129,15.913401],[-16.491221,15.913462],[-16.491284,15.913597],[-16.491284,15.913657],[-16.491324,15.913777],[-16.491349,15.913912],[-16.491381,15.914025],[-16.49142,15.91413],[-16.491522,15.91425],[-16.491585,15.91434],[-16.491632,15.914437],[-16.491664,15.914527],[-16.491665,15.914678],[-16.491666,15.914828],[-16.491644,15.914971],[-16.491645,15.915054],[-16.491568,15.915145],[-16.491483,15.915311],[-16.491453,15.915424],[-16.491392,15.91553],[-16.491314,15.915606],[-16.491245,15.915667],[-16.491253,15.915734],[-16.491269,15.915832],[-16.4912,15.915915],[-16.491162,15.915983],[-16.491147,15.916096],[-16.491148,15.916186],[-16.49118,15.916359],[-16.491267,15.916547],[-16.491307,15.916712],[-16.491308,15.916799],[-16.491324,15.916934],[-16.491364,15.917077],[-16.491404,15.917204],[-16.491389,15.91734],[-16.491351,15.917446],[-16.491375,15.917483],[-16.491445,15.917528],[-16.491485,15.917633],[-16.491501,15.917708],[-16.491471,15.917821],[-16.491409,15.917912],[-16.491347,15.917965],[-16.49127,15.918018],[-16.491224,15.918116],[-16.491131,15.918215],[-16.49107,15.918283],[-16.491016,15.918419],[-16.490978,15.918554],[-16.490979,15.91863],[-16.490988,15.918773],[-16.491028,15.918893],[-16.491075,15.91899],[-16.491107,15.919095],[-16.491131,15.919208],[-16.491139,15.919291],[-16.490985,15.919405],[-16.490876,15.919473],[-16.490791,15.919564],[-16.490691,15.919633],[-16.490582,15.919694],[-16.490451,15.91974],[-16.490436,15.919741],[-16.490315,15.919194],[-16.490257,15.917938],[-16.490009,15.91667],[-16.48988,15.915926],[-16.489996,15.914942],[-16.490034,15.913663],[-16.490079,15.912871],[-16.490072,15.91198],[-16.489992,15.911503],[-16.489855,15.910689],[-16.489889,15.909566],[-16.489944,15.908855],[-16.490148,15.908073],[-16.490588,15.907026],[-16.491064,15.905996],[-16.491851,15.903917],[-16.492011,15.902921],[-16.492286,15.901799],[-16.492591,15.900716],[-16.492842,15.899854],[-16.493164,15.899369],[-16.494305,15.899186],[-16.494536,15.899512],[-16.494338,15.900701],[-16.494292,15.902094],[-16.494223,15.903457],[-16.494057,15.904249],[-16.494187,15.904974],[-16.494489,15.905936],[-16.494576,15.906716],[-16.4945,15.907328],[-16.494248,15.907909],[-16.494086,15.908398],[-16.494247,15.90883],[-16.494583,15.909411],[-16.494602,15.910548],[-16.494618,15.911207],[-16.494786,15.911955],[-16.494995,15.912962],[-16.495183,15.914042],[-16.49507,15.914816],[-16.494879,15.915148],[-16.494523,15.915296],[-16.493988,15.915335],[-16.493557,15.915518],[-16.493668,15.916156],[-16.493991,15.916756],[-16.493904,15.917092],[-16.493513,15.917653],[-16.49293,15.918404],[-16.492827,15.918799],[-16.492912,15.920016],[-16.493034,15.920641],[-16.492891,15.921285],[-16.492891,15.921287],[-16.492744,15.921299],[-16.492742,15.921297],[-16.492621,15.92122],[-16.492593,15.921237],[-16.492523,15.921245],[-16.492476,15.921193],[-16.49239,15.921134],[-16.492265,15.921104],[-16.492164,15.921082],[-16.492063,15.921083],[-16.491915,15.921084],[-16.491814,15.921122],[-16.491682,15.921153],[-16.491503,15.92117],[-16.491379,15.921171],[-16.491285,15.921156],[-16.491254,15.921096],[-16.491222,15.921051],[-16.491217,15.920997],[-16.491182,15.920973]]]}},{"type":"Feature","properties":{"categorie":"Protection Naturel"},"geometry":{"type":"Polygon","coordinates":[[[-16.504394,15.92347],[-16.504562,15.924389],[-16.50453,15.924849],[-16.504374,15.925659],[-16.504355,15.926645],[-16.504231,15.927143],[-16.504221,15.927609],[-16.504375,15.927806],[-16.504424,15.928006],[-16.504385,15.928401],[-16.504318,15.928868],[-16.504216,15.93055],[-16.504034,15.93118],[-16.503926,15.930882],[-16.503856,15.930479],[-16.503864,15.930044],[-16.503905,15.929575],[-16.503959,15.929183],[-16.504081,15.928953],[-16.504124,15.928681],[-16.504111,15.928474],[-16.504041,15.928181],[-16.503916,15.927953],[-16.503711,15.927671],[-16.50363,15.927389],[-16.50364,15.927127],[-16.503728,15.926898],[-16.503727,15.926724],[-16.503668,15.926463],[-16.503599,15.926246],[-16.503586,15.926006],[-16.503596,15.925756],[-16.503594,15.925538],[-16.503592,15.925277],[-16.503545,15.925016],[-16.503667,15.924797],[-16.503824,15.924633],[-16.503957,15.924436],[-16.503632,15.924645],[-16.50351,15.924776],[-16.503455,15.925005],[-16.503491,15.925288],[-16.503515,15.925495],[-16.503472,15.925789],[-16.503418,15.926073],[-16.503465,15.926312],[-16.503489,15.926617],[-16.503447,15.926998],[-16.503382,15.927325],[-16.503498,15.927705],[-16.503603,15.928304],[-16.503561,15.928652],[-16.503393,15.928838],[-16.503259,15.92897],[-16.503081,15.929156],[-16.50297,15.929364],[-16.502949,15.929571],[-16.50295,15.929778],[-16.502974,15.929963],[-16.502931,15.930192],[-16.502808,15.930367],[-16.502674,15.930518],[-16.502686,15.930368],[-16.50266,15.929831],[-16.502627,15.929518],[-16.502699,15.929349],[-16.502715,15.929335],[-16.502685,15.928851],[-16.502897,15.928298],[-16.502875,15.927488],[-16.502948,15.926828],[-16.502995,15.926115],[-16.503083,15.925716],[-16.503027,15.924913],[-16.503116,15.924367],[-16.503103,15.922489],[-16.503141,15.922441],[-16.503259,15.922103],[-16.503378,15.921779],[-16.503589,15.921617],[-16.503725,15.921616],[-16.503892,15.921644],[-16.503953,15.921717],[-16.504045,15.921892],[-16.504123,15.922082],[-16.504185,15.92236],[-16.504309,15.922652],[-16.504355,15.922843],[-16.504394,15.92347]]]}},{"type":"Feature","properties":{"categorie":"Protection Naturel"},"geometry":{"type":"Polygon","coordinates":[[[-16.48614,15.92453],[-16.486119,15.924532],[-16.485848,15.924562],[-16.485573,15.924708],[-16.48522,15.925173],[-16.485236,15.925119],[-16.485477,15.924312],[-16.485963,15.923574],[-16.486449,15.923093],[-16.486457,15.923056],[-16.486473,15.923045],[-16.48668,15.922952],[-16.486984,15.922987],[-16.487249,15.923022],[-16.487438,15.923002],[-16.487646,15.922946],[-16.487702,15.922872],[-16.487569,15.922745],[-16.487436,15.922654],[-16.487283,15.922527],[-16.487111,15.922253],[-16.48711,15.922125],[-16.487109,15.921978],[-16.486957,15.921906],[-16.486879,15.921705],[-16.486915,15.921411],[-16.486933,15.921246],[-16.487026,15.921044],[-16.487063,15.920879],[-16.487061,15.920659],[-16.486927,15.92044],[-16.486794,15.920404],[-16.48674,15.920405],[-16.486408,15.919804],[-16.486472,15.919059],[-16.486624,15.918608],[-16.486355,15.918057],[-16.486268,15.918013],[-16.4863,15.917549],[-16.486108,15.917294],[-16.485806,15.917314],[-16.485466,15.917482],[-16.485146,15.917795],[-16.485129,15.91807],[-16.485112,15.91829],[-16.484886,15.918494],[-16.484659,15.918495],[-16.48443,15.918167],[-16.484483,15.917745],[-16.484537,15.917396],[-16.484534,15.916902],[-16.484473,15.916407],[-16.484641,15.916021],[-16.48479,15.915672],[-16.48479,15.915667],[-16.484835,15.915642],[-16.484986,15.915041],[-16.48493,15.914491],[-16.48503,15.91399],[-16.485438,15.913287],[-16.485953,15.912983],[-16.486471,15.91295],[-16.486546,15.913599],[-16.486144,15.91464],[-16.48593,15.91497],[-16.485676,15.915442],[-16.485706,15.916024],[-16.485517,15.916606],[-16.486101,15.916596],[-16.486235,15.916505],[-16.486559,15.91676],[-16.487127,15.916756],[-16.487373,15.916681],[-16.487639,15.916844],[-16.487678,15.916972],[-16.487679,15.9171],[-16.487586,15.917302],[-16.487549,15.917522],[-16.487475,15.917743],[-16.487401,15.917963],[-16.487384,15.918183],[-16.487612,15.918383],[-16.487594,15.918475],[-16.48752,15.91864],[-16.48756,15.918915],[-16.487524,15.919227],[-16.487393,15.919374],[-16.487166,15.919467],[-16.487167,15.919632],[-16.487357,15.919704],[-16.487623,15.919757],[-16.488003,15.919938],[-16.488327,15.920229],[-16.488342,15.92026],[-16.488467,15.921342],[-16.488459,15.921972],[-16.489079,15.922604],[-16.489348,15.923284],[-16.488993,15.924199],[-16.488794,15.924477],[-16.488625,15.924698],[-16.488135,15.925031],[-16.487832,15.925088],[-16.48768,15.924924],[-16.487546,15.924779],[-16.487395,15.924835],[-16.487283,15.925019],[-16.48717,15.925269],[-16.486889,15.925134],[-16.486696,15.924989],[-16.486469,15.924734],[-16.486274,15.924597],[-16.48614,15.92453]]]}},{"type":"Feature","properties":{"categorie":"Protection Naturel"},"geometry":{"type":"Polygon","coordinates":[[[-16.511618,15.944203],[-16.511637,15.943892],[-16.511784,15.943477],[-16.512017,15.943185],[-16.512166,15.942977],[-16.51225,15.942852],[-16.51244,15.942416],[-16.512567,15.942187],[-16.512651,15.942041],[-16.512714,15.941813],[-16.512797,15.94146],[-16.512795,15.941233],[-16.512707,15.940902],[-16.512706,15.940736],[-16.512917,15.940445],[-16.513152,15.940277],[-16.513215,15.940132],[-16.51317,15.939821],[-16.513018,15.939574],[-16.512802,15.939306],[-16.512736,15.939099],[-16.512734,15.93883],[-16.512583,15.938645],[-16.512388,15.938398],[-16.51228,15.938253],[-16.512172,15.93813],[-16.512021,15.937965],[-16.511913,15.9378],[-16.511869,15.937635],[-16.511868,15.937573],[-16.512039,15.937509],[-16.512273,15.937301],[-16.51254,15.937199],[-16.512551,15.937195],[-16.512851,15.937276],[-16.512938,15.93742],[-16.513004,15.93771],[-16.513386,15.937707],[-16.513411,15.937707],[-16.51371,15.937622],[-16.513688,15.937518],[-16.513599,15.937167],[-16.513533,15.936836],[-16.51353,15.936505],[-16.513485,15.936256],[-16.51342,15.93605],[-16.513312,15.935988],[-16.512861,15.935826],[-16.512475,15.935746],[-16.512046,15.935541],[-16.511636,15.935192],[-16.511228,15.934988],[-16.510756,15.934805],[-16.510477,15.934745],[-16.51007,15.934685],[-16.509898,15.934624],[-16.509854,15.934521],[-16.509938,15.934189],[-16.510236,15.933959],[-16.510577,15.933791],[-16.510875,15.933582],[-16.51113,15.933331],[-16.511386,15.933205],[-16.511534,15.932997],[-16.511769,15.93283],[-16.511853,15.932684],[-16.511873,15.932456],[-16.511785,15.932208],[-16.511591,15.931961],[-16.511247,15.931756],[-16.511223,15.931425],[-16.511371,15.931175],[-16.511153,15.930721],[-16.510852,15.930516],[-16.510658,15.930373],[-16.51027,15.92994],[-16.509862,15.929798],[-16.509582,15.929551],[-16.509301,15.929263],[-16.509512,15.928868],[-16.509936,15.928639],[-16.509939,15.928638],[-16.510667,15.928674],[-16.51144,15.929],[-16.512431,15.929822],[-16.513014,15.930439],[-16.513796,15.932049],[-16.514603,15.934296],[-16.51491,15.935406],[-16.515356,15.937201],[-16.515601,15.938244],[-16.515783,15.939434],[-16.516141,15.941062],[-16.516348,15.942795],[-16.51635124542588,15.94289110066636],[-16.515418224677354,15.942961308856555],[-16.511618130724454,15.944216551768529],[-16.511618,15.944203]]]}},{"type":"Feature","properties":{"categorie":"Protection Naturel"},"geometry":{"type":"Polygon","coordinates":[[[-16.463087,15.902921],[-16.464726,15.902451],[-16.464801,15.902731],[-16.464801,15.902802],[-16.465266,15.9034],[-16.465278,15.903415],[-16.465565,15.903725],[-16.465849,15.903964],[-16.466807,15.904178],[-16.466912,15.904177],[-16.467249,15.904116],[-16.467562,15.903986],[-16.467695,15.903903],[-16.467814,15.903727],[-16.467888,15.903605],[-16.467969,15.903469],[-16.46804,15.903305],[-16.468135,15.903059],[-16.468255,15.902906],[-16.468411,15.9028],[-16.468591,15.902694],[-16.468748,15.902658],[-16.468881,15.902657],[-16.468977,15.902691],[-16.469015,15.902866],[-16.469065,15.903053],[-16.469042,15.90331],[-16.469039,15.903311],[-16.469046,15.903351],[-16.468901,15.903555],[-16.468735,15.90378],[-16.468359,15.903985],[-16.468214,15.904291],[-16.468049,15.904596],[-16.46782,15.904882],[-16.467739,15.905268],[-16.467741,15.905573],[-16.467617,15.905858],[-16.46745,15.906001],[-16.467137,15.906104],[-16.466843,15.906106],[-16.466655,15.90625],[-16.466469,15.906555],[-16.466281,15.906739],[-16.466094,15.906903],[-16.466032,15.907086],[-16.466096,15.907289],[-16.466118,15.907431],[-16.466077,15.907553],[-16.465847,15.907656],[-16.465532,15.907577],[-16.4653,15.907416],[-16.46513,15.907092],[-16.465126,15.906544],[-16.465083,15.906342],[-16.464893,15.90616],[-16.46452165858109,15.90599197220864],[-16.46305213865895,15.90293800204748],[-16.463087,15.902921]]]}}]}