{"type":"FeatureCollection","name":"geologie-vasieres.geojson","features":[{"type":"Feature","properties":{"Id":0},"geometry":{"type":"MultiPolygon","coordinates":[[[[-16.486245110062907,15.926317922788918],[-16.48635217788569,15.927678724410509],[-16.485145990987757,15.931075621538675],[-16.486103823725095,15.934312414748927],[-16.486205818536543,15.936585069539845],[-16.485247463721976,15.938397757908778],[-16.4849182774203,15.937551618472861],[-16.485171320813077,15.936254100923861],[-16.48516375076073,15.935225160585459],[-16.48428772135953,15.933935402379602],[-16.48397996228185,15.933149899804706],[-16.483922407813857,15.932464271153965],[-16.48462482327497,15.931570176756688],[-16.4847129893546,15.931061414864367],[-16.484376978343025,15.928218090986647],[-16.484724634591064,15.927288330308558],[-16.48533755549261,15.926478375250417],[-16.486245110062907,15.926317922788918]]],[[[-16.47476866513896,15.932641852929494],[-16.4751827133947,15.933005077279335],[-16.476855901411167,15.933484443349421],[-16.47753803411188,15.93427731810085],[-16.47784034867747,15.935154584283861],[-16.477611008904166,15.935585600952884],[-16.47700050340082,15.935916975672116],[-16.477263547429686,15.937203508896006],[-16.476840258158774,15.93796682593128],[-16.477011661465546,15.938647781085963],[-16.476508150110227,15.940821573876093],[-16.47659977559036,15.941985383794604],[-16.476492638285286,15.942308391150958],[-16.474404492759756,15.943963408117066],[-16.474234426656505,15.943246928977999],[-16.47492722244647,15.939141687109759],[-16.474921665383533,15.935841607774892],[-16.474513741712705,15.9340266228375],[-16.47476866513896,15.932641852929494]]],[[[-16.477971804409506,15.942367828608175],[-16.4780933926813,15.941512681616398],[-16.47842697340758,15.940895511294995],[-16.478459021027984,15.940552701929215],[-16.47827604239524,15.940285889494096],[-16.478314193235086,15.939449010402727],[-16.478774656459915,15.936697969381985],[-16.478535487669784,15.934597586017965],[-16.477636339352777,15.93357983250175],[-16.477443108746744,15.93317760289073],[-16.4775092804296,15.932742318826298],[-16.47608125661423,15.93281447667528],[-16.475105058457718,15.932471136709175],[-16.475094807611224,15.932335735308774],[-16.47519576692541,15.931519340464725],[-16.47503245773554,15.931176713630082],[-16.475510297245176,15.928551331778019],[-16.475826424307613,15.923923289182698],[-16.47684576120211,15.918101213931056],[-16.47790737407764,15.916915039049993],[-16.478700201499823,15.917998219072233],[-16.478859874875297,15.920689886416014],[-16.47876218157796,15.924455350758352],[-16.479280267777806,15.926169772367404],[-16.47998418772534,15.933995676528642],[-16.48144611736823,15.936196766742176],[-16.481966110975495,15.93609379027137],[-16.482252923433403,15.932444801837098],[-16.481545697095715,15.928851520195293],[-16.48146163553891,15.92210724488291],[-16.482086803541584,15.918741055066354],[-16.484138185052768,15.913522343352813],[-16.484885626201333,15.912883344342893],[-16.485395668970224,15.913820500602402],[-16.485453432022943,15.91554276470749],[-16.485208533779375,15.917907990441208],[-16.486083021022342,15.924573971867552],[-16.485535909028144,15.924751004413752],[-16.48476345779597,15.92623330944852],[-16.484115702610058,15.926499572079472],[-16.48323667582897,15.927672753284671],[-16.482864103195045,15.928565816329684],[-16.48266184262724,15.931689377155092],[-16.48248309384121,15.932352563761592],[-16.482940563555772,15.932933745470358],[-16.483096302270514,15.933497794160195],[-16.482996872945392,15.93493906587094],[-16.482546492884676,15.93602234107373],[-16.482617623315285,15.93682948260726],[-16.48326151628844,15.937779860711982],[-16.48398047134521,15.93844952449041],[-16.48460802782432,15.939543887645927],[-16.484345374367113,15.940590830744005],[-16.483258924997873,15.942767537789136],[-16.483158757687853,15.94267978247013],[-16.480209944468996,15.947376372395661],[-16.479988803359014,15.948855329332755],[-16.478212360222486,15.948867524009119],[-16.477202350011332,15.947761624833976],[-16.476984522175513,15.947274855245725],[-16.477112737895037,15.946161206134787],[-16.478016440285053,15.944643269908042],[-16.478322768241412,15.942983390728562],[-16.477971804409506,15.942367828608175]]],[[[-16.48375717922283,15.948606345963483],[-16.483550908184316,15.946927855614353],[-16.484383001254603,15.945201092264307],[-16.48478608865981,15.942739333926303],[-16.485571488504895,15.940409608970198],[-16.486386501305752,15.940672232546337],[-16.486713645082524,15.940593717710515],[-16.487463535010022,15.940001344131975],[-16.488211834733352,15.940673898198902],[-16.488617383710302,15.941390310019054],[-16.48894605897931,15.94137420396327],[-16.489079601363674,15.942037178287505],[-16.489595730819243,15.942241065261248],[-16.49011718016141,15.943164154751134],[-16.489723569247815,15.944065882647926],[-16.489897046720255,15.944327480713145],[-16.489959228087983,15.94500476868387],[-16.490071341816435,15.944699717472552],[-16.489951976285987,15.94402282485933],[-16.4902452117895,15.943080282526752],[-16.489751646712723,15.942060192131402],[-16.48930698541773,15.94185579713682],[-16.489144442699686,15.941137708329634],[-16.488658328903536,15.941127244457883],[-16.48833935568516,15.940520865005405],[-16.487850191771383,15.940095484511223],[-16.487674478193437,15.939529637721215],[-16.48662350708292,15.940398226288636],[-16.48627787056373,15.940460463681633],[-16.48564727605543,15.9398402608171],[-16.4856444746959,15.939363402786585],[-16.485316854837983,15.93864944146885],[-16.4884038982934,15.939354603082622],[-16.490372457500516,15.940268809334604],[-16.49015172493708,15.941390983588775],[-16.491047820605193,15.942681534482622],[-16.49060611574016,15.943648819696339],[-16.491088627030123,15.94636423986356],[-16.49100022490336,15.947869979172262],[-16.49114990865885,15.9480767019675],[-16.48843540276155,15.948278773696575],[-16.48839844197946,15.94822871790091],[-16.487083547972503,15.947382414862034],[-16.486700156429702,15.948407947933035],[-16.483773708750114,15.948625796913673],[-16.48375717922283,15.948606345963483]]],[[[-16.467928597279702,15.912162552039652],[-16.4681183104605,15.910292441382682],[-16.468049733773658,15.909014226653555],[-16.468295610672232,15.907881461092119],[-16.468304105117504,15.90671746897346],[-16.468687643260868,15.90587882196048],[-16.468711287661634,15.904468857470734],[-16.469096716789025,15.903892472166856],[-16.469620395767777,15.903692196411617],[-16.470112226264458,15.903770816783455],[-16.470845730969344,15.90447073902638],[-16.47160966328224,15.904695030046977],[-16.471190687041936,15.904953824103409],[-16.471814701084764,15.90715702827387],[-16.471939609431104,15.907143128956328],[-16.47230673895007,15.905811536441822],[-16.47205961695767,15.905114055787081],[-16.472720392657624,15.905717700764606],[-16.47326246795922,15.90682863346406],[-16.474182630793997,15.907485118904564],[-16.47427823306014,15.907732816876214],[-16.47412127768581,15.908089483784984],[-16.473877598955497,15.907837863445451],[-16.473592967121846,15.907817416962745],[-16.473097465019332,15.90803014926588],[-16.47310538000104,15.909659202507367],[-16.473532517157633,15.909465005037651],[-16.474182698317296,15.91016340924035],[-16.474622630441132,15.910341741510049],[-16.473832924449848,15.912662062577628],[-16.473490770271113,15.912594350339678],[-16.47325419396161,15.911832590483765],[-16.473293033642292,15.913178134567149],[-16.4725728091194,15.913364786391519],[-16.472439654611183,15.91408308122289],[-16.472054517175525,15.914133533630254],[-16.471976562195366,15.915645360985993],[-16.472746802344226,15.918658872025295],[-16.47296394786391,15.917472651020525],[-16.473214395545398,15.917648893159065],[-16.472977212567347,15.918477118734748],[-16.473043334944155,15.918597189115449],[-16.473306692329643,15.91851041432911],[-16.473259045817006,15.921333834345177],[-16.47312890363046,15.922195780993336],[-16.472400027769496,15.923468955159056],[-16.47254034104628,15.924391068734755],[-16.472459699712722,15.924808691844524],[-16.47017166495959,15.919741864853362],[-16.46774418934248,15.912856755319401],[-16.467928597279702,15.912162552039652]]]]}},{"type":"Feature","properties":{"Id":0},"geometry":{"type":"Polygon","coordinates":[[[-16.47332186865455,15.916925053375152],[-16.47330562803539,15.917349680002985],[-16.472689404907978,15.91679500910607],[-16.472462775254257,15.91501940373732],[-16.472839277324354,15.914379713114306],[-16.473613616327988,15.913764460478516],[-16.47332186865455,15.916925053375152]]]}},{"type":"Feature","properties":{"Id":0},"geometry":{"type":"Polygon","coordinates":[[[-16.467898146848515,15.906395134256481],[-16.467927471443215,15.906261319860432],[-16.46797411178938,15.906096771518445],[-16.467898146848515,15.906395134256481]]]}},{"type":"Feature","properties":{"Id":0},"geometry":{"type":"Polygon","coordinates":[[[-16.46901179672888,15.90339077234947],[-16.46860468212418,15.903872080111846],[-16.4687368764613,15.90340568482069],[-16.468972329833193,15.902853356134047],[-16.46901179672888,15.90339077234947]]]}},{"type":"Feature","properties":{"Id":0},"geometry":{"type":"Polygon","coordinates":[[[-16.468372592326478,15.905651470057284],[-16.46797411178938,15.906096771518445],[-16.468241501776028,15.905153408232982],[-16.468372592326478,15.905651470057284]]]}},{"type":"Feature","properties":{"Id":0},"geometry":{"type":"Polygon","coordinates":[[[-16.464037714798668,15.903449694128993],[-16.46522374644774,15.90346037286755],[-16.465453783169227,15.904208542572563],[-16.465258228884796,15.906043334557056],[-16.4649272135459,15.906834800361267],[-16.463515371473704,15.90390069685183],[-16.464037714798668,15.903449694128993]]]}},{"type":"Feature","properties":{"Id":0},"geometry":{"type":"Polygon","coordinates":[[[-16.472365145796324,15.90045565689642],[-16.47263683180242,15.900808379405017],[-16.47312828100488,15.900953636700152],[-16.47344769498937,15.900764728523711],[-16.473829245978962,15.900841990610424],[-16.474408116452423,15.901478650070498],[-16.47495446250666,15.901452414373692],[-16.475054474996664,15.902269219612796],[-16.474768658380828,15.902475371023144],[-16.473985772718134,15.902104889635197],[-16.473328514489822,15.902290556867788],[-16.472966071077856,15.901859261161938],[-16.473000850262117,15.901478149567618],[-16.47237703558188,15.901516496062577],[-16.47210332709861,15.901256933212256],[-16.471557307576997,15.901190946592669],[-16.471719107099787,15.901647343608701],[-16.472334125549107,15.902012555935773],[-16.472518437297108,15.90230317316849],[-16.472863819894393,15.902394285937953],[-16.47331912972198,15.902982780091305],[-16.47375048998315,15.902768733909978],[-16.47430747454517,15.902959369644643],[-16.474521082790343,15.9027497269777],[-16.47493015156279,15.902949631451754],[-16.475274461267578,15.90292814060782],[-16.475450151311144,15.903454378161],[-16.474790799580518,15.903584655498477],[-16.47387840479921,15.904237358846862],[-16.47377598191965,15.904166862667173],[-16.474163016543567,15.90367114023278],[-16.473379204897757,15.904022041856745],[-16.474340479660594,15.90522016408885],[-16.47431543374445,15.907098667994735],[-16.47366766280728,15.90667796226838],[-16.47334680494962,15.905898582564864],[-16.472361810711455,15.904670785007477],[-16.471935150573536,15.904368742153492],[-16.472070440274308,15.903874942670296],[-16.471669250581737,15.903451936211926],[-16.47083990897257,15.902916980653536],[-16.469144190267652,15.902450202496388],[-16.46998662536592,15.900473978859592],[-16.472365145796324,15.90045565689642]]]}},{"type":"Feature","properties":{"Id":0},"geometry":{"type":"Polygon","coordinates":[[[-16.47302195696571,15.894232907106286],[-16.47446379771577,15.89229450403572],[-16.475597048007874,15.891615954264244],[-16.476543619201898,15.891854000092115],[-16.476831880706193,15.892717461157257],[-16.47663588373261,15.894609642772652],[-16.47632512624868,15.896099052794785],[-16.47529069529801,15.89884460624411],[-16.475132270078213,15.899959200704377],[-16.47450912420172,15.900224123075684],[-16.473435691772703,15.900047343108426],[-16.473115649975977,15.900610795677833],[-16.47222970851481,15.900119432210015],[-16.470737747714647,15.900276099183905],[-16.470104276910135,15.90019798338407],[-16.47302195696571,15.894232907106286]]]}},{"type":"Feature","properties":{"Id":0},"geometry":{"type":"Polygon","coordinates":[[[-16.45062544172968,15.87433209917126],[-16.45355959579111,15.871130385927227],[-16.456181842319584,15.86695930630376],[-16.457289183473975,15.864864937681597],[-16.45755153494639,15.858171499875922],[-16.45836792833438,15.855500567162721],[-16.459576777256018,15.853120148342933],[-16.46217540387456,15.850082711470668],[-16.46427069315599,15.847997247640032],[-16.464980786545492,15.846090573722044],[-16.4658099438731,15.842080578937422],[-16.4672236118432,15.838936745050571],[-16.469127573541275,15.836179942057884],[-16.470823770089613,15.834473450674437],[-16.47154588016505,15.831336830233376],[-16.483210327718734,15.831199666567674],[-16.482071424592313,15.83395782652176],[-16.481434734669516,15.838543498918431],[-16.480931572925595,15.839495528410547],[-16.47923817553868,15.840915157983863],[-16.478229985458583,15.84301049931735],[-16.477719473691337,15.844727687426664],[-16.475929036522864,15.845955118636564],[-16.475318774662778,15.847767061457164],[-16.474225462116138,15.84842681770802],[-16.47451180157791,15.849481582482582],[-16.47478072610118,15.85235361243267],[-16.473145630065037,15.857982499356888],[-16.47261452250591,15.866383360726678],[-16.47193205003272,15.869533803314155],[-16.470609460834915,15.87141586065211],[-16.469152279871253,15.87496107809446],[-16.469348127175934,15.879267261693222],[-16.46899367491344,15.880928450042889],[-16.467923626469858,15.884290621031806],[-16.466410199275714,15.887505317010394],[-16.465174657454302,15.889240559608766],[-16.46426863176722,15.890954167104823],[-16.462199628718846,15.897966080458055],[-16.461337456318642,15.899627315159858],[-16.46003723192691,15.896716746622939],[-16.45974236460666,15.896331936370103],[-16.458848598304332,15.89604040437214],[-16.459790126927068,15.896559736857153],[-16.459603576973436,15.896992781581663],[-16.460458967623662,15.897965873474105],[-16.460678913309977,15.899053801835766],[-16.460974166117555,15.899272864597545],[-16.46094976825273,15.899821976810497],[-16.459923294826247,15.898673637158264],[-16.45957493449202,15.897545549640729],[-16.458571698735476,15.896431323444117],[-16.45739556427401,15.895845806307118],[-16.453767175459,15.891786643505153],[-16.453888146882804,15.891601866505965],[-16.454197318966244,15.891320492244253],[-16.455424796540058,15.89112929468992],[-16.455803580290922,15.890901422848264],[-16.456457756556993,15.889868052357121],[-16.456738248133036,15.887284090216646],[-16.456664535422572,15.886772848602211],[-16.456307246396218,15.886022841441106],[-16.454565867125353,15.885375820271712],[-16.452642258416077,15.88528961991598],[-16.452194900522677,15.884902201288002],[-16.451072939541135,15.882744232159798],[-16.450783952118385,15.882480140424532],[-16.450198384066134,15.882325562855307],[-16.44999774148024,15.882050094011344],[-16.450473814608795,15.88010324844866],[-16.450440056077547,15.879321518019196],[-16.449970809444164,15.878705064849044],[-16.449275589543824,15.878589516820169],[-16.449501645196424,15.878132395722323],[-16.449315804959937,15.875773990934839],[-16.44942587781496,15.87512867445422],[-16.45062544172968,15.87433209917126]]]}},{"type":"Feature","properties":{"Id":0},"geometry":{"type":"Polygon","coordinates":[[[-16.445307523375828,15.881278498861125],[-16.44762130586274,15.878370123016278],[-16.448760341956117,15.875570620894297],[-16.449074034240777,15.875362315255682],[-16.4489677346662,15.876045021615141],[-16.449312254239235,15.876965515967447],[-16.44936612826112,15.877747812904715],[-16.44935606234071,15.87802825585765],[-16.449114642934074,15.878309752444991],[-16.4491419029234,15.8787328916324],[-16.44964040150039,15.880012039454805],[-16.44968235866494,15.880550003182183],[-16.449301512886155,15.881386208874476],[-16.44927078655158,15.881881632795434],[-16.449625998670022,15.882412505582177],[-16.450492045434313,15.882945585949285],[-16.450836451313673,15.883345054552485],[-16.451219042776998,15.884522310986902],[-16.452428334351563,15.885852405501621],[-16.45347500785748,15.886049119833826],[-16.45463391875721,15.88595617197787],[-16.45546704509883,15.886117483264306],[-16.456060798245886,15.886440536090397],[-16.456293396866382,15.886894574701202],[-16.45590246446834,15.889549250087963],[-16.455546205535253,15.890298283063183],[-16.455112127421103,15.890722336359667],[-16.454355580135516,15.890745116859541],[-16.453905134912407,15.891012641891077],[-16.45353739286587,15.891529580383716],[-16.452776862323947,15.890678757210422],[-16.445930487022967,15.885390457127459],[-16.444282746894064,15.883603248880561],[-16.445307523375828,15.881278498861125]]]}}]}