{"type":"FeatureCollection","name":"geologie-dunes-rouges.geojson","features":[{"type":"Feature","properties":{"Id":0},"geometry":{"type":"Polygon","coordinates":[[[-16.471545880165102,15.831336830233376],[-16.470823770089613,15.834473450674437],[-16.469127573541293,15.836179942057884],[-16.467223611843234,15.838936745050587],[-16.46580994387312,15.842080578937441],[-16.46498078654551,15.846090573722053],[-16.464270693156006,15.847997247640013],[-16.46217540387456,15.850082711470668],[-16.459576777256032,15.853120148342933],[-16.45836792833438,15.855500567162737],[-16.45755153494639,15.858171499875944],[-16.457289183473975,15.864864937681613],[-16.456181842319637,15.86695930630378],[-16.45355959579111,15.871130385927227],[-16.450625441729716,15.87433209917126],[-16.448760341956152,15.875570620894313],[-16.448249981356618,15.877239939250824],[-16.447621305862757,15.878370123016278],[-16.445307523375828,15.881278498861125],[-16.44428274689408,15.883603248880574],[-16.43874245655735,15.877594016959634],[-16.437387843174,15.8694448276731],[-16.429350268818236,15.860027058545976],[-16.42463493690498,15.85384023832463],[-16.42490843001317,15.846621569212575],[-16.42714729541696,15.835713575795936],[-16.427429719793853,15.83543644647936],[-16.428288201412485,15.83184002786786],[-16.446918471182816,15.831622708402788],[-16.471545880165102,15.831336830233376]]]}}]}