{"type":"FeatureCollection","name":"geologie-dunes-semi-fixees.geojson","features":[{"type":"Feature","properties":{"Id":0},"geometry":{"type":"Polygon","coordinates":[[[-16.50302747239866,15.932512948959122],[-16.503796831384943,15.932559675036844],[-16.50400556212317,15.931904411129036],[-16.50382550212489,15.930086162196153],[-16.504085405131903,15.928723403155661],[-16.504002912933704,15.928223168273693],[-16.503591946334613,15.927431281259599],[-16.50368826058057,15.92676645339964],[-16.503506777593064,15.925058419012313],[-16.50391876993116,15.924478493542663],[-16.503439957586497,15.924950412405641],[-16.503343928626848,15.927367682873445],[-16.50352259257875,15.928694692447516],[-16.502931525989666,15.929406490058867],[-16.50289267589613,15.930234190753026],[-16.5026362307782,15.930560845847165],[-16.502605537984063,15.930961573577905],[-16.50293545528533,15.93175236295308],[-16.501373057592545,15.931627920604766],[-16.501140166440045,15.931410413369397],[-16.500739667362673,15.929252011634315],[-16.500391474134222,15.928898725985434],[-16.50072006595424,15.926901282916264],[-16.500508385192564,15.926564502967574],[-16.499759447607435,15.926015744887918],[-16.497955774763906,15.92538683082641],[-16.496402105784075,15.924603642343465],[-16.495311269810315,15.924409677540046],[-16.494175917050693,15.924647063469987],[-16.492993081535,15.923692945553407],[-16.491847087730573,15.92403860004197],[-16.491293431354226,15.92367013813831],[-16.490756922006238,15.923578287163522],[-16.490690317046834,15.924358450567736],[-16.490916208993998,15.92091896808558],[-16.490148247661473,15.917205616719139],[-16.488649233957727,15.912409670205916],[-16.488423700760723,15.910135914601206],[-16.488642479458775,15.90531218130839],[-16.48931714359756,15.901922508415936],[-16.48900164724419,15.89871533657945],[-16.48817928753262,15.896842792095113],[-16.484374470053737,15.891595815580294],[-16.48413969262299,15.89030240570038],[-16.48432348126691,15.887090102373323],[-16.4833484236625,15.885694432303877],[-16.480993466643028,15.883903815833612],[-16.478727781531042,15.883118328600759],[-16.478092270653693,15.88239524080705],[-16.47700242715964,15.877507156446558],[-16.47524055397055,15.87572177461342],[-16.474747359642386,15.875621697751669],[-16.473044470037493,15.877997757927774],[-16.47302843060255,15.879671552666423],[-16.47247343899442,15.880862241080626],[-16.470525253043967,15.883044777350403],[-16.470170644518145,15.883950300980324],[-16.470382441831617,15.887278680261597],[-16.46874007450024,15.888483503322192],[-16.46634336894577,15.89104459335621],[-16.465174657454316,15.889240559608782],[-16.466410199275714,15.887505317010394],[-16.467923626469858,15.884290621031823],[-16.46899367491344,15.880928450042909],[-16.469348127175916,15.879267261693222],[-16.469152279871253,15.87496107809446],[-16.470609460834932,15.87141586065211],[-16.471932050032734,15.869533803314155],[-16.47261452250593,15.866383360726678],[-16.473145630065023,15.857982499356888],[-16.474780726101194,15.85235361243267],[-16.474511801577897,15.849481582482602],[-16.474225462116156,15.848426817708036],[-16.475318774662796,15.847767061457175],[-16.47592903652288,15.845955118636564],[-16.477719473691337,15.844727687426682],[-16.478229985458583,15.84301049931735],[-16.47923817553868,15.840915157983884],[-16.480931572925613,15.839495528410547],[-16.481434734669534,15.838543498918431],[-16.482071424592313,15.833957826521775],[-16.483210327718734,15.831199666567674],[-16.485561347964723,15.831171944704028],[-16.486958394129694,15.830580984371418],[-16.488053385426642,15.830925992205229],[-16.507340866158746,15.829850273407853],[-16.50655494817386,15.833410479942524],[-16.505451186419968,15.840431180704554],[-16.503299053744453,15.848590432724066],[-16.502341020497365,15.851676548332865],[-16.501864665979102,15.856335393552701],[-16.502027346061713,15.858728147235666],[-16.503476807932582,15.862208373638419],[-16.504711433452403,15.861197185095651],[-16.50561022735963,15.86020077713405],[-16.5062132503564,15.859130014885315],[-16.505777385960624,15.858193554354102],[-16.50622948026829,15.857408416057764],[-16.50646262638805,15.856262647126115],[-16.506528094733152,15.854422584176897],[-16.5072329250532,15.850411409994793],[-16.50936058819667,15.844834530603428],[-16.511054335525245,15.838105984730788],[-16.513704536450426,15.832103253041396],[-16.514243895133777,15.82946485389278],[-16.51427370899156,15.829462328090921],[-16.518788658524766,15.82921029574688],[-16.517932068426564,15.831921687873253],[-16.51666818532393,15.834316456177358],[-16.515844763338457,15.836529176798248],[-16.515801886110264,15.838823600714477],[-16.515959884170275,15.839896947933854],[-16.51582280791046,15.84136265072762],[-16.516057368701418,15.841909545252774],[-16.5154898062944,15.841754862755698],[-16.51571570462177,15.84122982781217],[-16.515658512935136,15.84081146907936],[-16.515404894111953,15.841245109799315],[-16.51523520978689,15.842057624403513],[-16.515345043949733,15.84299082862509],[-16.51517700029546,15.843101847692363],[-16.51522657928518,15.842711996920652],[-16.514167075724792,15.842445629361736],[-16.513946834964074,15.843533114472521],[-16.5133229447981,15.844139581368708],[-16.513085458286582,15.844650412545224],[-16.51300606679798,15.846073888939081],[-16.51232541912675,15.847327327339533],[-16.511945177004932,15.848636756258376],[-16.511805347101653,15.850002566236697],[-16.51131821093547,15.850251714841134],[-16.511082974518107,15.850915587998726],[-16.511115811384602,15.851228683907124],[-16.511555013161686,15.851602112056742],[-16.511441805875087,15.853164534655706],[-16.511880102575024,15.853970913132706],[-16.511542346815798,15.854566701614235],[-16.510967261918886,15.854549726230074],[-16.510584536417117,15.854835158558748],[-16.510214203975558,15.855592184290972],[-16.509679390357494,15.85783615382635],[-16.50904171158495,15.857566037206288],[-16.50846674105901,15.85862032670827],[-16.508366573275058,15.859191045983998],[-16.508043258732407,15.85973801161614],[-16.507742797664907,15.861707682580326],[-16.50789161904625,15.862295787215766],[-16.507806068913215,15.862952894370812],[-16.508311481507626,15.864029022810072],[-16.508103405050342,15.866452304092757],[-16.507836871495375,15.86709610617247],[-16.508115014156335,15.868013301455026],[-16.508052995723517,15.870102332202055],[-16.5084064467296,15.871296101697123],[-16.50904121103887,15.871955250915429],[-16.509150571418083,15.870930359864396],[-16.508727028261674,15.86762232812924],[-16.508981560462143,15.8660737207832],[-16.509894730743074,15.865236307128574],[-16.509354507786355,15.86729780335006],[-16.509849007552972,15.869884767526747],[-16.51003559972715,15.873688580383876],[-16.509699836394194,15.87560824732228],[-16.50907862390914,15.875456021077845],[-16.508292034875122,15.875737407856333],[-16.508239163679544,15.876805579155768],[-16.508370299671544,15.877385718007561],[-16.507919202295053,15.878046013824473],[-16.507307363671206,15.880049313738388],[-16.507823742899085,15.881626147013272],[-16.5086235205604,15.883283192120267],[-16.508529837099783,15.885362797950645],[-16.50948596838044,15.8861603469736],[-16.509789760314227,15.88745371664217],[-16.509108456426606,15.889858020062553],[-16.50874155284097,15.890107666583294],[-16.50894166205625,15.890314904399485],[-16.508930741926264,15.890974809767238],[-16.508361727126353,15.893315014222704],[-16.508196709106883,15.895469052130249],[-16.508081720736676,15.899665691223037],[-16.508297118565714,15.900111469862841],[-16.50819427376925,15.901632347675115],[-16.508778522691806,15.903920240307064],[-16.50915059710178,15.904044412660216],[-16.509257869554833,15.903790120238112],[-16.508833139789683,15.902462059518205],[-16.509239587517072,15.9013394687391],[-16.50934117371224,15.900324587037495],[-16.509881908837066,15.899644742941119],[-16.509785914706402,15.898483395167082],[-16.510110537083595,15.898100812257226],[-16.510248059866026,15.896050461281213],[-16.510506872484207,15.89562612944018],[-16.51120529087671,15.89560011335757],[-16.512248844128237,15.89793798245348],[-16.51210139630768,15.89865734659937],[-16.510635671864414,15.901181806651445],[-16.510487428271375,15.901795537707162],[-16.510498943073152,15.903337789366553],[-16.509959782384136,15.904228929594868],[-16.50957643318171,15.905520369291384],[-16.50949998525596,15.906978731294704],[-16.509727606178522,15.908223691764205],[-16.509074209581367,15.910725535819402],[-16.509098119282108,15.91134194536304],[-16.508395416838713,15.91556193178898],[-16.50819917023986,15.917663561697026],[-16.506883141400536,15.922437233436684],[-16.50601811015039,15.930216565275531],[-16.505414144015038,15.933204790276701],[-16.50426767257278,15.938085322419335],[-16.504135653771737,15.938489092082868],[-16.503785161668286,15.938854760523958],[-16.503529912708945,15.938743722134749],[-16.503369783959574,15.93839642911443],[-16.503594000087983,15.936772641286073],[-16.503534002666072,15.93588668148262],[-16.503357835344634,15.935652917096002],[-16.503089629824654,15.935643694706815],[-16.503254776695304,15.935429647438573],[-16.503294932959886,15.93488605719666],[-16.503245424946243,15.933343150476931],[-16.50302747239866,15.932512948959122]],[[-16.50008694524259,15.8978361965227],[-16.501361021786426,15.889339987266311],[-16.50264157679134,15.882945920262395],[-16.50308548929602,15.87592528219495],[-16.505553058276035,15.863643756342725],[-16.50442221636736,15.86566637747472],[-16.502528779228296,15.869953995478642],[-16.501744739746563,15.874490549981426],[-16.501116948538954,15.875561085715367],[-16.50160089304065,15.876641456472793],[-16.500971966192647,15.877831547740872],[-16.500840533643583,15.87866734341649],[-16.500098009098156,15.878804251156549],[-16.50008174211074,15.880525850892923],[-16.49947795394688,15.881668335634874],[-16.49864163110531,15.883884850212757],[-16.497820148274386,15.883853121525421],[-16.496435276793825,15.88659085877956],[-16.49503112445659,15.891361035904843],[-16.496090910045567,15.89687044967536],[-16.497803980875126,15.903204655952521],[-16.498034800096598,15.90492844008728],[-16.499797918503837,15.90441541918751],[-16.50008694524259,15.8978361965227]],[[-16.506575805377604,15.878258238448643],[-16.506840876870683,15.878144775521028],[-16.50709218207867,15.877027279858941],[-16.506913888557595,15.876211799478655],[-16.506537332946692,15.876272919254019],[-16.506390642040085,15.876480517889815],[-16.506575805377604,15.878258238448643]],[[-16.506575350782146,15.884337843984255],[-16.506804458467336,15.883807818136203],[-16.506870957172712,15.882194429189052],[-16.507097212174855,15.881092743232504],[-16.506659054047095,15.881436062540224],[-16.506361824555547,15.884413140848967],[-16.506575350782146,15.884337843984255]],[[-16.503296072631713,15.88662637735405],[-16.50376113893488,15.886443713759325],[-16.503822565092623,15.886139517053222],[-16.503558045130852,15.885434762165385],[-16.503172529910984,15.88559785251932],[-16.503060006144178,15.886053939632829],[-16.503296072631713,15.88662637735405]]]}},{"type":"Feature","properties":{"Id":0},"geometry":{"type":"MultiPolygon","coordinates":[[[[-16.496224138607484,15.946719146461183],[-16.49580344878346,15.945656997238247],[-16.495553665830357,15.944024849829331],[-16.495945008662023,15.941129540474128],[-16.49654597545947,15.939515691642066],[-16.4976280488624,15.935308465335908],[-16.49773231385513,15.933942361151383],[-16.497576520283182,15.933464044763673],[-16.498130622172084,15.932040818199656],[-16.49833133948209,15.931929778299763],[-16.499395275840776,15.932367754478854],[-16.499917031756418,15.932908660634213],[-16.500136213926105,15.933625882605547],[-16.500133779399132,15.934812949332473],[-16.500398240854057,15.935560438458891],[-16.500355358658272,15.93889684251254],[-16.500499741593295,15.940246573850564],[-16.50081954652148,15.941345866894643],[-16.50050293009045,15.942355433447661],[-16.50069397111315,15.943570333448644],[-16.501098007842618,15.943738126348837],[-16.501533186898605,15.944657044132905],[-16.501275961317496,15.945627615434782],[-16.50112886579372,15.94587218602242],[-16.500846643504936,15.945887163433829],[-16.496214514809424,15.947337896169655],[-16.496224138607484,15.946719146461183]]],[[[-16.501623826951295,15.945812279348981],[-16.50198982369951,15.945057933840186],[-16.501863806313388,15.94401286802666],[-16.501555147082172,15.943393977382382],[-16.50119800838098,15.943069602024988],[-16.501093142316435,15.942596394703724],[-16.5012643504148,15.940634081862008],[-16.500887418070292,15.939917595776672],[-16.501176741454223,15.937938081367617],[-16.501509435696274,15.937249367944874],[-16.50173328592971,15.937154688470603],[-16.501965347464523,15.937229842770554],[-16.502173023965685,15.937898471980597],[-16.502018349835627,15.93981167914964],[-16.502782698609327,15.94265002062851],[-16.502651701142742,15.943206561465328],[-16.502757910176584,15.943859532184854],[-16.503137543668824,15.944935527844903],[-16.50328332144506,15.94575785001873],[-16.501589911262318,15.945847718544352],[-16.501623826951295,15.945812279348981]]]]}},{"type":"Feature","properties":{"Id":0},"geometry":{"type":"Polygon","coordinates":[[[-16.49060611574016,15.943648819696339],[-16.491047820605193,15.942681534482622],[-16.49015172493708,15.941390983588775],[-16.490372457500516,15.940268809334604],[-16.490401903266793,15.9371603695517],[-16.49008219191507,15.931777087128003],[-16.490459792967147,15.927454328340016],[-16.490834922375967,15.927696767899008],[-16.491951121853212,15.929089575965735],[-16.49277466155104,15.929617189338733],[-16.492295071101008,15.931090850217629],[-16.492241347513495,15.932040683884043],[-16.492707786949353,15.932991062795084],[-16.493189121264,15.933258482082522],[-16.493042684093997,15.934780992841048],[-16.49334870414357,15.935728072367352],[-16.493057451843168,15.936790910163115],[-16.49305484994301,15.93743024626979],[-16.493345225605662,15.938576173272605],[-16.494415257198447,15.93990425614676],[-16.49389182888549,15.940702915322456],[-16.493831219785605,15.94140504647197],[-16.4939473261417,15.941622991085875],[-16.494511895508577,15.941537666874744],[-16.494539944567105,15.941810456467309],[-16.494464909507183,15.942048261506216],[-16.493692018224078,15.942749988043404],[-16.493365185099595,15.943418702416444],[-16.49345218805754,15.943638950528467],[-16.493951249691783,15.943700293520878],[-16.494003167083562,15.943831054744816],[-16.49380815926419,15.94489582416166],[-16.494007620975268,15.945447969818048],[-16.494809884973137,15.94589366799115],[-16.49393089370672,15.94728155494214],[-16.493923124913373,15.947870259754863],[-16.49114990865885,15.9480767019675],[-16.49100022490336,15.947869979172262],[-16.491088627030123,15.94636423986356],[-16.49060611574016,15.943648819696339]]]}}]}