{"type":"FeatureCollection","name":"geologie-cordons-littoraux.geojson","features":[{"type":"Feature","properties":{"Id":0},"geometry":{"type":"Polygon","coordinates":[[[-16.462199628718846,15.897966080458055],[-16.46426863176722,15.890954167104823],[-16.465174657454316,15.889240559608748],[-16.466343368945804,15.891044593356174],[-16.46874007450024,15.888483503322192],[-16.47038244183165,15.88727868026162],[-16.47017064451818,15.883950300980288],[-16.470525253044002,15.883044777350403],[-16.47247343899442,15.88086224108059],[-16.47302843060255,15.879671552666423],[-16.47304447003753,15.877997757927774],[-16.474747359642386,15.875621697751669],[-16.475240553970586,15.87572177461342],[-16.47700242715964,15.877507156446558],[-16.478092270653725,15.882395240807046],[-16.478727781531042,15.883118328600759],[-16.480993466643064,15.883903815833625],[-16.4833484236625,15.885694432303877],[-16.48432348126691,15.887090102373323],[-16.484139692623025,15.890302405700378],[-16.484374470053737,15.891595815580306],[-16.48817928753262,15.896842792095113],[-16.48900164724419,15.89871533657945],[-16.489317143597596,15.901922508415936],[-16.48864247945881,15.90531218130841],[-16.488423700760723,15.910135914601222],[-16.488649233957727,15.912409670205916],[-16.490148247661473,15.917205616719139],[-16.490916208993998,15.92091896808558],[-16.49008219191507,15.931777087128003],[-16.490401903266793,15.9371603695517],[-16.490372457500516,15.940268809334604],[-16.4884038982934,15.939354603082622],[-16.485136215486303,15.938608177154173],[-16.486205818536543,15.936585069539845],[-16.486103823725095,15.934312414748943],[-16.48514599098779,15.931075621538675],[-16.486352177885724,15.927678724410525],[-16.486079056014436,15.923909972855482],[-16.485549193588103,15.921067562486366],[-16.485208533779375,15.917907990441208],[-16.48545343202298,15.915542764707507],[-16.485395668970224,15.913820500602402],[-16.484885626201333,15.912883344342893],[-16.484138185052768,15.913522343352826],[-16.482086803541584,15.918741055066354],[-16.48146163553891,15.92210724488291],[-16.481545697095715,15.928851520195293],[-16.482252923433403,15.932444801837068],[-16.481966110975495,15.936093790271386],[-16.481446117368264,15.936196766742196],[-16.47998418772534,15.933995676528642],[-16.479280267777842,15.926169772367418],[-16.47876218157796,15.924455350758366],[-16.478859874875297,15.920689886416014],[-16.478700201499823,15.917998219072233],[-16.47790737407764,15.916915039049993],[-16.47684576120211,15.918101213931056],[-16.47586943446836,15.92329362256264],[-16.475510297245176,15.928551331778039],[-16.474513741712705,15.934026622837516],[-16.474921665383533,15.935841607774906],[-16.47492722244647,15.939141687109759],[-16.474234426656505,15.943246928977999],[-16.474234426656505,15.943246928977992],[-16.47386889208461,15.937601572824443],[-16.47511557034219,15.930690087208822],[-16.472515834079704,15.924933000763072],[-16.473397865642916,15.92154053153245],[-16.4732491278626,15.917713068879506],[-16.473662671559072,15.913233024911758],[-16.474344669078476,15.910945845222704],[-16.476343357315532,15.906601947646307],[-16.476472928341273,15.90545526806313],[-16.475540556427713,15.903725163797894],[-16.474906352690518,15.901825548554848],[-16.475290695298046,15.898844606244126],[-16.47632512624868,15.896099052794785],[-16.476831880706193,15.892717461157273],[-16.476543619201898,15.891854000092147],[-16.475597048007895,15.89161595426426],[-16.47446379771579,15.892294504035737],[-16.473021956965727,15.89423290710627],[-16.47121054295225,15.897602788985449],[-16.468359018609092,15.904292061126291],[-16.467304612505593,15.909103527257148],[-16.466744293791358,15.910611073664167],[-16.464934804725843,15.90685057642302],[-16.465258228884817,15.906043334557056],[-16.465453783169227,15.904208542572576],[-16.465223746447755,15.903460372867587],[-16.464037714798682,15.903449694128978],[-16.463515371473708,15.903900696851831],[-16.46225582220984,15.901283089692924],[-16.461278920957717,15.90019020758299],[-16.462199628718846,15.897966080458055]]]}},{"type":"Feature","properties":{"Id":0},"geometry":{"type":"Polygon","coordinates":[[[-16.480209944468996,15.947376372395642],[-16.483158757687853,15.942679782470098],[-16.484261783046183,15.943646121912174],[-16.483550908184316,15.946927855614353],[-16.48375717922283,15.948606345963467],[-16.483773708750128,15.948625796913673],[-16.48076157455418,15.948850024522015],[-16.479971821405904,15.948855445908071],[-16.480209944468996,15.947376372395642]]]}},{"type":"Feature","properties":{"Id":0},"geometry":{"type":"Polygon","coordinates":[[[-16.487083547972503,15.947382414862034],[-16.48839844197946,15.948228717900895],[-16.48843540276156,15.948278773696574],[-16.48670015642976,15.948407947933031],[-16.487083547972503,15.947382414862034]]]}}]}