{"type":"FeatureCollection","name":"habitat-zapa.geojson","features":[{"type":"Feature","properties":{"categorie":"Culture maraichère"},"geometry":{"type":"MultiPolygon","coordinates":[[[[-16.491795,15.78645],[-16.491737,15.787624],[-16.491343,15.788069],[-16.490546,15.788312],[-16.489933,15.78791],[-16.490103,15.78616],[-16.491795,15.78645]]],[[[-16.489472,15.786682],[-16.488014,15.787998],[-16.487144,15.789645],[-16.48725,15.790727],[-16.486966,15.791651],[-16.487871,15.792935],[-16.48777,15.793457],[-16.487114,15.794135],[-16.486538,15.794185],[-16.485952,15.794029],[-16.485359,15.793566],[-16.485218,15.79306],[-16.485668,15.79128],[-16.486221,15.790137],[-16.486309,15.78876],[-16.486919,15.787578],[-16.487152,15.786444],[-16.487588,15.785729],[-16.489817,15.786111],[-16.489472,15.786682]]],[[[-16.48567,15.7854],[-16.485421,15.787466],[-16.485411,15.788967],[-16.484278,15.790683],[-16.484094,15.790621],[-16.484264,15.792037],[-16.48405,15.792451],[-16.483351,15.795783],[-16.480059,15.804988],[-16.479572,15.8059],[-16.478732,15.805906],[-16.47853,15.805333],[-16.478621,15.804137],[-16.478314,15.802704],[-16.477755,15.802417],[-16.477424,15.802871],[-16.477302,15.804029],[-16.476081,15.806875],[-16.476029,15.807481],[-16.476266,15.807986],[-16.476918,15.807755],[-16.477507,15.807905],[-16.477283,15.80919],[-16.477992,15.810432],[-16.4778,15.810732],[-16.477015,15.810231],[-16.47664,15.810319],[-16.475897,15.812006],[-16.475969,15.812249],[-16.476939,15.812783],[-16.47776,15.81442],[-16.477887,15.81516],[-16.477729,15.815333],[-16.477234,15.815336],[-16.476335,15.814863],[-16.476036,15.81491],[-16.475932,15.815905],[-16.475509,15.816893],[-16.475036,15.817267],[-16.473965,15.817573],[-16.473409,15.818218],[-16.473409,15.82074],[-16.472431,15.821153],[-16.471759,15.82114],[-16.471392,15.820708],[-16.471303,15.820094],[-16.471594,15.81767],[-16.471509,15.816261],[-16.473414,15.812506],[-16.474147,15.810594],[-16.474827,15.806486],[-16.475355,15.804612],[-16.475815,15.803723],[-16.477166,15.802114],[-16.477517,15.801488],[-16.478396,15.800456],[-16.479673,15.799443],[-16.480447,15.79719],[-16.481087,15.796899],[-16.481536,15.793281],[-16.481293,15.792634],[-16.481298,15.791948],[-16.481493,15.791667],[-16.482163,15.791628],[-16.482445,15.791341],[-16.482593,15.789388],[-16.482899,15.78812],[-16.483354,15.78762],[-16.48411,15.787476],[-16.484005,15.786384],[-16.484107,15.785133],[-16.48567,15.7854]]],[[[-16.477961,15.810808],[-16.47796,15.811147],[-16.477421,15.811607],[-16.477659,15.810997],[-16.477961,15.810808]]]]}},{"type":"Feature","properties":{"categorie":"Culture maraichère"},"geometry":{"type":"MultiPolygon","coordinates":[[[[-16.519233,15.827886],[-16.51849,15.829503],[-16.518591,15.82924],[-16.517799,15.829266],[-16.518708,15.82793],[-16.519233,15.827886]]],[[[-16.51831,15.831655],[-16.516479,15.835229],[-16.51606,15.836588],[-16.515868,15.838424],[-16.516159,15.839904],[-16.515842,15.841262],[-16.51629,15.842433],[-16.515414,15.843259],[-16.514128,15.843397],[-16.513731,15.843868],[-16.51424,15.842933],[-16.514393,15.842176],[-16.515229,15.841691],[-16.515551,15.841056],[-16.51587,15.839924],[-16.515821,15.839698],[-16.515305,15.839341],[-16.515467,15.838531],[-16.515812,15.838433],[-16.515888,15.836173],[-16.516344,15.834633],[-16.51736,15.83318],[-16.517445,15.832095],[-16.518303,15.830251],[-16.518418,15.831067],[-16.51831,15.831655]]],[[[-16.511484,15.870358],[-16.511236,15.8696],[-16.51104,15.867089],[-16.511384,15.865668],[-16.511204,15.86538],[-16.510248,15.864889],[-16.510106,15.864664],[-16.510505,15.863071],[-16.510279,15.861554],[-16.510662,15.86157],[-16.510975,15.862227],[-16.511248,15.862424],[-16.511602,15.862431],[-16.511816,15.862203],[-16.511915,15.861724],[-16.511658,15.861093],[-16.511867,15.860296],[-16.511748,15.85942],[-16.511407,15.858808],[-16.511685,15.858426],[-16.512179,15.858333],[-16.512438,15.858051],[-16.512408,15.857798],[-16.511912,15.857575],[-16.511872,15.857214],[-16.512048,15.857122],[-16.512406,15.857427],[-16.512721,15.857181],[-16.512737,15.8555],[-16.5134,15.854338],[-16.513318,15.853309],[-16.513768,15.852347],[-16.513696,15.851489],[-16.513854,15.850015],[-16.513451,15.849855],[-16.51308,15.850174],[-16.512825,15.84976],[-16.513037,15.849397],[-16.513594,15.849077],[-16.513685,15.848633],[-16.513417,15.84775],[-16.514194,15.846849],[-16.514628,15.844939],[-16.515266,15.844067],[-16.515462,15.844138],[-16.515615,15.844517],[-16.515293,15.845278],[-16.51533,15.84639],[-16.514818,15.847912],[-16.514273,15.851232],[-16.514392,15.854621],[-16.514013,15.857606],[-16.513909,15.861149],[-16.513507,15.862381],[-16.513507,15.863601],[-16.512879,15.864609],[-16.512577,15.865424],[-16.512338,15.868418],[-16.511714,15.869913],[-16.511814,15.870816],[-16.510782,15.872667],[-16.510744,15.873806],[-16.510533,15.874543],[-16.510648,15.87218],[-16.511157,15.871499],[-16.510919,15.871003],[-16.510548,15.870804],[-16.511216,15.870721],[-16.511484,15.870358]],[[-16.514486,15.848474],[-16.514509,15.848339],[-16.514485,15.848294],[-16.514486,15.848474]],[[-16.511415,15.86856],[-16.511832,15.868195],[-16.51229,15.866927],[-16.512373,15.865571],[-16.512693,15.864619],[-16.512411,15.864441],[-16.511898,15.864489],[-16.511391,15.865442],[-16.511488,15.865848],[-16.51131,15.867024],[-16.511686,15.867428],[-16.511363,15.867837],[-16.511319,15.868199],[-16.511415,15.86856]]],[[[-16.507674,15.861389],[-16.507758,15.86027],[-16.508067,15.859535],[-16.507808,15.860731],[-16.50782,15.86162],[-16.507674,15.861389]]],[[[-16.509031,15.867004],[-16.508699,15.867449],[-16.508982,15.867944],[-16.509543,15.867985],[-16.510053,15.867575],[-16.510326,15.866579],[-16.51032,15.865766],[-16.510179,15.865631],[-16.509712,15.865634],[-16.509125,15.866654],[-16.509007,15.866181],[-16.50918,15.865647],[-16.51013,15.865333],[-16.51046,15.865719],[-16.510575,15.866143],[-16.51001,15.868045],[-16.510048,15.870389],[-16.509691,15.869024],[-16.50899,15.86909],[-16.508697,15.868488],[-16.508652,15.867503],[-16.509031,15.867004]]],[[[-16.510452,15.87574],[-16.510512,15.878018],[-16.510037,15.877969],[-16.509388,15.878515],[-16.508874,15.878474],[-16.50859,15.877934],[-16.509024,15.878165],[-16.509924,15.877435],[-16.509873,15.876052],[-16.510174,15.877516],[-16.51017,15.877019],[-16.510447,15.876565],[-16.510348,15.875843],[-16.510452,15.87574]]],[[[-16.508259,15.877439],[-16.50826,15.877529],[-16.508213,15.877484],[-16.508259,15.877439]]],[[[-16.510112,15.880399],[-16.510039,15.882311],[-16.509842,15.882342],[-16.510138,15.878872],[-16.510274,15.878374],[-16.510507,15.878143],[-16.510447,15.879068],[-16.510112,15.880399]]],[[[-16.506671,15.884067],[-16.506263,15.885316],[-16.506075,15.885136],[-16.505941,15.884418],[-16.506301,15.884714],[-16.506671,15.884067]]],[[[-16.525072,15.79516],[-16.524723,15.797788],[-16.5239,15.798645],[-16.52322,15.799799],[-16.52209,15.802623],[-16.521332,15.80342],[-16.519624,15.804188],[-16.519169,15.804822],[-16.519171,15.805356],[-16.519357,15.80566],[-16.519809,15.805802],[-16.520476,15.805609],[-16.520855,15.80593],[-16.520783,15.807999],[-16.52103,15.808278],[-16.522212,15.808738],[-16.522254,15.810017],[-16.522558,15.810853],[-16.521996,15.811194],[-16.521097,15.811131],[-16.521142,15.810232],[-16.520861,15.808533],[-16.520139,15.808719],[-16.519995,15.809119],[-16.519646,15.809404],[-16.519549,15.810353],[-16.518312,15.81484],[-16.517987,15.818304],[-16.517395,15.820349],[-16.517635,15.820865],[-16.516904,15.822572],[-16.517682,15.823159],[-16.518509,15.822474],[-16.519173,15.822289],[-16.518901,15.824019],[-16.517273,15.826583],[-16.517261,15.827372],[-16.517632,15.828248],[-16.517599,15.828559],[-16.517102,15.829305],[-16.516094,15.829393],[-16.515528,15.828816],[-16.514491,15.828768],[-16.514228,15.828949],[-16.514255,15.829482],[-16.510145,15.829706],[-16.509446,15.829891],[-16.509263,15.83039],[-16.509404,15.830524],[-16.509515,15.832783],[-16.509938,15.833187],[-16.509942,15.833819],[-16.509711,15.834137],[-16.50976,15.834453],[-16.509437,15.834953],[-16.509302,15.835631],[-16.509356,15.83658],[-16.509639,15.83703],[-16.509732,15.836939],[-16.509873,15.837074],[-16.509876,15.83739],[-16.509507,15.83798],[-16.509975,15.838203],[-16.510254,15.83811],[-16.51091,15.838332],[-16.511007,15.838873],[-16.510734,15.839824],[-16.510876,15.840094],[-16.510883,15.841088],[-16.510653,15.841542],[-16.510513,15.841452],[-16.510427,15.842447],[-16.511461,15.843434],[-16.511605,15.84393],[-16.511234,15.84434],[-16.511423,15.844655],[-16.511331,15.844746],[-16.511471,15.84479],[-16.511841,15.844335],[-16.51203,15.844605],[-16.512078,15.84425],[-16.512436,15.844339],[-16.512544,15.844692],[-16.512776,15.84451],[-16.512873,15.844961],[-16.51311,15.844411],[-16.513267,15.844554],[-16.513155,15.846423],[-16.51225,15.847776],[-16.512387,15.848634],[-16.512032,15.849965],[-16.511364,15.850421],[-16.511124,15.850893],[-16.511202,15.851263],[-16.511719,15.851684],[-16.511389,15.852617],[-16.51192,15.853644],[-16.511913,15.85396],[-16.511432,15.854551],[-16.511277,15.855139],[-16.5107,15.855342],[-16.51033,15.855797],[-16.510145,15.857271],[-16.509307,15.858832],[-16.508468,15.859081],[-16.508086,15.85948],[-16.508123,15.859093],[-16.507052,15.859552],[-16.506305,15.859422],[-16.50505,15.860199],[-16.504595,15.861829],[-16.504133,15.862465],[-16.503997,15.863098],[-16.504468,15.863547],[-16.504192,15.864181],[-16.504287,15.864316],[-16.503543,15.864819],[-16.503262,15.86464],[-16.503076,15.864731],[-16.502893,15.86523],[-16.502988,15.865455],[-16.503491,15.865734],[-16.50339,15.866076],[-16.503272,15.865995],[-16.5029,15.866179],[-16.502525,15.866001],[-16.502294,15.866364],[-16.50206,15.86632],[-16.502581,15.867266],[-16.50267,15.866723],[-16.502859,15.866992],[-16.502951,15.866811],[-16.503374,15.867124],[-16.503331,15.867712],[-16.503659,15.867845],[-16.504318,15.868564],[-16.504225,15.868655],[-16.504417,15.869331],[-16.503678,15.870421],[-16.504014,15.871594],[-16.504625,15.872132],[-16.505386,15.874115],[-16.505856,15.874473],[-16.50604,15.874155],[-16.505757,15.873706],[-16.506127,15.873296],[-16.506874,15.873291],[-16.507471,15.871931],[-16.507932,15.871115],[-16.508207,15.870911],[-16.50861,15.871564],[-16.508359,15.87197],[-16.509061,15.872282],[-16.509395,15.873183],[-16.509404,15.874448],[-16.509699,15.875544],[-16.509379,15.875394],[-16.508484,15.875678],[-16.508328,15.876732],[-16.508503,15.877581],[-16.508071,15.877169],[-16.508155,15.875993],[-16.50788,15.876628],[-16.507647,15.876765],[-16.507837,15.877216],[-16.507843,15.877984],[-16.508126,15.878389],[-16.507895,15.878707],[-16.507716,15.879702],[-16.506931,15.880882],[-16.507021,15.881335],[-16.506881,15.880951],[-16.506574,15.880933],[-16.506194,15.881333],[-16.506279,15.882432],[-16.505962,15.883724],[-16.50578,15.88306],[-16.505457,15.883649],[-16.504853,15.88406],[-16.504525,15.883882],[-16.504386,15.883973],[-16.504244,15.883793],[-16.504058,15.883885],[-16.503823,15.883615],[-16.503405,15.883935],[-16.503079,15.883982],[-16.502329,15.883626],[-16.502004,15.883899],[-16.501635,15.883907],[-16.5007,15.884315],[-16.499186,15.885473],[-16.49905,15.886035],[-16.499764,15.887257],[-16.500169,15.887058],[-16.500067,15.887166],[-16.499648,15.88735],[-16.499508,15.887306],[-16.499132,15.886992],[-16.499223,15.886675],[-16.498799,15.886181],[-16.498103,15.886773],[-16.497729,15.886731],[-16.497544,15.886913],[-16.497263,15.886824],[-16.496612,15.88719],[-16.496332,15.887147],[-16.496009,15.887737],[-16.496063,15.88873],[-16.49537,15.889729],[-16.495233,15.890182],[-16.49533,15.890633],[-16.495515,15.890451],[-16.49561,15.890541],[-16.495518,15.890813],[-16.495709,15.891399],[-16.495664,15.891535],[-16.495476,15.891446],[-16.495285,15.890905],[-16.495341,15.89217],[-16.495479,15.891898],[-16.496035,15.892427],[-16.495814,15.892935],[-16.495897,15.892944],[-16.495815,15.893833],[-16.495768,15.89298],[-16.495674,15.892891],[-16.495349,15.893164],[-16.495266,15.894565],[-16.495323,15.895966],[-16.495574,15.89547],[-16.495542,15.897477],[-16.495879,15.898687],[-16.495708,15.898765],[-16.495099,15.898498],[-16.494679,15.898564],[-16.49416,15.899164],[-16.493445,15.899557],[-16.492683,15.900768],[-16.491374,15.905058],[-16.490105,15.907742],[-16.489887,15.90853],[-16.48985,15.909895],[-16.49018,15.912803],[-16.489869,15.916239],[-16.490165,15.918461],[-16.490429,15.922616],[-16.490288,15.923666],[-16.488156,15.925886],[-16.487679,15.925853],[-16.487026,15.925188],[-16.487585,15.924617],[-16.487921,15.925091],[-16.488194,15.925147],[-16.489017,15.923859],[-16.489178,15.923108],[-16.488888,15.922515],[-16.488114,15.921693],[-16.488489,15.921532],[-16.488242,15.920139],[-16.48713,15.919516],[-16.487222,15.919289],[-16.487798,15.919235],[-16.487378,15.918159],[-16.487552,15.916836],[-16.487345,15.916703],[-16.486679,15.916709],[-16.486257,15.916461],[-16.485822,15.916646],[-16.485523,15.916503],[-16.485423,15.916026],[-16.48553,15.914536],[-16.485155,15.913817],[-16.484964,15.914304],[-16.484434,15.918065],[-16.484736,15.918335],[-16.485138,15.918339],[-16.485259,15.918004],[-16.484939,15.917736],[-16.486062,15.917181],[-16.486274,15.917249],[-16.486215,15.91838],[-16.486862,15.918581],[-16.486355,15.919141],[-16.486522,15.920126],[-16.487054,15.920483],[-16.486771,15.92173],[-16.48727,15.922492],[-16.487719,15.922795],[-16.487578,15.922969],[-16.486557,15.923016],[-16.485771,15.923613],[-16.485618,15.924129],[-16.486368,15.9241],[-16.486412,15.924511],[-16.485467,15.924738],[-16.484775,15.925972],[-16.484226,15.926274],[-16.484023,15.926583],[-16.483981,15.925878],[-16.484154,15.925308],[-16.485579,15.923544],[-16.485881,15.922639],[-16.485694,15.92142],[-16.484315,15.919233],[-16.484064,15.918168],[-16.484496,15.915969],[-16.484447,15.914415],[-16.485574,15.911425],[-16.486715,15.906473],[-16.486756,15.904512],[-16.486346,15.902101],[-16.486425,15.900139],[-16.486265,15.898613],[-16.486326,15.898305],[-16.486873,15.898167],[-16.487168,15.898236],[-16.487872,15.898819],[-16.488151,15.898546],[-16.488042,15.896766],[-16.488542,15.896158],[-16.488196,15.895678],[-16.488279,15.894724],[-16.48813,15.893773],[-16.488316,15.892885],[-16.488809,15.892452],[-16.488866,15.891327],[-16.489451,15.890469],[-16.489165,15.890169],[-16.488792,15.890262],[-16.488468,15.890143],[-16.488689,15.889793],[-16.488465,15.889354],[-16.48728,15.889084],[-16.48708,15.889377],[-16.486974,15.890059],[-16.486344,15.890789],[-16.486426,15.892272],[-16.486067,15.892648],[-16.485556,15.892875],[-16.48535,15.892266],[-16.484045,15.891416],[-16.484031,15.890802],[-16.48464,15.88974],[-16.485143,15.88961],[-16.485725,15.89004],[-16.485959,15.889993],[-16.486845,15.88864],[-16.486981,15.888025],[-16.486271,15.882941],[-16.485602,15.882142],[-16.485154,15.88209],[-16.483655,15.882779],[-16.481968,15.884462],[-16.481229,15.884282],[-16.481245,15.883934],[-16.481504,15.883598],[-16.482137,15.883386],[-16.482406,15.883113],[-16.482936,15.881437],[-16.483727,15.879904],[-16.483759,15.876648],[-16.483487,15.87665],[-16.481692,15.877786],[-16.480277,15.880283],[-16.480146,15.881606],[-16.480249,15.881862],[-16.479847,15.882342],[-16.479384,15.882482],[-16.479039,15.88199],[-16.478463,15.88168],[-16.477293,15.882209],[-16.476437,15.882309],[-16.47625,15.882147],[-16.476289,15.881346],[-16.476002,15.879852],[-16.476296,15.878417],[-16.476054,15.87778],[-16.47574,15.877475],[-16.475235,15.877565],[-16.474649,15.877977],[-16.473754,15.880567],[-16.472923,15.881294],[-16.472181,15.881442],[-16.470894,15.880456],[-16.469755,15.880309],[-16.4698,15.879146],[-16.47068,15.877613],[-16.471321,15.875552],[-16.471273,15.87478],[-16.470789,15.874075],[-16.471513,15.873498],[-16.471947,15.872781],[-16.474382,15.871228],[-16.475504,15.870199],[-16.475817,15.869465],[-16.476183,15.86723],[-16.476514,15.866541],[-16.478043,15.864931],[-16.478935,15.861744],[-16.479379,15.861126],[-16.480909,15.859669],[-16.481213,15.85917],[-16.481317,15.857976],[-16.48121,15.856814],[-16.482496,15.854733],[-16.482833,15.854691],[-16.484534,15.855458],[-16.485391,15.855324],[-16.48438,15.854214],[-16.483183,15.852227],[-16.48177,15.851068],[-16.481587,15.850292],[-16.481172,15.849726],[-16.481152,15.849464],[-16.481855,15.848555],[-16.481991,15.848021],[-16.48136,15.847329],[-16.48132,15.846878],[-16.481505,15.846624],[-16.481719,15.846595],[-16.482228,15.847242],[-16.48296,15.847816],[-16.484388,15.847715],[-16.484335,15.846794],[-16.483639,15.844856],[-16.4848,15.845228],[-16.485458,15.845919],[-16.485377,15.845024],[-16.48467,15.842887],[-16.484483,15.84156],[-16.484776,15.839488],[-16.485392,15.837541],[-16.486097,15.836419],[-16.487544,15.8353],[-16.488605,15.833923],[-16.489148,15.83347],[-16.489383,15.832731],[-16.491275,15.830197],[-16.492867,15.826385],[-16.494036,15.82427],[-16.495757,15.821834],[-16.495814,15.820782],[-16.495594,15.820124],[-16.495349,15.820022],[-16.494463,15.820332],[-16.494322,15.820245],[-16.494705,15.819308],[-16.495686,15.817964],[-16.495686,15.816536],[-16.496126,15.816217],[-16.496677,15.816789],[-16.496939,15.817341],[-16.497091,15.818664],[-16.498071,15.817025],[-16.499277,15.813228],[-16.49917,15.812758],[-16.499321,15.811833],[-16.498992,15.810799],[-16.497817,15.809597],[-16.497072,15.808277],[-16.496846,15.80705],[-16.497116,15.80606],[-16.497559,15.805454],[-16.497737,15.805525],[-16.497996,15.805353],[-16.498269,15.806123],[-16.499239,15.805827],[-16.499602,15.805996],[-16.500072,15.806873],[-16.499982,15.808431],[-16.500268,15.809949],[-16.500886,15.810759],[-16.501581,15.810451],[-16.501795,15.809996],[-16.501905,15.808991],[-16.50155,15.807031],[-16.503807,15.805866],[-16.504519,15.805776],[-16.504287,15.805219],[-16.503697,15.804642],[-16.504055,15.804034],[-16.504165,15.803422],[-16.50355,15.802572],[-16.502841,15.801165],[-16.502851,15.800713],[-16.503128,15.800477],[-16.503629,15.800697],[-16.504254,15.802114],[-16.504703,15.802459],[-16.506257,15.800398],[-16.507795,15.797313],[-16.508348,15.796496],[-16.50905,15.795946],[-16.509652,15.795728],[-16.51042,15.795868],[-16.510954,15.79629],[-16.5111,15.796142],[-16.511767,15.795405],[-16.511567,15.794918],[-16.511542,15.794029],[-16.511062,15.792933],[-16.511067,15.79206],[-16.511639,15.791072],[-16.512495,15.790504],[-16.512945,15.790433],[-16.513454,15.790658],[-16.513768,15.790214],[-16.518507,15.791025],[-16.525072,15.79516]],[[-16.512781,15.845142],[-16.512782,15.845233],[-16.512828,15.845187],[-16.512781,15.845142]],[[-16.512644,15.845595],[-16.512738,15.845594],[-16.51269,15.845504],[-16.512644,15.845595]],[[-16.511796,15.847657],[-16.512238,15.847405],[-16.512467,15.846816],[-16.51237,15.84641],[-16.512553,15.845822],[-16.512131,15.845599],[-16.5119,15.846007],[-16.511907,15.846911],[-16.511442,15.847185],[-16.510789,15.84719],[-16.511796,15.847657]],[[-16.510277,15.847419],[-16.510326,15.84769],[-16.510419,15.847644],[-16.510277,15.847419]],[[-16.511552,15.849444],[-16.511691,15.849217],[-16.511687,15.848675],[-16.511364,15.849174],[-16.511551,15.849263],[-16.511552,15.849444]],[[-16.511136,15.849944],[-16.511137,15.850034],[-16.511183,15.849989],[-16.511136,15.849944]],[[-16.511043,15.850035],[-16.511044,15.850125],[-16.51109,15.85008],[-16.511043,15.850035]],[[-16.511007,15.851436],[-16.511193,15.851389],[-16.510911,15.85112],[-16.510819,15.851256],[-16.511007,15.851436]],[[-16.511289,15.85166],[-16.511382,15.851659],[-16.511335,15.851569],[-16.511289,15.85166]],[[-16.511295,15.852428],[-16.511387,15.852292],[-16.511104,15.851932],[-16.511011,15.852023],[-16.511295,15.852428]],[[-16.511157,15.852745],[-16.511158,15.852836],[-16.511204,15.85279],[-16.511157,15.852745]],[[-16.495989,15.861021],[-16.498216,15.859071],[-16.498909,15.858054],[-16.499346,15.856578],[-16.499193,15.854898],[-16.497951,15.851066],[-16.497834,15.84906],[-16.498217,15.847873],[-16.49969,15.846318],[-16.500086,15.845538],[-16.500248,15.843494],[-16.500933,15.8419],[-16.500686,15.840813],[-16.501514,15.840296],[-16.501816,15.839676],[-16.5018,15.839073],[-16.501446,15.838438],[-16.501743,15.837281],[-16.501831,15.835954],[-16.502021,15.835734],[-16.502576,15.836248],[-16.503026,15.83628],[-16.503297,15.836114],[-16.503573,15.835629],[-16.503923,15.83388],[-16.504502,15.833037],[-16.504245,15.83141],[-16.503634,15.830728],[-16.503924,15.829189],[-16.503918,15.828375],[-16.504473,15.827685],[-16.504715,15.827044],[-16.505257,15.826839],[-16.50472,15.825958],[-16.50584,15.825405],[-16.505993,15.823983],[-16.506881,15.822955],[-16.507122,15.82233],[-16.508515,15.822015],[-16.510041,15.820729],[-16.510401,15.820182],[-16.510573,15.819382],[-16.510514,15.816807],[-16.510747,15.814702],[-16.511095,15.814226],[-16.511981,15.813911],[-16.513057,15.812539],[-16.512913,15.8117],[-16.513325,15.810363],[-16.513048,15.808885],[-16.512855,15.805931],[-16.514693,15.803866],[-16.516307,15.802888],[-16.515453,15.800232],[-16.515455,15.799238],[-16.515904,15.798187],[-16.517929,15.795624],[-16.518427,15.792987],[-16.517777,15.792967],[-16.517339,15.793216],[-16.51536,15.795167],[-16.514873,15.796188],[-16.512828,15.79902],[-16.512592,15.800036],[-16.511739,15.801162],[-16.510676,15.804073],[-16.510507,15.804969],[-16.510154,15.805664],[-16.509881,15.806964],[-16.510525,15.808801],[-16.510341,15.8094],[-16.509703,15.809954],[-16.508326,15.810618],[-16.50673,15.812606],[-16.504369,15.813415],[-16.503225,15.814023],[-16.501155,15.816566],[-16.500846,15.818329],[-16.50043,15.819044],[-16.500303,15.819881],[-16.499984,15.820572],[-16.499883,15.822061],[-16.499083,15.823535],[-16.498235,15.825587],[-16.497001,15.827342],[-16.497004,15.82779],[-16.497644,15.829225],[-16.497347,15.830319],[-16.495957,15.831667],[-16.496109,15.832911],[-16.495814,15.833704],[-16.495361,15.834062],[-16.493829,15.834754],[-16.493096,15.835622],[-16.493584,15.83911],[-16.493222,15.839589],[-16.49315,15.840005],[-16.493319,15.840421],[-16.493889,15.84105],[-16.493684,15.841698],[-16.493784,15.843034],[-16.493342,15.843455],[-16.493583,15.843667],[-16.493345,15.854459],[-16.493031,15.856143],[-16.490892,15.861119],[-16.492326,15.863116],[-16.492917,15.863509],[-16.493515,15.863559],[-16.494259,15.863139],[-16.495989,15.861021]],[[-16.502596,15.842909],[-16.503803,15.842964],[-16.504529,15.842218],[-16.505632,15.842103],[-16.505887,15.841724],[-16.505156,15.841258],[-16.502936,15.840955],[-16.502371,15.841265],[-16.502254,15.841533],[-16.50234,15.842716],[-16.502596,15.842909]],[[-16.509411,15.843991],[-16.509412,15.844081],[-16.509458,15.844036],[-16.509411,15.843991]],[[-16.509188,15.845348],[-16.509422,15.845437],[-16.509981,15.845252],[-16.510388,15.843577],[-16.51015,15.842901],[-16.509967,15.843354],[-16.509684,15.843085],[-16.509546,15.843312],[-16.50964,15.843402],[-16.509459,15.844126],[-16.509741,15.84444],[-16.509511,15.844803],[-16.509322,15.844624],[-16.509091,15.844942],[-16.50928,15.845167],[-16.509188,15.845348]],[[-16.509874,15.849727],[-16.510246,15.849588],[-16.509776,15.84914],[-16.509499,15.849548],[-16.509874,15.849727]],[[-16.508216,15.859002],[-16.508216,15.859092],[-16.508263,15.859047],[-16.508216,15.859002]],[[-16.496859,15.868415],[-16.496519,15.868239],[-16.4965,15.868084],[-16.496587,15.867913],[-16.497052,15.867796],[-16.497015,15.867426],[-16.496696,15.867294],[-16.496233,15.867595],[-16.496187,15.867351],[-16.496653,15.86694],[-16.497133,15.867],[-16.49714,15.866774],[-16.496825,15.866459],[-16.496884,15.866127],[-16.496531,15.865814],[-16.495996,15.865645],[-16.495855,15.86598],[-16.49626,15.866301],[-16.496308,15.866526],[-16.495663,15.866666],[-16.495239,15.866941],[-16.494965,15.867795],[-16.495661,15.8685],[-16.49585,15.868911],[-16.496293,15.868733],[-16.496514,15.868901],[-16.496561,15.869232],[-16.496219,15.86979],[-16.496404,15.870091],[-16.496798,15.870046],[-16.49706,15.869755],[-16.496859,15.868415]],[[-16.505721,15.875107],[-16.505721,15.875197],[-16.505768,15.875151],[-16.505721,15.875107]],[[-16.508106,15.875677],[-16.508249,15.875993],[-16.508662,15.875041],[-16.508195,15.875044],[-16.50829,15.875269],[-16.508106,15.875677]],[[-16.507067,15.876745],[-16.506571,15.876389],[-16.506166,15.876456],[-16.505889,15.878192],[-16.506432,15.878483],[-16.507388,15.878327],[-16.507442,15.87728],[-16.507067,15.876745]],[[-16.495717,15.892438],[-16.495718,15.892529],[-16.495811,15.892483],[-16.495717,15.892438]],[[-16.486883,15.864621],[-16.486173,15.867035],[-16.487284,15.867642],[-16.487115,15.868525],[-16.488038,15.868521],[-16.48816,15.865768],[-16.489052,15.865366],[-16.488708,15.8643],[-16.486883,15.864621]],[[-16.499695,15.879592],[-16.499554,15.88001],[-16.499975,15.880036],[-16.500035,15.880265],[-16.500576,15.88031],[-16.501246,15.880155],[-16.502147,15.879323],[-16.503359,15.879491],[-16.503795,15.878922],[-16.503719,15.878646],[-16.502846,15.878075],[-16.502399,15.87803],[-16.502286,15.877685],[-16.501729,15.877554],[-16.501117,15.87806],[-16.500853,15.878066],[-16.500677,15.877727],[-16.500369,15.877677],[-16.49975,15.877897],[-16.499319,15.87837],[-16.49963,15.878797],[-16.499475,15.878829],[-16.499695,15.879592]]],[[[-16.503482,15.886679],[-16.503102,15.887145],[-16.503006,15.886727],[-16.503482,15.886679]]],[[[-16.496692,15.891709],[-16.496763,15.891731],[-16.496663,15.891728],[-16.496692,15.891709]]],[[[-16.495774,15.893884],[-16.495803,15.894001],[-16.495677,15.894783],[-16.495774,15.893884]]],[[[-16.497314,15.89299],[-16.497594,15.893736],[-16.497455,15.895891],[-16.497314,15.89299]]],[[[-16.503551,15.894146],[-16.50376,15.894055],[-16.503484,15.894554],[-16.503489,15.895186],[-16.503868,15.896042],[-16.503786,15.896194],[-16.503344,15.895249],[-16.503434,15.894029],[-16.503551,15.894146]]],[[[-16.498036,15.89658],[-16.497894,15.896445],[-16.498034,15.896309],[-16.498081,15.896444],[-16.498036,15.89658]]],[[[-16.502892,15.896546],[-16.502788,15.896317],[-16.502999,15.896648],[-16.502892,15.896546]]],[[[-16.49813,15.896669],[-16.49813,15.89676],[-16.498083,15.896715],[-16.49813,15.896669]]],[[[-16.486223,15.896892],[-16.486646,15.897075],[-16.486805,15.897441],[-16.486223,15.896892]]],[[[-16.485138,15.897563],[-16.485248,15.896781],[-16.485321,15.896777],[-16.485138,15.897563]]],[[[-16.506631,15.900046],[-16.506668,15.900439],[-16.507088,15.900773],[-16.508342,15.900091],[-16.508449,15.900419],[-16.508278,15.9013],[-16.508381,15.902175],[-16.507632,15.902269],[-16.50791,15.903673],[-16.507747,15.903746],[-16.507663,15.904406],[-16.507867,15.904405],[-16.507788,15.904674],[-16.507386,15.904968],[-16.507536,15.907191],[-16.507142,15.908026],[-16.506797,15.907497],[-16.506561,15.907757],[-16.507026,15.908414],[-16.507118,15.908844],[-16.507179,15.91111],[-16.507047,15.91124],[-16.507028,15.911833],[-16.506841,15.911851],[-16.506853,15.912392],[-16.506682,15.912387],[-16.506843,15.912917],[-16.506827,15.913668],[-16.507043,15.913912],[-16.506791,15.914161],[-16.506959,15.914386],[-16.506749,15.914745],[-16.506448,15.918335],[-16.505871,15.915488],[-16.505522,15.915472],[-16.505599,15.916564],[-16.505252,15.918649],[-16.506022,15.919074],[-16.506406,15.918704],[-16.506216,15.920356],[-16.505669,15.920902],[-16.505375,15.921582],[-16.504935,15.92012],[-16.504063,15.919959],[-16.503986,15.919493],[-16.503649,15.919137],[-16.50328,15.919247],[-16.50278,15.918844],[-16.502474,15.919073],[-16.501945,15.916728],[-16.501523,15.912442],[-16.500438,15.910234],[-16.500519,15.90986],[-16.500908,15.909448],[-16.501627,15.909214],[-16.502643,15.909135],[-16.50317,15.908525],[-16.503118,15.90682],[-16.502667,15.905989],[-16.50256,15.904777],[-16.50237,15.904594],[-16.502011,15.904562],[-16.501584,15.905074],[-16.501059,15.905347],[-16.50037,15.905453],[-16.4999,15.905316],[-16.498628,15.903862],[-16.498076,15.902602],[-16.497265,15.901481],[-16.496811,15.900249],[-16.497334,15.900182],[-16.497843,15.899582],[-16.497887,15.899238],[-16.497352,15.897588],[-16.497469,15.896713],[-16.497711,15.896853],[-16.497942,15.89658],[-16.498179,15.897076],[-16.498087,15.897212],[-16.498513,15.897932],[-16.498699,15.897931],[-16.498985,15.898652],[-16.49978,15.898872],[-16.500156,15.899186],[-16.500435,15.899003],[-16.500246,15.898688],[-16.500432,15.898551],[-16.500761,15.898911],[-16.501088,15.898908],[-16.501137,15.89927],[-16.500996,15.89909],[-16.500904,15.899271],[-16.501093,15.899631],[-16.502299,15.898538],[-16.502439,15.898447],[-16.502767,15.898626],[-16.503163,15.898211],[-16.503201,15.899228],[-16.503743,15.901764],[-16.504158,15.901604],[-16.504322,15.900585],[-16.504313,15.899284],[-16.503984,15.89705],[-16.504208,15.897712],[-16.5043,15.897621],[-16.505004,15.897977],[-16.505143,15.897886],[-16.505473,15.898336],[-16.505659,15.898199],[-16.505565,15.898109],[-16.505703,15.897882],[-16.506132,15.898964],[-16.506963,15.899055],[-16.506631,15.900046]],[[-16.50496,15.89843],[-16.50496,15.898339],[-16.504913,15.898385],[-16.50496,15.89843]],[[-16.508059,15.900667],[-16.508081,15.900464],[-16.508057,15.900396],[-16.508059,15.900667]]]]}},{"type":"Feature","properties":{"categorie":"Culture maraichère"},"geometry":{"type":"MultiPolygon","coordinates":[[[[-16.42777,15.857902],[-16.428013,15.857738],[-16.430419,15.853786],[-16.431211,15.850272],[-16.431873,15.84955],[-16.434045,15.848717],[-16.433521,15.848003],[-16.431633,15.848267],[-16.431508,15.84633],[-16.432354,15.845428],[-16.433091,15.844849],[-16.433832,15.844844],[-16.434941,15.844371],[-16.435946,15.845117],[-16.436101,15.845977],[-16.435811,15.846912],[-16.435998,15.847126],[-16.435632,15.847881],[-16.435151,15.84792],[-16.434601,15.848785],[-16.432731,15.850499],[-16.432457,15.85166],[-16.431804,15.853197],[-16.432996,15.853506],[-16.436679,15.851005],[-16.439571,15.848244],[-16.440195,15.847415],[-16.440722,15.843322],[-16.44209,15.84299],[-16.44244,15.845319],[-16.442187,15.846218],[-16.441596,15.846401],[-16.441598,15.846724],[-16.44261,15.847775],[-16.443183,15.846487],[-16.444272,15.844793],[-16.445568,15.843747],[-16.446501,15.842528],[-16.448157,15.841738],[-16.449123,15.840401],[-16.449298,15.83732],[-16.448113,15.837323],[-16.447469,15.837016],[-16.446927,15.837307],[-16.446757,15.837667],[-16.44696,15.838383],[-16.446845,15.839627],[-16.447146,15.840295],[-16.44688,15.841133],[-16.446288,15.841257],[-16.444113,15.841032],[-16.443581,15.840647],[-16.444178,15.84083],[-16.444761,15.840469],[-16.444491,15.839185],[-16.443689,15.839196],[-16.443827,15.839025],[-16.44484,15.839067],[-16.445601,15.838416],[-16.444804,15.837536],[-16.445785,15.836478],[-16.447005,15.834293],[-16.447446,15.83386],[-16.44802,15.834621],[-16.448177,15.835936],[-16.449157,15.835933],[-16.449109,15.835158],[-16.449502,15.83405],[-16.449524,15.832734],[-16.449107,15.830615],[-16.449446,15.830463],[-16.449788,15.830909],[-16.450013,15.832044],[-16.450418,15.832609],[-16.450849,15.832397],[-16.451308,15.831826],[-16.451803,15.831942],[-16.451592,15.832691],[-16.45083,15.834071],[-16.450931,15.835206],[-16.45119,15.835964],[-16.451665,15.83663],[-16.451003,15.83824],[-16.452232,15.83851],[-16.453181,15.839231],[-16.454494,15.83948],[-16.454854,15.838582],[-16.45571,15.8386],[-16.456289,15.838884],[-16.456267,15.839314],[-16.457503,15.839348],[-16.457529,15.83872],[-16.459525,15.838768],[-16.460474,15.839012],[-16.46185,15.839745],[-16.46239,15.836429],[-16.461633,15.83593],[-16.46206,15.83476],[-16.462727,15.83492],[-16.463345,15.832073],[-16.464536,15.829241],[-16.464925,15.828796],[-16.46552,15.828566],[-16.465627,15.827995],[-16.465108,15.827951],[-16.465153,15.827281],[-16.466014,15.826845],[-16.466799,15.826002],[-16.467028,15.82361],[-16.467371,15.822335],[-16.467338,15.820419],[-16.466572,15.820325],[-16.465921,15.819911],[-16.466529,15.818531],[-16.467455,15.818525],[-16.467852,15.817955],[-16.468736,15.81209],[-16.469337,15.809874],[-16.470375,15.808253],[-16.471335,15.804301],[-16.472014,15.804296],[-16.472448,15.804532],[-16.471609,15.808095],[-16.471849,15.811351],[-16.471089,15.81306],[-16.470659,15.813332],[-16.468605,15.819594],[-16.468793,15.819921],[-16.468264,15.821648],[-16.468582,15.821984],[-16.469069,15.822107],[-16.46917,15.820935],[-16.470532,15.821314],[-16.471155,15.822147],[-16.470637,15.823047],[-16.470047,15.823167],[-16.469386,15.825208],[-16.468249,15.826369],[-16.467385,15.828201],[-16.46707,15.828483],[-16.466204,15.830098],[-16.465919,15.830814],[-16.465724,15.832252],[-16.464816,15.833216],[-16.464722,15.836157],[-16.464856,15.83828],[-16.464485,15.839418],[-16.465474,15.839635],[-16.465537,15.840113],[-16.465263,15.840459],[-16.464218,15.840258],[-16.464233,15.842301],[-16.463652,15.844027],[-16.462753,15.848047],[-16.46397,15.848875],[-16.463338,15.850968],[-16.461418,15.853945],[-16.460756,15.855414],[-16.46043,15.856781],[-16.460186,15.856656],[-16.460081,15.85634],[-16.460238,15.854794],[-16.461413,15.852011],[-16.461499,15.850998],[-16.461474,15.850806],[-16.460056,15.850839],[-16.459448,15.848715],[-16.46057,15.846722],[-16.461101,15.845093],[-16.46169,15.845142],[-16.461787,15.843108],[-16.460516,15.842729],[-16.458784,15.846364],[-16.458167,15.846775],[-16.457474,15.846864],[-16.457146,15.846626],[-16.456971,15.846147],[-16.457548,15.844281],[-16.457535,15.843873],[-16.45605,15.843453],[-16.455864,15.84166],[-16.454719,15.841363],[-16.4542,15.842156],[-16.453456,15.843967],[-16.451859,15.846371],[-16.449772,15.850908],[-16.449442,15.852203],[-16.449606,15.852973],[-16.450208,15.853494],[-16.450669,15.853536],[-16.450977,15.853386],[-16.452828,15.849054],[-16.453923,15.847721],[-16.454689,15.847511],[-16.455437,15.847641],[-16.456012,15.848227],[-16.456154,15.848862],[-16.454113,15.853159],[-16.451269,15.857941],[-16.449737,15.861314],[-16.449278,15.861232],[-16.448689,15.860739],[-16.448208,15.858714],[-16.446352,15.857237],[-16.445855,15.856479],[-16.445587,15.855626],[-16.446274,15.852339],[-16.449174,15.847913],[-16.447806,15.847783],[-16.445989,15.849989],[-16.443701,15.854413],[-16.443106,15.85616],[-16.442942,15.857256],[-16.441629,15.856916],[-16.440195,15.857889],[-16.439834,15.85929],[-16.439169,15.859474],[-16.438389,15.859228],[-16.437798,15.859519],[-16.437217,15.861245],[-16.438183,15.861525],[-16.437415,15.866393],[-16.436631,15.866514],[-16.436653,15.866293],[-16.436223,15.866313],[-16.436238,15.865964],[-16.436002,15.865891],[-16.435874,15.866366],[-16.4353,15.866334],[-16.435111,15.866696],[-16.435403,15.866857],[-16.435324,15.867047],[-16.42987,15.860709],[-16.42777,15.857902]],[[-16.450089,15.857766],[-16.451428,15.856272],[-16.451612,15.856271],[-16.451678,15.855662],[-16.452394,15.854414],[-16.452422,15.8537],[-16.452277,15.853424],[-16.451699,15.853897],[-16.450935,15.855627],[-16.450249,15.856721],[-16.449977,15.85751],[-16.450089,15.857766]],[[-16.437681,15.856891],[-16.438282,15.857068],[-16.438384,15.855413],[-16.438083,15.855375],[-16.437568,15.855792],[-16.437622,15.856453],[-16.437826,15.856431],[-16.437681,15.856891]]],[[[-16.437398,15.867047],[-16.437296,15.866974],[-16.437366,15.866927],[-16.437398,15.867047]]],[[[-16.437545,15.86751],[-16.437874,15.867961],[-16.438874,15.868317],[-16.438988,15.868681],[-16.438656,15.869558],[-16.437761,15.869569],[-16.437482,15.870012],[-16.437388,15.869445],[-16.435692,15.867475],[-16.436002,15.867672],[-16.436498,15.867104],[-16.437545,15.86751]]],[[[-16.424891,15.848534],[-16.426535,15.847072],[-16.426822,15.845827],[-16.428133,15.842566],[-16.429051,15.843062],[-16.428392,15.844262],[-16.427859,15.8457],[-16.428357,15.846295],[-16.429483,15.844757],[-16.430207,15.845144],[-16.429653,15.846725],[-16.42981,15.847919],[-16.429295,15.850842],[-16.428589,15.851924],[-16.427926,15.851798],[-16.42723,15.851061],[-16.427347,15.850175],[-16.426951,15.850106],[-16.426029,15.850483],[-16.425578,15.85225],[-16.425623,15.854192],[-16.425904,15.854689],[-16.425603,15.855111],[-16.424635,15.85384],[-16.42485,15.848153],[-16.424891,15.848534]]]]}},{"type":"Feature","properties":{"categorie":"Culture maraichère"},"geometry":{"type":"Polygon","coordinates":[[[-16.453354,15.830595],[-16.453405,15.829485],[-16.455333,15.825474],[-16.456332,15.8243],[-16.456749,15.824489],[-16.456794,15.825273],[-16.456304,15.825946],[-16.455087,15.826968],[-16.454583,15.828444],[-16.455478,15.829127],[-16.456348,15.829331],[-16.457413,15.829037],[-16.457784,15.828289],[-16.458219,15.828324],[-16.458382,15.829107],[-16.458229,15.829835],[-16.457665,15.831102],[-16.457555,15.832174],[-16.457756,15.832727],[-16.45749,15.834221],[-16.457135,15.834358],[-16.456917,15.834187],[-16.456526,15.831989],[-16.455571,15.831135],[-16.454745,15.831695],[-16.454236,15.832349],[-16.454523,15.833782],[-16.454368,15.834242],[-16.453284,15.834689],[-16.452927,15.834501],[-16.452801,15.833487],[-16.453354,15.830595]]]}},{"type":"Feature","properties":{"categorie":"Culture maraichère"},"geometry":{"type":"Polygon","coordinates":[[[-16.435407,15.83573],[-16.435561,15.833646],[-16.436129,15.831157],[-16.436606,15.830156],[-16.437335,15.829221],[-16.438078,15.827311],[-16.43835,15.82695],[-16.438801,15.826743],[-16.438862,15.827202],[-16.438269,15.828668],[-16.437429,15.832196],[-16.437544,15.832457],[-16.438371,15.833133],[-16.438852,15.833061],[-16.439383,15.832711],[-16.439604,15.831378],[-16.440177,15.830115],[-16.44176,15.828331],[-16.442356,15.828158],[-16.442749,15.828389],[-16.441518,15.83041],[-16.440885,15.831984],[-16.440611,15.833451],[-16.440644,15.833583],[-16.442362,15.833453],[-16.442667,15.833155],[-16.443059,15.832306],[-16.444237,15.831178],[-16.444362,15.830383],[-16.443664,15.829987],[-16.443825,15.828288],[-16.444342,15.828141],[-16.444765,15.82845],[-16.444793,15.829047],[-16.445341,15.829689],[-16.444914,15.831138],[-16.445895,15.831168],[-16.445902,15.832101],[-16.444634,15.835737],[-16.444129,15.837687],[-16.443691,15.8383],[-16.44187,15.839429],[-16.442001,15.838592],[-16.442911,15.835963],[-16.442582,15.835222],[-16.441872,15.835165],[-16.441147,15.836209],[-16.441014,15.837005],[-16.440153,15.839307],[-16.43961,15.839875],[-16.439155,15.840011],[-16.438839,15.839373],[-16.438976,15.838986],[-16.439626,15.838256],[-16.439462,15.836999],[-16.439608,15.836373],[-16.438638,15.835769],[-16.43813,15.836666],[-16.437907,15.837919],[-16.43824,15.839549],[-16.43817,15.840209],[-16.437305,15.842378],[-16.436732,15.842684],[-16.436097,15.842726],[-16.435526,15.842289],[-16.435098,15.841379],[-16.435591,15.838543],[-16.435407,15.83573]]]}},{"type":"Feature","properties":{"categorie":"Culture maraichère"},"geometry":{"type":"Polygon","coordinates":[[[-16.440204,15.866544],[-16.440649,15.866613],[-16.440992,15.866252],[-16.441939,15.863926],[-16.442774,15.863203],[-16.442275,15.862513],[-16.442246,15.861916],[-16.441747,15.861225],[-16.442676,15.859832],[-16.443346,15.860258],[-16.44367,15.860615],[-16.443748,15.861164],[-16.44407,15.861329],[-16.446102,15.858685],[-16.446421,15.858372],[-16.446694,15.85849],[-16.447068,15.859038],[-16.447022,15.859492],[-16.446556,15.860022],[-16.446858,15.860737],[-16.446368,15.861314],[-16.445949,15.86146],[-16.445394,15.863329],[-16.444974,15.863337],[-16.44413,15.862793],[-16.443637,15.862987],[-16.443197,15.863516],[-16.440634,15.868005],[-16.440345,15.869035],[-16.4401,15.869276],[-16.439678,15.869016],[-16.440038,15.867531],[-16.439888,15.867317],[-16.439936,15.867072],[-16.440204,15.866544]]]}},{"type":"Feature","properties":{"categorie":"Culture pluviale"},"geometry":{"type":"Polygon","coordinates":[[[-16.462346,15.882175],[-16.462014,15.881874],[-16.461094,15.881665],[-16.459313,15.881568],[-16.458562,15.881086],[-16.458385,15.880392],[-16.458772,15.878259],[-16.459213,15.877725],[-16.462498,15.876502],[-16.462696,15.87618],[-16.462998,15.874401],[-16.463275,15.873727],[-16.464034,15.87328],[-16.464998,15.873224],[-16.466052,15.873922],[-16.466746,15.874739],[-16.467447,15.876142],[-16.468278,15.877239],[-16.468273,15.878015],[-16.467058,15.879543],[-16.466359,15.881469],[-16.465992,15.881915],[-16.465403,15.882195],[-16.464539,15.882272],[-16.463686,15.883299],[-16.463435,15.883399],[-16.462704,15.883174],[-16.462346,15.882175]]]}},{"type":"Feature","properties":{"categorie":"Culture pluviale"},"geometry":{"type":"Polygon","coordinates":[[[-16.46416,15.885449],[-16.464856,15.885587],[-16.465108,15.885961],[-16.465402,15.89117],[-16.464941,15.891759],[-16.463792,15.892572],[-16.463074,15.893542],[-16.462465,15.893765],[-16.4617,15.893747],[-16.460984,15.893394],[-16.460599,15.892961],[-16.46051,15.892353],[-16.460639,15.891645],[-16.461265,15.890462],[-16.462291,15.890097],[-16.463013,15.889552],[-16.462909,15.888717],[-16.462216,15.887756],[-16.462195,15.887453],[-16.463255,15.885718],[-16.46416,15.885449]]]}},{"type":"Feature","properties":{"categorie":"Culture pluviale"},"geometry":{"type":"MultiPolygon","coordinates":[[[[-16.474304,15.943175],[-16.474931,15.942651],[-16.474979,15.942922],[-16.475491,15.942557],[-16.476449,15.939523],[-16.476261,15.939298],[-16.476029,15.93948],[-16.475655,15.939483],[-16.475332,15.940028],[-16.475427,15.940208],[-16.475152,15.940978],[-16.474498,15.940937],[-16.474067,15.940661],[-16.474307,15.940351],[-16.474303,15.939899],[-16.474,15.93962],[-16.473869,15.937602],[-16.47418,15.935878],[-16.474877,15.935268],[-16.475903,15.935134],[-16.476577,15.935337],[-16.476702,15.935806],[-16.476654,15.937126],[-16.476921,15.937567],[-16.477022,15.939926],[-16.476496,15.940824],[-16.47646,15.942288],[-16.474377,15.943845],[-16.474304,15.943175]]],[[[-16.475108,15.941385],[-16.475108,15.941294],[-16.475155,15.941339],[-16.475108,15.941385]]],[[[-16.474364,15.941751],[-16.474363,15.941661],[-16.47441,15.941706],[-16.474364,15.941751]]],[[[-16.474458,15.941841],[-16.474457,15.941751],[-16.474504,15.941796],[-16.474458,15.941841]]]]}},{"type":"Feature","properties":{"categorie":"Culture pluviale"},"geometry":{"type":"MultiPolygon","coordinates":[[[[-16.498735,15.946549],[-16.498665,15.946001],[-16.498318,15.945765],[-16.497179,15.945581],[-16.497226,15.94527],[-16.497918,15.945146],[-16.499225,15.945052],[-16.499947,15.945562],[-16.500143,15.945226],[-16.4994,15.94174],[-16.498462,15.941866],[-16.498337,15.941723],[-16.498078,15.940099],[-16.497479,15.93814],[-16.497536,15.937582],[-16.497913,15.937358],[-16.499055,15.938204],[-16.499446,15.937972],[-16.499029,15.936214],[-16.498272,15.935319],[-16.498111,15.934421],[-16.497703,15.933655],[-16.497784,15.933212],[-16.498394,15.932376],[-16.498392,15.932024],[-16.499332,15.932885],[-16.500015,15.934227],[-16.500416,15.935444],[-16.500488,15.93632],[-16.500274,15.937704],[-16.500543,15.93867],[-16.500475,15.939673],[-16.500811,15.940855],[-16.500583,15.942781],[-16.50091,15.944081],[-16.501368,15.944105],[-16.501438,15.944701],[-16.501226,15.945867],[-16.498735,15.946549]]],[[[-16.497194,15.947031],[-16.497989,15.94653],[-16.498418,15.946648],[-16.497194,15.947031]]]]}},{"type":"Feature","properties":{"categorie":"Culture pluviale"},"geometry":{"type":"MultiPolygon","coordinates":[[[[-16.48911,15.938758],[-16.488976,15.93828],[-16.49032,15.936852],[-16.490891,15.935763],[-16.491474,15.93378],[-16.491623,15.932522],[-16.491206,15.930338],[-16.491747,15.930334],[-16.492197,15.930494],[-16.492069,15.930999],[-16.492363,15.931808],[-16.492299,15.932686],[-16.492759,15.933309],[-16.493226,15.93509],[-16.492845,15.936262],[-16.492839,15.936782],[-16.49286,15.937021],[-16.492893,15.937275],[-16.49292,15.937454],[-16.492729,15.936745],[-16.492499,15.937243],[-16.491824,15.937679],[-16.491735,15.938107],[-16.491107,15.938518],[-16.490639,15.938386],[-16.490337,15.938636],[-16.490003,15.939424],[-16.48911,15.938758]]],[[[-16.493829,15.942636],[-16.493699,15.94297],[-16.493847,15.942518],[-16.493829,15.942636]]],[[[-16.490586,15.943809],[-16.490701,15.944533],[-16.490589,15.943767],[-16.490586,15.943809]]],[[[-16.493829,15.944131],[-16.493849,15.944552],[-16.493779,15.943999],[-16.493829,15.944131]]],[[[-16.493894,15.945033],[-16.494164,15.945678],[-16.493912,15.945232],[-16.493894,15.945033]]],[[[-16.491236,15.946269],[-16.491774,15.946602],[-16.491803,15.94694],[-16.491236,15.946269]]],[[[-16.493898,15.947864],[-16.494109,15.946586],[-16.4942,15.946316],[-16.493898,15.947864]]],[[[-16.491813,15.947047],[-16.491933,15.947989],[-16.491637,15.948008],[-16.491813,15.947047]]]]}},{"type":"Feature","properties":{"categorie":"Culture pluviale"},"geometry":{"type":"Polygon","coordinates":[[[-16.424908,15.846622],[-16.427147,15.835714],[-16.42743,15.835436],[-16.428274,15.83188],[-16.431698,15.822355],[-16.432021,15.822366],[-16.432285,15.822103],[-16.432159,15.821074],[-16.431882,15.821843],[-16.439816,15.799771],[-16.456667,15.784675],[-16.471282,15.782934],[-16.47978,15.784391],[-16.480071,15.785579],[-16.47978,15.786301],[-16.476734,15.788795],[-16.477042,15.789724],[-16.478023,15.790821],[-16.477952,15.791375],[-16.477583,15.791769],[-16.476741,15.791437],[-16.476426,15.791577],[-16.475231,15.794742],[-16.474577,15.795638],[-16.474047,15.796046],[-16.473394,15.796017],[-16.471983,15.795252],[-16.470499,15.794903],[-16.467815,15.793374],[-16.461892,15.791494],[-16.460039,15.791446],[-16.459239,15.79181],[-16.458751,15.792651],[-16.458517,15.794386],[-16.455181,15.802919],[-16.455805,15.803671],[-16.456681,15.804145],[-16.462049,15.8046],[-16.464339,15.805103],[-16.465625,15.803283],[-16.465886,15.802473],[-16.465945,15.800801],[-16.46672,15.799894],[-16.467909,15.799261],[-16.469166,15.799031],[-16.470585,15.799335],[-16.471201,15.799916],[-16.471253,15.800752],[-16.471086,15.801348],[-16.469495,15.802916],[-16.468941,15.8041],[-16.468739,15.805212],[-16.469045,15.806497],[-16.468934,15.807103],[-16.467081,15.809654],[-16.467008,15.810305],[-16.467383,15.811467],[-16.467225,15.812357],[-16.466983,15.812837],[-16.466525,15.813136],[-16.465854,15.81406],[-16.464917,15.814651],[-16.463391,15.814576],[-16.461169,15.81372],[-16.459837,15.812654],[-16.459194,15.812402],[-16.457877,15.812603],[-16.456777,15.813125],[-16.455632,15.814372],[-16.452598,15.819235],[-16.452374,15.820236],[-16.452405,15.823047],[-16.452162,15.824804],[-16.451818,15.825134],[-16.450025,15.825988],[-16.44955,15.826023],[-16.448876,15.825769],[-16.44827,15.824444],[-16.447871,15.823992],[-16.446967,15.824578],[-16.446036,15.824204],[-16.445422,15.823637],[-16.444374,15.821913],[-16.444044,15.821638],[-16.443012,15.821752],[-16.441426,15.822329],[-16.439636,15.823355],[-16.43768,15.825506],[-16.436255,15.826527],[-16.435749,15.827398],[-16.435756,15.827688],[-16.43702,15.828231],[-16.436988,15.829642],[-16.436447,15.830426],[-16.436076,15.831317],[-16.435423,15.834881],[-16.433013,15.83972],[-16.432485,15.842019],[-16.431768,15.844048],[-16.430476,15.844376],[-16.430207,15.845144],[-16.429483,15.844757],[-16.428357,15.846295],[-16.427859,15.8457],[-16.428392,15.844262],[-16.429051,15.843062],[-16.428133,15.842566],[-16.426822,15.845827],[-16.426535,15.847072],[-16.424891,15.848534],[-16.424908,15.846622]],[[-16.467041,15.807488],[-16.467165,15.806846],[-16.466869,15.806796],[-16.466906,15.806349],[-16.466284,15.806257],[-16.46613,15.807222],[-16.467041,15.807488]]]}}]}