{"type":"FeatureCollection","name":"habitat-zpe.geojson","features":[{"type":"Feature","properties":{"categorie":"Dune"},"geometry":{"type":"Polygon","coordinates":[[[-16.503358,15.788431],[-16.503393,15.788493],[-16.503454,15.788598],[-16.503522,15.788705],[-16.503585,15.788794],[-16.503624,15.788843],[-16.503663,15.788887],[-16.503702,15.788926],[-16.503742,15.788961],[-16.503782,15.788992],[-16.503823,15.789019],[-16.503865,15.789042],[-16.503907,15.789061],[-16.503991,15.78909],[-16.504083,15.789117],[-16.50418,15.78914],[-16.504281,15.78916],[-16.504384,15.789175],[-16.504488,15.789186],[-16.504591,15.789192],[-16.504691,15.789194],[-16.504787,15.789191],[-16.504878,15.789184],[-16.504965,15.789172],[-16.505046,15.789156],[-16.505121,15.789136],[-16.50519,15.789111],[-16.505252,15.789083],[-16.505307,15.789051],[-16.505346,15.789022],[-16.505382,15.788987],[-16.505417,15.788947],[-16.505449,15.7889],[-16.50548,15.788847],[-16.505504,15.788798],[-16.513768,15.790214],[-16.513454,15.790658],[-16.513395,15.790618],[-16.513332,15.79058],[-16.513267,15.790545],[-16.5132,15.790513],[-16.513133,15.790486],[-16.513067,15.790463],[-16.513004,15.790445],[-16.512945,15.790433],[-16.512897,15.790427],[-16.512847,15.790426],[-16.512794,15.790428],[-16.512739,15.790435],[-16.512681,15.790446],[-16.512621,15.790461],[-16.512559,15.790481],[-16.512495,15.790504],[-16.512428,15.790532],[-16.512359,15.790563],[-16.512289,15.790599],[-16.512216,15.790638],[-16.512141,15.790682],[-16.512065,15.790729],[-16.511988,15.79078],[-16.51191,15.790834],[-16.511842,15.790886],[-16.511773,15.790943],[-16.511706,15.791005],[-16.511639,15.791072],[-16.511574,15.791143],[-16.511511,15.791218],[-16.51145,15.791296],[-16.511392,15.791377],[-16.511337,15.791461],[-16.511285,15.791546],[-16.511237,15.791633],[-16.511194,15.79172],[-16.511155,15.791807],[-16.51112,15.791893],[-16.511091,15.791977],[-16.511067,15.79206],[-16.511055,15.792113],[-16.511044,15.792168],[-16.511035,15.792225],[-16.511028,15.792284],[-16.511022,15.792344],[-16.511019,15.792405],[-16.511018,15.792468],[-16.511018,15.792532],[-16.511021,15.792597],[-16.511025,15.792663],[-16.51104,15.792797],[-16.511062,15.792933],[-16.511091,15.79307],[-16.511128,15.793207],[-16.511171,15.793341],[-16.51122,15.793472],[-16.511276,15.793598],[-16.511336,15.793718],[-16.511368,15.793775],[-16.511401,15.79383],[-16.511435,15.793883],[-16.51147,15.793934],[-16.511505,15.793983],[-16.511542,15.794029],[-16.511547,15.79471],[-16.511567,15.794918],[-16.511606,15.795044],[-16.511767,15.795405],[-16.511461,15.795696],[-16.5111,15.796142],[-16.510954,15.79629],[-16.510893,15.796218],[-16.510837,15.796156],[-16.510782,15.796101],[-16.510729,15.796053],[-16.510676,15.79601],[-16.510623,15.795972],[-16.510569,15.795939],[-16.510515,15.79591],[-16.51042,15.795868],[-16.51032,15.795831],[-16.510216,15.795798],[-16.510112,15.79577],[-16.51001,15.795749],[-16.50991,15.795734],[-16.509814,15.795726],[-16.509723,15.795724],[-16.50966,15.795728],[-16.509652,15.795728],[-16.509645,15.795729],[-16.509582,15.795738],[-16.50958,15.795738],[-16.509575,15.795739],[-16.509515,15.795751],[-16.509506,15.795753],[-16.5095,15.795755],[-16.509434,15.795772],[-16.509431,15.795773],[-16.509423,15.795776],[-16.509363,15.795796],[-16.509354,15.795799],[-16.509349,15.795801],[-16.509276,15.79583],[-16.509275,15.795831],[-16.509275,15.795831],[-16.509201,15.795865],[-16.509195,15.795868],[-16.509177,15.795877],[-16.509125,15.795904],[-16.509113,15.79591],[-16.509097,15.795919],[-16.50905,15.795946],[-16.50903,15.795958],[-16.509013,15.795968],[-16.508968,15.795997],[-16.508945,15.796011],[-16.508931,15.796021],[-16.508884,15.796053],[-16.508859,15.79607],[-16.508846,15.796079],[-16.508798,15.796114],[-16.508771,15.796134],[-16.50876,15.796142],[-16.50871,15.796181],[-16.508681,15.796204],[-16.508673,15.79621],[-16.508619,15.796255],[-16.508588,15.79628],[-16.508583,15.796284],[-16.508521,15.796338],[-16.508494,15.796362],[-16.508491,15.796364],[-16.508395,15.796451],[-16.508348,15.796496],[-16.508301,15.796544],[-16.508256,15.796595],[-16.50821,15.796649],[-16.508166,15.796706],[-16.508121,15.796766],[-16.508077,15.79683],[-16.508032,15.796898],[-16.507954,15.797025],[-16.507871,15.797172],[-16.507795,15.797313],[-16.507632,15.797623],[-16.507565,15.797748],[-16.507516,15.797837],[-16.507468,15.797932],[-16.507419,15.798031],[-16.507369,15.798138],[-16.507271,15.798357],[-16.507085,15.798794],[-16.507005,15.798976],[-16.506918,15.799164],[-16.506835,15.799331],[-16.506587,15.799812],[-16.5065,15.799975],[-16.50642,15.800121],[-16.506337,15.800264],[-16.506257,15.800398],[-16.506177,15.800523],[-16.506098,15.800642],[-16.506047,15.800714],[-16.505991,15.800789],[-16.505866,15.800949],[-16.505739,15.801101],[-16.505412,15.801483],[-16.505321,15.801593],[-16.505241,15.801694],[-16.505197,15.801754],[-16.505149,15.801827],[-16.505096,15.801915],[-16.504939,15.802179],[-16.50489,15.802256],[-16.504846,15.802318],[-16.50482,15.802352],[-16.504795,15.802381],[-16.504771,15.802406],[-16.504748,15.802428],[-16.504725,15.802445],[-16.504703,15.802459],[-16.504682,15.802469],[-16.504661,15.802475],[-16.504642,15.802477],[-16.504623,15.802477],[-16.504603,15.802474],[-16.504583,15.802469],[-16.504562,15.802461],[-16.504541,15.80245],[-16.504519,15.802436],[-16.504497,15.80242],[-16.504452,15.80238],[-16.504405,15.802329],[-16.504356,15.802268],[-16.504306,15.802197],[-16.504254,15.802114],[-16.504201,15.802021],[-16.504148,15.801919],[-16.504095,15.80181],[-16.504043,15.801693],[-16.503994,15.801574],[-16.50395,15.801456],[-16.503911,15.801344],[-16.5039,15.801305],[-16.503891,15.80126],[-16.503867,15.801099],[-16.503855,15.801037],[-16.503838,15.800977],[-16.503827,15.800951],[-16.503816,15.800926],[-16.503779,15.800867],[-16.503736,15.800807],[-16.503685,15.80075],[-16.503629,15.800697],[-16.50357,15.800648],[-16.503507,15.800605],[-16.503444,15.800569],[-16.503381,15.800541],[-16.503328,15.800521],[-16.503281,15.800506],[-16.503237,15.800494],[-16.503198,15.800485],[-16.503161,15.80048],[-16.503128,15.800477],[-16.503098,15.800479],[-16.503071,15.800483],[-16.503053,15.800489],[-16.503034,15.800498],[-16.503015,15.800508],[-16.502996,15.800522],[-16.502959,15.800556],[-16.502922,15.800599],[-16.502885,15.800652],[-16.502851,15.800713],[-16.50282,15.800779],[-16.502796,15.800844],[-16.502789,15.800872],[-16.502784,15.800901],[-16.502782,15.800932],[-16.502783,15.800963],[-16.502787,15.800996],[-16.502794,15.80103],[-16.502804,15.801066],[-16.502817,15.801104],[-16.502841,15.801165],[-16.502874,15.801232],[-16.502912,15.801304],[-16.503024,15.801505],[-16.503055,15.801565],[-16.50308,15.801619],[-16.503135,15.801747],[-16.503191,15.801872],[-16.503248,15.801995],[-16.503306,15.802116],[-16.503365,15.802234],[-16.503426,15.802349],[-16.503487,15.802462],[-16.50355,15.802572],[-16.503574,15.802611],[-16.503601,15.802651],[-16.503631,15.802692],[-16.503666,15.802736],[-16.50374,15.802822],[-16.503892,15.802988],[-16.503953,15.803057],[-16.504013,15.803129],[-16.504061,15.803196],[-16.504086,15.803235],[-16.504108,15.803274],[-16.504127,15.803312],[-16.504143,15.803349],[-16.504155,15.803386],[-16.504165,15.803422],[-16.504171,15.803459],[-16.504174,15.803495],[-16.504175,15.803551],[-16.50417,15.803611],[-16.504162,15.803675],[-16.504149,15.803741],[-16.504132,15.803811],[-16.50411,15.803884],[-16.504084,15.803958],[-16.504055,15.804034],[-16.504041,15.804063],[-16.504024,15.804094],[-16.504003,15.804126],[-16.503978,15.804159],[-16.503927,15.804222],[-16.503798,15.804366],[-16.503768,15.804404],[-16.503743,15.804438],[-16.50372,15.804475],[-16.503704,15.804509],[-16.503693,15.804542],[-16.503688,15.804574],[-16.503688,15.804597],[-16.503691,15.804619],[-16.503697,15.804642],[-16.503706,15.804665],[-16.503718,15.804688],[-16.503733,15.804711],[-16.50375,15.804735],[-16.503771,15.80476],[-16.503814,15.804802],[-16.503867,15.804849],[-16.503925,15.804895],[-16.504091,15.805022],[-16.504139,15.805062],[-16.50418,15.805098],[-16.504222,15.805139],[-16.504258,15.805179],[-16.504287,15.805219],[-16.504311,15.805257],[-16.504386,15.8054],[-16.504432,15.80549],[-16.504469,15.805572],[-16.504496,15.805642],[-16.504513,15.805704],[-16.504518,15.805731],[-16.504519,15.805755],[-16.504519,15.805776],[-16.504515,15.805795],[-16.504509,15.805811],[-16.5045,15.805824],[-16.504484,15.805837],[-16.504461,15.805847],[-16.504431,15.805853],[-16.504394,15.805855],[-16.504358,15.805854],[-16.504315,15.805851],[-16.504142,15.80583],[-16.50407,15.805824],[-16.504,15.805822],[-16.503971,15.805824],[-16.503944,15.805828],[-16.503876,15.805843],[-16.503807,15.805866],[-16.503736,15.805897],[-16.503663,15.805936],[-16.503598,15.805975],[-16.503528,15.806022],[-16.503284,15.806198],[-16.503187,15.806265],[-16.503135,15.806297],[-16.503086,15.806326],[-16.503038,15.806351],[-16.502991,15.806372],[-16.502945,15.806391],[-16.502897,15.806409],[-16.502788,15.806443],[-16.50268,15.806471],[-16.502414,15.806535],[-16.502342,15.806555],[-16.502277,15.806574],[-16.502209,15.806597],[-16.502147,15.806622],[-16.50209,15.806649],[-16.502037,15.806678],[-16.501885,15.806766],[-16.501803,15.806816],[-16.501728,15.806865],[-16.501665,15.806912],[-16.501611,15.806961],[-16.501588,15.806984],[-16.501568,15.807008],[-16.50155,15.807031],[-16.501536,15.807054],[-16.501524,15.807077],[-16.501515,15.8071],[-16.501508,15.807125],[-16.501504,15.807151],[-16.501503,15.807179],[-16.501504,15.807208],[-16.501508,15.807239],[-16.501515,15.807271],[-16.501525,15.807305],[-16.501537,15.807342],[-16.501563,15.807404],[-16.501597,15.807475],[-16.501636,15.807547],[-16.501735,15.807727],[-16.501783,15.807821],[-16.501778,15.807885],[-16.501777,15.807955],[-16.501781,15.808031],[-16.501788,15.808115],[-16.501798,15.808189],[-16.501811,15.808273],[-16.501876,15.808654],[-16.501889,15.80875],[-16.501899,15.808836],[-16.501904,15.808917],[-16.501905,15.808991],[-16.501902,15.809061],[-16.501895,15.809125],[-16.501877,15.809281],[-16.501847,15.809624],[-16.501831,15.809774],[-16.50182,15.809854],[-16.501808,15.809927],[-16.501795,15.809996],[-16.501779,15.810059],[-16.501759,15.810129],[-16.501737,15.810194],[-16.501711,15.810255],[-16.501683,15.81031],[-16.501652,15.810362],[-16.501618,15.810409],[-16.501581,15.810451],[-16.501541,15.81049],[-16.501464,15.810554],[-16.501384,15.810613],[-16.501305,15.810665],[-16.501229,15.810708],[-16.501158,15.810742],[-16.501125,15.810755],[-16.501093,15.810765],[-16.501063,15.810773],[-16.501034,15.810778],[-16.501007,15.810781],[-16.500981,15.810782],[-16.50095,15.810778],[-16.500918,15.810771],[-16.500886,15.810759],[-16.500854,15.810742],[-16.500821,15.810721],[-16.500788,15.810696],[-16.500754,15.810666],[-16.500719,15.810631],[-16.500686,15.810595],[-16.500652,15.810554],[-16.500581,15.810458],[-16.500511,15.810355],[-16.500376,15.810143],[-16.500337,15.810082],[-16.500302,15.810017],[-16.500268,15.809949],[-16.500237,15.809877],[-16.500209,15.809803],[-16.500183,15.809724],[-16.500158,15.809641],[-16.500136,15.809553],[-16.500118,15.809471],[-16.500101,15.809384],[-16.500085,15.809291],[-16.50007,15.80919],[-16.500047,15.809013],[-16.500008,15.808662],[-16.49999,15.808519],[-16.499982,15.808431],[-16.499977,15.808338],[-16.499978,15.808238],[-16.499983,15.808131],[-16.499992,15.808033],[-16.500004,15.807923],[-16.500055,15.807535],[-16.500073,15.807384],[-16.500085,15.807229],[-16.500088,15.80716],[-16.500088,15.807093],[-16.500086,15.807016],[-16.500081,15.806943],[-16.500072,15.806873],[-16.500059,15.806807],[-16.500044,15.806743],[-16.500025,15.806682],[-16.500002,15.806623],[-16.499976,15.806567],[-16.499896,15.806417],[-16.499821,15.806288],[-16.499784,15.80623],[-16.499747,15.806175],[-16.499711,15.806125],[-16.499674,15.806078],[-16.499638,15.806035],[-16.499602,15.805996],[-16.499566,15.805961],[-16.49953,15.805929],[-16.499494,15.805902],[-16.499459,15.805878],[-16.499424,15.805859],[-16.499388,15.805843],[-16.499362,15.805834],[-16.499334,15.805828],[-16.499305,15.805825],[-16.499273,15.805825],[-16.499239,15.805827],[-16.499203,15.805832],[-16.499165,15.80584],[-16.499125,15.805851],[-16.499051,15.805876],[-16.498966,15.805909],[-16.498881,15.805947],[-16.498673,15.806043],[-16.498567,15.806087],[-16.498513,15.806107],[-16.498465,15.806121],[-16.498421,15.806131],[-16.498381,15.806137],[-16.498349,15.806138],[-16.49832,15.806136],[-16.498293,15.806131],[-16.498269,15.806123],[-16.498246,15.806111],[-16.498223,15.806094],[-16.498202,15.806073],[-16.498182,15.806047],[-16.498162,15.806016],[-16.498143,15.805981],[-16.498125,15.805941],[-16.498108,15.805896],[-16.498092,15.805847],[-16.498077,15.805794],[-16.498048,15.805671],[-16.498022,15.805527],[-16.497997,15.805352],[-16.498108,15.805143],[-16.4982,15.805034],[-16.498321,15.804961],[-16.498609,15.804814],[-16.498693,15.80475],[-16.498739,15.804687],[-16.498767,15.804605],[-16.498775,15.804515],[-16.498756,15.804442],[-16.498718,15.804389],[-16.498615,15.80429],[-16.498277,15.804093],[-16.498137,15.803977],[-16.498023,15.803815],[-16.497909,15.803554],[-16.497871,15.8034],[-16.497851,15.803192],[-16.497873,15.802415],[-16.497842,15.802054],[-16.497804,15.801873],[-16.497819,15.801726],[-16.497841,15.801573],[-16.497869,15.801415],[-16.497903,15.801251],[-16.497943,15.80108],[-16.49799,15.8009],[-16.498045,15.800706],[-16.498111,15.800488],[-16.49815,15.800357],[-16.498239,15.80005],[-16.498282,15.799909],[-16.498335,15.799749],[-16.498388,15.799609],[-16.498419,15.799537],[-16.49845,15.799469],[-16.498482,15.799404],[-16.498515,15.799343],[-16.49855,15.799285],[-16.498586,15.79923],[-16.498623,15.799178],[-16.498661,15.799129],[-16.498686,15.7991],[-16.498714,15.799072],[-16.498744,15.799044],[-16.498778,15.799017],[-16.498814,15.79899],[-16.498853,15.798964],[-16.49894,15.798912],[-16.499022,15.798869],[-16.499118,15.798823],[-16.499439,15.798685],[-16.49955,15.798635],[-16.499652,15.798583],[-16.499696,15.798558],[-16.499737,15.798533],[-16.499779,15.798504],[-16.499816,15.798475],[-16.49985,15.798446],[-16.49988,15.798416],[-16.499906,15.798385],[-16.499928,15.798354],[-16.499947,15.798322],[-16.499962,15.798288],[-16.499974,15.798253],[-16.499983,15.798216],[-16.499989,15.798177],[-16.499992,15.798136],[-16.499992,15.798093],[-16.499989,15.798047],[-16.499984,15.797999],[-16.499975,15.797948],[-16.499954,15.797857],[-16.499924,15.797754],[-16.49989,15.797651],[-16.499795,15.797378],[-16.49977,15.797298],[-16.499749,15.797227],[-16.499729,15.797148],[-16.499714,15.797076],[-16.499705,15.797008],[-16.4997,15.796944],[-16.499698,15.796869],[-16.4997,15.796792],[-16.499704,15.796711],[-16.499712,15.796624],[-16.499722,15.796539],[-16.499735,15.796444],[-16.499795,15.796078],[-16.499817,15.795923],[-16.499827,15.795839],[-16.499833,15.79576],[-16.499838,15.795685],[-16.499839,15.795614],[-16.499839,15.795538],[-16.499836,15.795459],[-16.499824,15.795287],[-16.499805,15.795107],[-16.499763,15.79477],[-16.499749,15.79465],[-16.499739,15.794546],[-16.499732,15.794449],[-16.499727,15.794358],[-16.49972,15.794092],[-16.499718,15.793843],[-16.499721,15.793607],[-16.499729,15.793382],[-16.499737,15.793277],[-16.499747,15.793168],[-16.499762,15.793053],[-16.499781,15.792929],[-16.499821,15.792704],[-16.499923,15.792186],[-16.499946,15.792057],[-16.499964,15.791939],[-16.49998,15.791829],[-16.499991,15.791725],[-16.5,15.791624],[-16.500005,15.791528],[-16.500013,15.791281],[-16.500014,15.791075],[-16.50001,15.790887],[-16.499999,15.790714],[-16.499991,15.790648],[-16.499978,15.790574],[-16.49996,15.790493],[-16.499936,15.790403],[-16.49991,15.790318],[-16.499879,15.790221],[-16.49977,15.789901],[-16.499734,15.789791],[-16.499703,15.789684],[-16.499681,15.789597],[-16.499672,15.789549],[-16.499667,15.789507],[-16.499665,15.789471],[-16.499666,15.789439],[-16.499672,15.789412],[-16.499681,15.78939],[-16.499693,15.789373],[-16.499715,15.789358],[-16.499736,15.789354],[-16.499753,15.789355],[-16.499771,15.789359],[-16.499792,15.789366],[-16.499815,15.789376],[-16.499868,15.789405],[-16.499917,15.789437],[-16.499976,15.789478],[-16.50022,15.789664],[-16.50033,15.789744],[-16.500387,15.789782],[-16.500439,15.789815],[-16.500489,15.789843],[-16.500535,15.789867],[-16.500581,15.789887],[-16.500625,15.789903],[-16.500666,15.789913],[-16.500704,15.789919],[-16.50074,15.78992],[-16.500773,15.789917],[-16.500804,15.789908],[-16.500833,15.789895],[-16.500863,15.789877],[-16.500894,15.789854],[-16.500927,15.789826],[-16.500961,15.789794],[-16.500996,15.789758],[-16.501033,15.789718],[-16.501111,15.789622],[-16.501138,15.789584],[-16.50116,15.789543],[-16.501179,15.789499],[-16.501193,15.789452],[-16.501204,15.789401],[-16.501211,15.789347],[-16.501214,15.789289],[-16.501213,15.789228],[-16.501208,15.78916],[-16.5012,15.789088],[-16.501186,15.789011],[-16.501169,15.788927],[-16.50115,15.788845],[-16.501126,15.788754],[-16.501034,15.788434],[-16.501002,15.788312],[-16.500974,15.78819],[-16.500964,15.788137],[-16.500957,15.788088],[-16.500951,15.788029],[-16.500951,15.788019],[-16.503358,15.788431]]]}}]}