{"type":"FeatureCollection","name":"habitat-zape.geojson","features":[{"type":"Feature","properties":{"categorie":"Plaine inondable"},"geometry":{"type":"Polygon","coordinates":[[[-16.505504,15.788798],[-16.505121,15.789136],[-16.504281,15.78916],[-16.503742,15.788961],[-16.503358,15.788431],[-16.505504,15.788798]]]}},{"type":"Feature","properties":{"categorie":"Plaine inondable"},"geometry":{"type":"Polygon","coordinates":[[[-16.494495,15.786912],[-16.494585,15.787311],[-16.495215,15.787921],[-16.495204,15.788791],[-16.49489,15.789597],[-16.495221,15.789806],[-16.495863,15.78975],[-16.49643,15.78923],[-16.497075,15.787354],[-16.498446,15.787589],[-16.498127,15.788286],[-16.497261,15.789176],[-16.496688,15.790027],[-16.496252,15.791547],[-16.495929,15.792135],[-16.495427,15.792637],[-16.494806,15.79278],[-16.49426,15.792709],[-16.494061,15.79249],[-16.49412,15.791479],[-16.493666,15.790119],[-16.493617,15.788229],[-16.493456,15.787704],[-16.493594,15.786758],[-16.494495,15.786912]]]}},{"type":"Feature","properties":{"categorie":"Plaine inondable"},"geometry":{"type":"Polygon","coordinates":[[[-16.487223,15.805037],[-16.487896,15.800134],[-16.48845,15.79928],[-16.489159,15.7967],[-16.489108,15.79604],[-16.488593,15.794571],[-16.488726,15.793666],[-16.489366,15.793029],[-16.489457,15.792694],[-16.491074,15.79308],[-16.491149,15.795574],[-16.49147,15.79738],[-16.49033,15.798499],[-16.490091,15.800299],[-16.490483,15.801607],[-16.490092,15.801764],[-16.489941,15.802714],[-16.489323,15.803766],[-16.48758,15.805441],[-16.487223,15.805037]]]}},{"type":"Feature","properties":{"categorie":"Plaine inondable"},"geometry":{"type":"Polygon","coordinates":[[[-16.491364,15.804593],[-16.491599,15.80348],[-16.491617,15.802124],[-16.493184,15.800793],[-16.492471,15.800274],[-16.492194,15.799426],[-16.492275,15.798983],[-16.493488,15.7977],[-16.493946,15.797742],[-16.495024,15.798359],[-16.495276,15.798384],[-16.495776,15.798063],[-16.496441,15.798069],[-16.496672,15.79741],[-16.497419,15.796312],[-16.497576,15.79575],[-16.497561,15.795423],[-16.497116,15.794977],[-16.496928,15.794513],[-16.497428,15.793877],[-16.498216,15.793239],[-16.49884,15.793054],[-16.499607,15.793248],[-16.499729,15.793382],[-16.499839,15.795538],[-16.4997,15.796944],[-16.499983,15.798216],[-16.499779,15.798504],[-16.498853,15.798964],[-16.498515,15.799343],[-16.497804,15.801873],[-16.497909,15.803554],[-16.498137,15.803977],[-16.498718,15.804389],[-16.498739,15.804687],[-16.4982,15.805034],[-16.498022,15.805527],[-16.497996,15.805353],[-16.497737,15.805525],[-16.497559,15.805454],[-16.496967,15.804834],[-16.496377,15.804685],[-16.49607,15.804795],[-16.495759,15.808187],[-16.495325,15.808759],[-16.494645,15.808972],[-16.493157,15.808539],[-16.492114,15.807516],[-16.491534,15.806182],[-16.491364,15.804593]]]}},{"type":"Feature","properties":{"categorie":"Plaine inondable"},"geometry":{"type":"Polygon","coordinates":[[[-16.467331,15.837564],[-16.467358,15.836163],[-16.467155,15.835107],[-16.467431,15.834635],[-16.467407,15.833786],[-16.467686,15.832392],[-16.468366,15.830933],[-16.468509,15.830064],[-16.46817,15.82825],[-16.467888,15.828053],[-16.467385,15.828201],[-16.468249,15.826369],[-16.46842,15.826775],[-16.469666,15.827372],[-16.470016,15.827939],[-16.469464,15.830401],[-16.468341,15.832632],[-16.468227,15.833546],[-16.468438,15.834457],[-16.469266,15.835301],[-16.469725,15.835506],[-16.470266,15.835466],[-16.470769,15.835218],[-16.471472,15.834373],[-16.474155,15.829637],[-16.474663,15.827699],[-16.474927,15.825474],[-16.47567,15.823671],[-16.475629,15.823111],[-16.47523,15.822092],[-16.475244,15.821514],[-16.475565,15.820716],[-16.476175,15.819898],[-16.477669,15.818668],[-16.478277,15.818791],[-16.478654,15.819258],[-16.478687,15.819927],[-16.478413,15.820778],[-16.478013,15.821043],[-16.477295,15.821075],[-16.477092,15.821402],[-16.477545,15.823459],[-16.477408,15.825105],[-16.477655,15.825682],[-16.478134,15.826049],[-16.478554,15.826137],[-16.478852,15.825963],[-16.480121,15.824616],[-16.481662,15.823422],[-16.482078,15.822823],[-16.482184,15.822054],[-16.481651,15.819265],[-16.480726,15.817879],[-16.481285,15.816483],[-16.481427,15.815425],[-16.48119,15.815002],[-16.48043,15.814492],[-16.480062,15.813907],[-16.479481,15.813604],[-16.479516,15.812022],[-16.480418,15.81028],[-16.481342,15.80768],[-16.482601,15.804978],[-16.48378,15.800234],[-16.484293,15.798821],[-16.485481,15.796625],[-16.485937,15.795104],[-16.48628,15.794812],[-16.486981,15.794934],[-16.487442,15.795437],[-16.48754,15.796069],[-16.486895,15.79723],[-16.486913,15.798459],[-16.486699,15.799771],[-16.486311,15.800334],[-16.484974,15.801311],[-16.484069,15.802672],[-16.481428,15.81049],[-16.481422,15.810996],[-16.481792,15.811798],[-16.482697,15.812931],[-16.482374,15.814714],[-16.482876,15.815759],[-16.482822,15.816057],[-16.481631,15.817864],[-16.481838,15.81807],[-16.483032,15.81799],[-16.483429,15.818611],[-16.483747,15.818663],[-16.484639,15.818123],[-16.485378,15.816989],[-16.48618,15.814362],[-16.486105,15.813007],[-16.485688,15.812196],[-16.484281,15.811284],[-16.483998,15.810852],[-16.48412,15.811014],[-16.484342,15.810705],[-16.485355,15.810048],[-16.48612,15.809943],[-16.48684,15.8102],[-16.487264,15.810749],[-16.488499,15.811066],[-16.489746,15.80934],[-16.490297,15.81052],[-16.490663,15.810906],[-16.491141,15.811056],[-16.492185,15.810841],[-16.492484,15.810993],[-16.492626,15.811227],[-16.492554,15.81158],[-16.491453,15.812898],[-16.490803,15.814692],[-16.490579,15.81717],[-16.491132,15.818784],[-16.491145,15.819236],[-16.488676,15.823754],[-16.488578,15.824486],[-16.488818,15.82537],[-16.488825,15.826301],[-16.488566,15.826583],[-16.487783,15.826787],[-16.487259,15.82783],[-16.48608,15.828796],[-16.48451,15.83113],[-16.484211,15.832379],[-16.483895,15.832553],[-16.482522,15.832572],[-16.482104,15.832746],[-16.481617,15.833861],[-16.480353,15.835949],[-16.479627,15.83627],[-16.479383,15.836109],[-16.479428,15.835828],[-16.480666,15.834012],[-16.481587,15.832262],[-16.48197,15.831066],[-16.481881,15.830416],[-16.481457,15.829786],[-16.480989,15.829708],[-16.480394,15.830065],[-16.479723,15.831542],[-16.477524,15.83463],[-16.477321,15.836222],[-16.476673,15.837058],[-16.476437,15.837946],[-16.475722,15.83852],[-16.475794,15.839369],[-16.47562,15.839885],[-16.47393,15.841108],[-16.473502,15.841282],[-16.473267,15.841121],[-16.4739,15.838261],[-16.473512,15.837523],[-16.473147,15.837462],[-16.472822,15.837645],[-16.472307,15.838751],[-16.471313,15.839454],[-16.470834,15.840379],[-16.470443,15.840589],[-16.470126,15.840546],[-16.469993,15.84033],[-16.47041,15.838484],[-16.470313,15.838032],[-16.470022,15.83779],[-16.469639,15.83773],[-16.468614,15.838098],[-16.466452,15.842487],[-16.466326,15.843175],[-16.466663,15.844637],[-16.466442,15.845045],[-16.465997,15.845391],[-16.465688,15.843984],[-16.465195,15.842966],[-16.465162,15.842315],[-16.465446,15.8415],[-16.466794,15.839466],[-16.467331,15.837564]]]}},{"type":"Feature","properties":{"categorie":"Savane"},"geometry":{"type":"Polygon","coordinates":[[[-16.493068,15.835735],[-16.493728,15.834826],[-16.495361,15.834062],[-16.495814,15.833704],[-16.496109,15.832911],[-16.495957,15.831667],[-16.497347,15.830319],[-16.497644,15.829225],[-16.497004,15.82779],[-16.497001,15.827342],[-16.498235,15.825587],[-16.499083,15.823535],[-16.499883,15.822061],[-16.499984,15.820572],[-16.500303,15.819881],[-16.50043,15.819044],[-16.500846,15.818329],[-16.501155,15.816566],[-16.503225,15.814023],[-16.504369,15.813415],[-16.50673,15.812606],[-16.508326,15.810618],[-16.509703,15.809954],[-16.510341,15.8094],[-16.510525,15.808801],[-16.509881,15.806964],[-16.510154,15.805664],[-16.510507,15.804969],[-16.510676,15.804073],[-16.511739,15.801162],[-16.512592,15.800036],[-16.512828,15.79902],[-16.514873,15.796188],[-16.51536,15.795167],[-16.517339,15.793216],[-16.517777,15.792967],[-16.518427,15.792987],[-16.517929,15.795624],[-16.515904,15.798187],[-16.515455,15.799238],[-16.515453,15.800232],[-16.516307,15.802888],[-16.514693,15.803866],[-16.512855,15.805931],[-16.513048,15.808885],[-16.513325,15.810363],[-16.512913,15.8117],[-16.513057,15.812539],[-16.511981,15.813911],[-16.511095,15.814226],[-16.510747,15.814702],[-16.510514,15.816807],[-16.510573,15.819382],[-16.510401,15.820182],[-16.510041,15.820729],[-16.508515,15.822015],[-16.507122,15.82233],[-16.506881,15.822955],[-16.505993,15.823983],[-16.50584,15.825405],[-16.50472,15.825958],[-16.505257,15.826839],[-16.504715,15.827044],[-16.504473,15.827685],[-16.503918,15.828375],[-16.503924,15.829189],[-16.503634,15.830728],[-16.504245,15.83141],[-16.504502,15.833037],[-16.503923,15.83388],[-16.503573,15.835629],[-16.503297,15.836114],[-16.503026,15.83628],[-16.502576,15.836248],[-16.502021,15.835734],[-16.501831,15.835954],[-16.501743,15.837281],[-16.501446,15.838438],[-16.5018,15.839073],[-16.501816,15.839676],[-16.501514,15.840296],[-16.500686,15.840813],[-16.500933,15.8419],[-16.500248,15.843494],[-16.500086,15.845538],[-16.49969,15.846318],[-16.498217,15.847873],[-16.497834,15.84906],[-16.497951,15.851066],[-16.49929,15.855376],[-16.499346,15.856578],[-16.499129,15.857556],[-16.498216,15.859071],[-16.495989,15.861021],[-16.494537,15.862866],[-16.493897,15.863403],[-16.493263,15.863579],[-16.49272,15.863429],[-16.492326,15.863116],[-16.490892,15.861119],[-16.493031,15.856143],[-16.493345,15.854459],[-16.493583,15.843667],[-16.493342,15.843455],[-16.493784,15.843034],[-16.493684,15.841698],[-16.493889,15.84105],[-16.493319,15.840421],[-16.49315,15.840005],[-16.493222,15.839589],[-16.493584,15.83911],[-16.493068,15.835735]]]}},{"type":"Feature","properties":{"categorie":"Mangrove"},"geometry":{"type":"Polygon","coordinates":[[[-16.491006,15.923552],[-16.490168,15.923919],[-16.490429,15.922616],[-16.490165,15.918461],[-16.489869,15.916239],[-16.49018,15.912803],[-16.489842,15.908865],[-16.490105,15.907742],[-16.491374,15.905058],[-16.492683,15.900768],[-16.493445,15.899557],[-16.49416,15.899164],[-16.494657,15.899459],[-16.494782,15.899856],[-16.493952,15.902555],[-16.493855,15.903378],[-16.494052,15.904705],[-16.494482,15.906103],[-16.494177,15.907795],[-16.494833,15.909372],[-16.495175,15.912615],[-16.49518,15.914612],[-16.494947,15.915879],[-16.494616,15.916631],[-16.493237,15.918376],[-16.492971,15.919029],[-16.492988,15.920014],[-16.493542,15.92161],[-16.493137,15.921251],[-16.492782,15.921253],[-16.49256,15.921481],[-16.49322,15.922398],[-16.493308,15.922813],[-16.493171,15.923221],[-16.491777,15.924198],[-16.491306,15.923631],[-16.491006,15.923552]]]}},{"type":"Feature","properties":{"categorie":"Mangrove"},"geometry":{"type":"Polygon","coordinates":[[[-16.486342,15.924611],[-16.486434,15.924158],[-16.485647,15.924159],[-16.485711,15.923687],[-16.486557,15.923016],[-16.487578,15.922969],[-16.487719,15.922777],[-16.48727,15.922492],[-16.486771,15.92173],[-16.487054,15.920483],[-16.486522,15.920126],[-16.486355,15.919141],[-16.486862,15.918581],[-16.486215,15.91838],[-16.486274,15.917249],[-16.486062,15.917181],[-16.484939,15.917736],[-16.485259,15.918004],[-16.485138,15.918339],[-16.484736,15.918335],[-16.484434,15.918065],[-16.484964,15.914304],[-16.485166,15.913813],[-16.48553,15.914536],[-16.485423,15.916026],[-16.485523,15.916503],[-16.485822,15.916646],[-16.486257,15.916461],[-16.486679,15.916709],[-16.487345,15.916703],[-16.487552,15.916836],[-16.487378,15.918159],[-16.487798,15.919235],[-16.487222,15.919289],[-16.48713,15.919516],[-16.488242,15.920139],[-16.488489,15.921532],[-16.488114,15.921693],[-16.488888,15.922515],[-16.489189,15.923183],[-16.488948,15.923998],[-16.488165,15.925166],[-16.487902,15.925074],[-16.487641,15.924623],[-16.487462,15.924651],[-16.487026,15.925188],[-16.486342,15.924611]]]}},{"type":"Feature","properties":{"categorie":"Mangrove"},"geometry":{"type":"Polygon","coordinates":[[[-16.503565,15.927512],[-16.503598,15.926555],[-16.503328,15.927456],[-16.503633,15.92864],[-16.50303,15.929036],[-16.502912,15.930013],[-16.502656,15.930195],[-16.502976,15.926751],[-16.502949,15.92512],[-16.503341,15.924429],[-16.502983,15.922735],[-16.503383,15.922235],[-16.503439,15.921763],[-16.503629,15.921558],[-16.503943,15.921781],[-16.504078,15.92305],[-16.504505,15.924505],[-16.503957,15.925657],[-16.504294,15.928078],[-16.504051,15.930046],[-16.504111,15.931134],[-16.503878,15.931039],[-16.503751,15.929854],[-16.504029,15.928666],[-16.503976,15.928198],[-16.503565,15.927512]]]}},{"type":"Feature","properties":{"categorie":"Mangrove"},"geometry":{"type":"Polygon","coordinates":[[[-16.476702,15.935806],[-16.477232,15.936734],[-16.476921,15.937567],[-16.476654,15.937126],[-16.476702,15.935806]]]}},{"type":"Feature","properties":{"categorie":"Mangrove"},"geometry":{"type":"Polygon","coordinates":[[[-16.474744,15.932751],[-16.475075,15.932962],[-16.476468,15.933205],[-16.477069,15.933608],[-16.477814,15.934624],[-16.477642,15.935339],[-16.477354,15.935522],[-16.476868,15.93548],[-16.476702,15.935806],[-16.476577,15.935337],[-16.475315,15.935138],[-16.474877,15.935268],[-16.47418,15.935878],[-16.474744,15.932751]]]}},{"type":"Feature","properties":{"categorie":"Mangrove"},"geometry":{"type":"Polygon","coordinates":[[[-16.482683,15.936974],[-16.484606,15.939774],[-16.484452,15.940516],[-16.48348,15.941626],[-16.483251,15.942628],[-16.4828,15.942203],[-16.482262,15.940721],[-16.482327,15.93953],[-16.482127,15.937185],[-16.482683,15.936974]]]}},{"type":"Feature","properties":{"categorie":"Mangrove"},"geometry":{"type":"Polygon","coordinates":[[[-16.501356,15.941956],[-16.501268,15.942036],[-16.501184,15.941727],[-16.501564,15.940979],[-16.50162,15.94051],[-16.502065,15.940507],[-16.502493,15.940915],[-16.502718,15.942735],[-16.501356,15.941956]]]}},{"type":"Feature","properties":{"categorie":"Mangrove"},"geometry":{"type":"Polygon","coordinates":[[[-16.496061,15.945586],[-16.495656,15.943862],[-16.496851,15.938008],[-16.497318,15.936959],[-16.497685,15.934803],[-16.498023,15.934669],[-16.498288,15.935346],[-16.499029,15.936214],[-16.499446,15.937972],[-16.499081,15.938212],[-16.498072,15.937388],[-16.497556,15.937546],[-16.49749,15.938208],[-16.498018,15.939944],[-16.497766,15.940056],[-16.497747,15.940702],[-16.497231,15.941232],[-16.496648,15.942503],[-16.496822,15.942693],[-16.497292,15.94269],[-16.499094,15.942367],[-16.499831,15.945159],[-16.499485,15.945306],[-16.499225,15.945052],[-16.497678,15.94483],[-16.496815,15.945099],[-16.496061,15.945586]]]}},{"type":"Feature","properties":{"categorie":"Mangrove"},"geometry":{"type":"Polygon","coordinates":[[[-16.481663,15.948777],[-16.478343,15.948867],[-16.477775,15.948407],[-16.477304,15.947841],[-16.477047,15.94712],[-16.477234,15.945898],[-16.477736,15.946642],[-16.477869,15.947481],[-16.478014,15.947595],[-16.478805,15.946858],[-16.480479,15.946167],[-16.481374,15.945281],[-16.481586,15.945365],[-16.481456,15.945869],[-16.48215,15.946262],[-16.482377,15.94664],[-16.482328,15.947662],[-16.481663,15.948777]]]}},{"type":"Feature","properties":{"categorie":"Mangrove"},"geometry":{"type":"Polygon","coordinates":[[[-16.48364,15.948616],[-16.483292,15.948319],[-16.483476,15.94741],[-16.484454,15.94452],[-16.484722,15.942927],[-16.485635,15.939957],[-16.485224,15.938694],[-16.485085,15.937602],[-16.485172,15.936779],[-16.485568,15.935972],[-16.485583,15.935547],[-16.484338,15.933901],[-16.483964,15.932539],[-16.484083,15.932168],[-16.484704,15.931594],[-16.48485,15.931123],[-16.484853,15.930183],[-16.484591,15.92892],[-16.484601,15.927627],[-16.485293,15.926574],[-16.48589,15.926398],[-16.489456,15.927467],[-16.490438,15.927587],[-16.489496,15.929279],[-16.48864,15.929956],[-16.488269,15.930938],[-16.487884,15.931429],[-16.487594,15.931311],[-16.486739,15.930248],[-16.486099,15.930174],[-16.486072,15.93083],[-16.486272,15.931643],[-16.485982,15.932506],[-16.486342,15.933188],[-16.487573,15.934317],[-16.488409,15.9345],[-16.489203,15.934288],[-16.489938,15.932921],[-16.489829,15.930238],[-16.490012,15.929644],[-16.490443,15.929196],[-16.49071,15.930706],[-16.49068,15.932808],[-16.491184,15.934821],[-16.49055,15.936488],[-16.488958,15.938388],[-16.489204,15.938866],[-16.490003,15.939424],[-16.490622,15.942363],[-16.490631,15.944435],[-16.490922,15.945072],[-16.491117,15.946155],[-16.491803,15.94694],[-16.49178,15.947383],[-16.491637,15.948008],[-16.48364,15.948616]]]}},{"type":"Feature","properties":{"categorie":"Mangrove"},"geometry":{"type":"Polygon","coordinates":[[[-16.472482,15.924859],[-16.472546,15.924393],[-16.472189,15.922787],[-16.471847,15.922039],[-16.471359,15.921644],[-16.471225,15.921193],[-16.472061,15.919254],[-16.472141,15.918693],[-16.471365,15.91351],[-16.471684,15.913106],[-16.472332,15.912898],[-16.472534,15.912454],[-16.472048,15.911147],[-16.471014,15.905008],[-16.470748,15.904486],[-16.471343,15.905014],[-16.472274,15.905209],[-16.473492,15.906951],[-16.475046,15.908189],[-16.475666,15.908317],[-16.476404,15.908084],[-16.476548,15.907742],[-16.476781,15.907696],[-16.477072,15.909145],[-16.47703,15.909959],[-16.476832,15.910277],[-16.476278,15.910345],[-16.475422,15.909991],[-16.474808,15.909297],[-16.474424,15.909094],[-16.474096,15.909109],[-16.473835,15.909317],[-16.474157,15.910047],[-16.475288,15.910522],[-16.47531,15.911111],[-16.476042,15.910873],[-16.476838,15.91091],[-16.477191,15.91042],[-16.477663,15.910144],[-16.477754,15.910358],[-16.477141,15.911683],[-16.475975,15.912649],[-16.475193,15.913039],[-16.474637,15.914563],[-16.475867,15.916104],[-16.475897,15.91764],[-16.475728,15.919055],[-16.476013,15.92014],[-16.475425,15.921672],[-16.475828,15.923547],[-16.476454,15.924687],[-16.477101,15.924809],[-16.478601,15.926455],[-16.47895,15.926212],[-16.479264,15.92545],[-16.479547,15.925603],[-16.479636,15.926138],[-16.479286,15.926721],[-16.479289,15.927153],[-16.479919,15.929355],[-16.480544,15.929986],[-16.480643,15.930574],[-16.480738,15.932109],[-16.480592,15.933864],[-16.480159,15.934581],[-16.479358,15.934948],[-16.480114,15.937437],[-16.480072,15.939281],[-16.479382,15.94165],[-16.478033,15.942784],[-16.477907,15.942179],[-16.478447,15.940612],[-16.478462,15.938822],[-16.478829,15.936741],[-16.478798,15.936253],[-16.478513,15.93564],[-16.478714,15.935061],[-16.478674,15.934591],[-16.478418,15.934096],[-16.47775,15.933504],[-16.477314,15.932621],[-16.475512,15.93276],[-16.475175,15.932663],[-16.475108,15.93241],[-16.475335,15.931514],[-16.475116,15.93069],[-16.472482,15.924859]]]}},{"type":"Feature","properties":{"categorie":"Mare"},"geometry":{"type":"Polygon","coordinates":[[[-16.449997,15.85731],[-16.450935,15.855627],[-16.451699,15.853897],[-16.452047,15.853526],[-16.452333,15.853454],[-16.452394,15.854414],[-16.451678,15.855662],[-16.451612,15.856271],[-16.451428,15.856272],[-16.450089,15.857766],[-16.449997,15.85731]]]}},{"type":"Feature","properties":{"categorie":"Mare"},"geometry":{"type":"Polygon","coordinates":[[[-16.509466,15.875397],[-16.509835,15.875801],[-16.50996,15.877346],[-16.508918,15.878181],[-16.508626,15.877898],[-16.508356,15.876963],[-16.508468,15.87572],[-16.508802,15.875491],[-16.509466,15.875397]]]}},{"type":"Feature","properties":{"categorie":"Mare"},"geometry":{"type":"Polygon","coordinates":[[[-16.506571,15.876389],[-16.507067,15.876745],[-16.507442,15.87728],[-16.507388,15.878327],[-16.506432,15.878483],[-16.505889,15.878192],[-16.506166,15.876456],[-16.506571,15.876389]]]}},{"type":"Feature","properties":{"categorie":"Mare"},"geometry":{"type":"Polygon","coordinates":[[[-16.507021,15.881335],[-16.506671,15.884067],[-16.506301,15.884714],[-16.506138,15.884687],[-16.505941,15.884418],[-16.506279,15.882432],[-16.506194,15.881333],[-16.506574,15.880933],[-16.506881,15.880951],[-16.507021,15.881335]]]}},{"type":"Feature","properties":{"categorie":"Mare"},"geometry":{"type":"Polygon","coordinates":[[[-16.503006,15.886727],[-16.502999,15.885881],[-16.503277,15.885517],[-16.503465,15.885787],[-16.503482,15.886679],[-16.503006,15.886727]]]}},{"type":"Feature","properties":{"categorie":"Mare"},"geometry":{"type":"Polygon","coordinates":[[[-16.500584,15.884497],[-16.50047,15.884814],[-16.500797,15.884811],[-16.501032,15.88499],[-16.501038,15.885894],[-16.500169,15.887058],[-16.499764,15.887257],[-16.49905,15.886035],[-16.499104,15.885673],[-16.499547,15.885091],[-16.500584,15.884497]]]}},{"type":"Feature","properties":{"categorie":"Mare"},"geometry":{"type":"Polygon","coordinates":[[[-16.496856,15.891775],[-16.497314,15.89299],[-16.497455,15.895891],[-16.497335,15.896539],[-16.497469,15.896713],[-16.497352,15.897588],[-16.497887,15.899238],[-16.497687,15.89989],[-16.496961,15.900293],[-16.496483,15.900034],[-16.496094,15.899277],[-16.495638,15.898023],[-16.495519,15.897077],[-16.495916,15.892835],[-16.496035,15.892427],[-16.496553,15.8918],[-16.496856,15.891775]]]}},{"type":"Feature","properties":{"categorie":"Mare"},"geometry":{"type":"Polygon","coordinates":[[[-16.466221,15.90077],[-16.466096,15.898169],[-16.466377,15.897276],[-16.46771,15.895727],[-16.468291,15.894609],[-16.468229,15.893411],[-16.468424,15.892792],[-16.471341,15.889864],[-16.471401,15.888495],[-16.471679,15.887902],[-16.472145,15.887553],[-16.472683,15.887579],[-16.47296,15.887861],[-16.473212,15.888505],[-16.472995,15.889224],[-16.471722,15.890906],[-16.471358,15.891793],[-16.470843,15.892299],[-16.469785,15.892928],[-16.469495,15.893767],[-16.469727,15.895152],[-16.469587,15.896229],[-16.469122,15.89683],[-16.467524,15.897941],[-16.467381,15.898683],[-16.46773,15.898797],[-16.468007,15.899231],[-16.468508,15.899312],[-16.468574,15.899632],[-16.469651,15.900121],[-16.469663,15.900513],[-16.468106,15.900367],[-16.468115,15.899993],[-16.467937,15.89986],[-16.466993,15.899762],[-16.466776,15.900529],[-16.466481,15.900855],[-16.466221,15.90077]]]}},{"type":"Feature","properties":{"categorie":"Mare"},"geometry":{"type":"Polygon","coordinates":[[[-16.503344,15.895249],[-16.503786,15.896194],[-16.504313,15.899284],[-16.504158,15.901604],[-16.503743,15.901764],[-16.503171,15.898975],[-16.503163,15.898211],[-16.503412,15.897401],[-16.503221,15.89695],[-16.503314,15.896859],[-16.502788,15.896317],[-16.502699,15.895824],[-16.502449,15.893567],[-16.50254,15.89325],[-16.502773,15.893112],[-16.503007,15.893156],[-16.50343,15.89365],[-16.503344,15.895249]]]}},{"type":"Feature","properties":{"categorie":"Mare"},"geometry":{"type":"Polygon","coordinates":[[[-16.475285,15.902857],[-16.474928,15.902429],[-16.475338,15.902121],[-16.475612,15.901524],[-16.475459,15.901307],[-16.474595,15.901499],[-16.473902,15.900844],[-16.473419,15.900771],[-16.473116,15.900977],[-16.472878,15.900947],[-16.472413,15.900701],[-16.472146,15.900322],[-16.472569,15.900349],[-16.472765,15.900621],[-16.473151,15.900653],[-16.473265,15.900265],[-16.473667,15.900028],[-16.474466,15.900237],[-16.475331,15.89989],[-16.475795,15.89952],[-16.475993,15.899017],[-16.477086,15.897654],[-16.476947,15.896772],[-16.477551,15.896213],[-16.477885,15.895324],[-16.47776,15.894601],[-16.47745,15.894585],[-16.476446,15.893695],[-16.476372,15.893259],[-16.476652,15.892197],[-16.477095,15.891486],[-16.47864,15.890835],[-16.478993,15.890345],[-16.479109,15.889809],[-16.479596,15.889153],[-16.479818,15.888461],[-16.479737,15.887894],[-16.479431,15.88742],[-16.479436,15.886738],[-16.480014,15.886139],[-16.480826,15.884729],[-16.482551,15.885082],[-16.483321,15.884728],[-16.483587,15.885371],[-16.482733,15.887095],[-16.48212,15.888994],[-16.482404,15.889122],[-16.482894,15.890089],[-16.483501,15.892045],[-16.484092,15.893109],[-16.48465,15.893639],[-16.484951,15.894355],[-16.484871,15.896932],[-16.484505,15.896875],[-16.484444,15.896132],[-16.483718,15.89555],[-16.483204,15.894651],[-16.482853,15.894642],[-16.482553,15.895],[-16.481864,15.895044],[-16.481268,15.895401],[-16.4806,15.89526],[-16.480116,15.894945],[-16.479414,15.895224],[-16.478353,15.896376],[-16.477785,15.898372],[-16.477506,15.898813],[-16.477322,15.902124],[-16.476171,15.902691],[-16.475479,15.902699],[-16.475285,15.902857]],[[-16.480767,15.894588],[-16.482116,15.893769],[-16.482777,15.892685],[-16.482955,15.891424],[-16.482891,15.890766],[-16.482387,15.890053],[-16.481806,15.889744],[-16.481362,15.889806],[-16.481132,15.890032],[-16.480355,15.892458],[-16.479584,15.892026],[-16.479299,15.892188],[-16.479499,15.89291],[-16.480465,15.894119],[-16.480472,15.894545],[-16.480767,15.894588]]]}},{"type":"Feature","properties":{"categorie":"Mare"},"geometry":{"type":"Polygon","coordinates":[[[-16.505522,15.915472],[-16.505871,15.915488],[-16.506448,15.918335],[-16.506406,15.918704],[-16.506022,15.919074],[-16.505252,15.918649],[-16.505599,15.916564],[-16.505522,15.915472]]]}},{"type":"Feature","properties":{"categorie":"Mare"},"geometry":{"type":"Polygon","coordinates":[[[-16.457061,15.856278],[-16.457342,15.85656],[-16.457398,15.857329],[-16.457022,15.858465],[-16.456747,15.858647],[-16.456475,15.859319],[-16.456484,15.860581],[-16.45717,15.861347],[-16.458405,15.862158],[-16.458716,15.862851],[-16.45719,15.865282],[-16.456958,15.865934],[-16.456642,15.865994],[-16.455946,15.86585],[-16.45633,15.864509],[-16.456387,15.863379],[-16.45603,15.861664],[-16.455452,15.860529],[-16.455383,15.860023],[-16.45563,15.858643],[-16.456084,15.857355],[-16.456517,15.856666],[-16.457061,15.856278]]]}},{"type":"Feature","properties":{"categorie":"Mare"},"geometry":{"type":"Polygon","coordinates":[[[-16.465621,15.866871],[-16.464989,15.866913],[-16.462585,15.867867],[-16.461366,15.868793],[-16.460335,15.868322],[-16.460331,15.867825],[-16.460564,15.867211],[-16.460201,15.867001],[-16.460903,15.864726],[-16.461519,15.863412],[-16.46175,15.862204],[-16.461634,15.86184],[-16.460817,15.861497],[-16.460789,15.861112],[-16.461195,15.860823],[-16.462316,15.86051],[-16.463526,15.859685],[-16.465209,15.859315],[-16.465604,15.859334],[-16.465553,15.860176],[-16.464624,15.860105],[-16.463854,15.860244],[-16.463203,15.860383],[-16.462613,15.860769],[-16.462537,15.861229],[-16.462885,15.861338],[-16.463172,15.862011],[-16.462629,15.863008],[-16.462869,15.863248],[-16.462572,15.863993],[-16.4623,15.863985],[-16.462145,15.864388],[-16.462435,15.864712],[-16.462221,15.866399],[-16.462397,15.866946],[-16.462819,15.86712],[-16.464913,15.866139],[-16.46553,15.866102],[-16.46643,15.866398],[-16.467379,15.865984],[-16.467829,15.866198],[-16.467793,15.866609],[-16.467318,15.86731],[-16.466771,15.86736],[-16.465773,15.868649],[-16.465359,15.8689],[-16.464699,15.868535],[-16.46491,15.868074],[-16.465626,15.867487],[-16.465621,15.866871]]]}},{"type":"Feature","properties":{"categorie":"Mare"},"geometry":{"type":"Polygon","coordinates":[[[-16.438921,15.877787],[-16.439618,15.876686],[-16.440131,15.876556],[-16.440515,15.876771],[-16.440724,15.877294],[-16.440417,15.87866],[-16.440523,15.879525],[-16.438921,15.877787]]]}},{"type":"Feature","properties":{"categorie":"Mare"},"geometry":{"type":"Polygon","coordinates":[[[-16.442345,15.881501],[-16.443543,15.879733],[-16.444581,15.87725],[-16.445416,15.876539],[-16.44648,15.875203],[-16.448142,15.873819],[-16.44925,15.872094],[-16.450184,15.869412],[-16.451298,15.864579],[-16.451537,15.864143],[-16.452147,15.865847],[-16.451328,15.86757],[-16.451869,15.868669],[-16.451549,15.869656],[-16.451789,15.870649],[-16.451366,15.871483],[-16.450557,15.872031],[-16.450317,15.872412],[-16.4497,15.874902],[-16.449407,15.877325],[-16.449517,15.878073],[-16.45019,15.878895],[-16.450442,15.879675],[-16.450387,15.880436],[-16.449956,15.881708],[-16.450129,15.882421],[-16.44971,15.882389],[-16.449422,15.881924],[-16.449457,15.881343],[-16.449945,15.880624],[-16.449996,15.880184],[-16.449824,15.87953],[-16.449264,15.878937],[-16.449076,15.878254],[-16.449295,15.874742],[-16.449203,15.874267],[-16.44891,15.873843],[-16.448012,15.874463],[-16.446541,15.876563],[-16.446323,15.877127],[-16.446418,15.878012],[-16.445617,15.878685],[-16.44555,15.87958],[-16.444753,15.880438],[-16.444501,15.881366],[-16.44355,15.882808],[-16.442345,15.881501]]]}},{"type":"Feature","properties":{"categorie":"Mare"},"geometry":{"type":"Polygon","coordinates":[[[-16.475209,15.910853],[-16.475328,15.910605],[-16.475204,15.910438],[-16.474556,15.910279],[-16.474062,15.909954],[-16.473858,15.909281],[-16.474152,15.909088],[-16.474489,15.909115],[-16.475422,15.909991],[-16.476591,15.910349],[-16.476898,15.910228],[-16.47703,15.909959],[-16.477021,15.908691],[-16.476743,15.907673],[-16.476548,15.907742],[-16.476404,15.908084],[-16.475605,15.908332],[-16.47482,15.90786],[-16.474674,15.907308],[-16.474621,15.905227],[-16.474091,15.904381],[-16.476189,15.903127],[-16.476632,15.903054],[-16.477107,15.903326],[-16.477414,15.90383],[-16.477389,15.904592],[-16.476992,15.905199],[-16.477203,15.905556],[-16.479251,15.906156],[-16.479614,15.905876],[-16.480146,15.904786],[-16.480239,15.906204],[-16.479923,15.906845],[-16.479263,15.907168],[-16.478949,15.907537],[-16.479098,15.908932],[-16.478499,15.909666],[-16.478615,15.910044],[-16.477663,15.910144],[-16.477191,15.91042],[-16.476838,15.91091],[-16.476042,15.910873],[-16.475372,15.911133],[-16.475209,15.910853]]]}},{"type":"Feature","properties":{"categorie":"Mare"},"geometry":{"type":"Polygon","coordinates":[[[-16.467872,15.913218],[-16.465207,15.907416],[-16.465756,15.907665],[-16.46652,15.907444],[-16.467355,15.907592],[-16.467801,15.907757],[-16.468002,15.90821],[-16.468448,15.908608],[-16.467872,15.913218]]]}},{"type":"Feature","properties":{"categorie":"Plaine inondable"},"geometry":{"type":"Polygon","coordinates":[[[-16.471304,15.844723],[-16.47211,15.845088],[-16.4723,15.845484],[-16.472303,15.846017],[-16.471703,15.84688],[-16.471292,15.848103],[-16.470064,15.84878],[-16.469613,15.84975],[-16.468686,15.850642],[-16.468597,15.851276],[-16.468882,15.853217],[-16.468081,15.854786],[-16.468164,15.855924],[-16.467805,15.856659],[-16.467728,15.857572],[-16.467115,15.858019],[-16.466959,15.85708],[-16.466264,15.856533],[-16.46614,15.856227],[-16.466796,15.854552],[-16.466455,15.851804],[-16.466891,15.85051],[-16.4675,15.849429],[-16.469685,15.84806],[-16.470037,15.847605],[-16.470163,15.84699],[-16.470069,15.845635],[-16.470206,15.845182],[-16.47067,15.844854],[-16.471304,15.844723]]]}},{"type":"Feature","properties":{"categorie":"Plaine inondable"},"geometry":{"type":"Polygon","coordinates":[[[-16.495915,15.924323],[-16.494572,15.924594],[-16.493758,15.924383],[-16.493466,15.924086],[-16.493837,15.923677],[-16.49402,15.923179],[-16.493891,15.92214],[-16.495022,15.922259],[-16.495764,15.92276],[-16.496339,15.922295],[-16.496837,15.922644],[-16.497107,15.922507],[-16.497108,15.921368],[-16.496549,15.919085],[-16.496451,15.917125],[-16.496102,15.915446],[-16.496265,15.914713],[-16.496792,15.914077],[-16.497045,15.914201],[-16.497198,15.914652],[-16.49746,15.915997],[-16.497562,15.918364],[-16.498077,15.919861],[-16.498451,15.919849],[-16.499013,15.918797],[-16.499199,15.918778],[-16.499322,15.918985],[-16.499718,15.92201],[-16.499631,15.922751],[-16.499318,15.92344],[-16.499479,15.923665],[-16.500022,15.923869],[-16.500333,15.924301],[-16.500574,15.925239],[-16.500527,15.926532],[-16.499204,15.925637],[-16.497996,15.925257],[-16.497271,15.924557],[-16.495915,15.924323]]]}},{"type":"Feature","properties":{"categorie":"Plaine inondable"},"geometry":{"type":"Polygon","coordinates":[[[-16.490661,15.930274],[-16.490374,15.929169],[-16.489966,15.929732],[-16.489829,15.930238],[-16.489938,15.932921],[-16.489498,15.93393],[-16.48911,15.93435],[-16.488409,15.9345],[-16.487645,15.934354],[-16.486962,15.933842],[-16.486082,15.932827],[-16.485987,15.932415],[-16.486272,15.931643],[-16.486086,15.930189],[-16.486739,15.930248],[-16.487594,15.931311],[-16.487884,15.931429],[-16.488269,15.930938],[-16.48864,15.929956],[-16.489496,15.929279],[-16.490438,15.927587],[-16.492604,15.929922],[-16.492578,15.930202],[-16.492197,15.930494],[-16.491206,15.930338],[-16.491258,15.931106],[-16.491631,15.932233],[-16.491555,15.933345],[-16.491184,15.934821],[-16.490664,15.932672],[-16.490661,15.930274]]]}},{"type":"Feature","properties":{"categorie":"Plaine inondable"},"geometry":{"type":"Polygon","coordinates":[[[-16.501913,15.945831],[-16.502131,15.945003],[-16.50207,15.94428],[-16.501839,15.943414],[-16.501386,15.942722],[-16.501356,15.941956],[-16.502718,15.942735],[-16.503328,15.945756],[-16.501913,15.945831]]]}},{"type":"Feature","properties":{"categorie":"Plaine inondable"},"geometry":{"type":"MultiPolygon","coordinates":[[[[-16.453405,15.891381],[-16.454748,15.890107],[-16.455597,15.888523],[-16.454752,15.886463],[-16.454364,15.886193],[-16.453728,15.886341],[-16.452884,15.886562],[-16.451591,15.887235],[-16.451402,15.886929],[-16.451705,15.886285],[-16.451264,15.885999],[-16.448577,15.887435],[-16.445931,15.88539],[-16.44355,15.882808],[-16.444501,15.881366],[-16.444753,15.880438],[-16.44555,15.87958],[-16.445617,15.878685],[-16.446418,15.878012],[-16.446323,15.877127],[-16.446541,15.876563],[-16.448012,15.874463],[-16.44891,15.873843],[-16.449203,15.874267],[-16.449295,15.874742],[-16.449076,15.878254],[-16.449264,15.878937],[-16.449824,15.87953],[-16.449996,15.880184],[-16.449945,15.880624],[-16.449457,15.881343],[-16.449422,15.881924],[-16.44971,15.882389],[-16.450129,15.882421],[-16.449956,15.881708],[-16.450456,15.87979],[-16.45019,15.878895],[-16.449458,15.877915],[-16.449407,15.877325],[-16.449587,15.876384],[-16.45,15.876493],[-16.450493,15.876356],[-16.452509,15.873473],[-16.452798,15.872495],[-16.454887,15.870339],[-16.45531,15.869414],[-16.455719,15.867875],[-16.455946,15.86585],[-16.456958,15.865934],[-16.45719,15.865282],[-16.458716,15.862851],[-16.458405,15.862158],[-16.45717,15.861347],[-16.456484,15.860581],[-16.456475,15.859319],[-16.456747,15.858647],[-16.457022,15.858465],[-16.457378,15.857447],[-16.457392,15.85675],[-16.457211,15.856345],[-16.456895,15.856318],[-16.456348,15.856882],[-16.45563,15.858643],[-16.456181,15.8568],[-16.4568,15.855757],[-16.457386,15.855563],[-16.457632,15.855896],[-16.457613,15.857224],[-16.457468,15.857867],[-16.456787,15.859273],[-16.456776,15.860231],[-16.457183,15.861069],[-16.458653,15.861619],[-16.458892,15.862322],[-16.458802,15.862901],[-16.458206,15.864333],[-16.457384,15.865604],[-16.457463,15.866164],[-16.457325,15.866445],[-16.457916,15.866921],[-16.458759,15.867274],[-16.458959,15.867631],[-16.45791,15.869479],[-16.456659,15.87066],[-16.456432,15.872118],[-16.456726,15.872749],[-16.456995,15.872671],[-16.457259,15.871684],[-16.459051,15.870022],[-16.458703,15.869857],[-16.458603,15.86957],[-16.459583,15.867578],[-16.45977,15.866514],[-16.459938,15.864939],[-16.459571,15.86355],[-16.459744,15.862898],[-16.459716,15.861799],[-16.460073,15.861585],[-16.460767,15.861495],[-16.460553,15.860596],[-16.460845,15.86005],[-16.462446,15.86001],[-16.463242,15.859491],[-16.464097,15.857194],[-16.464394,15.85724],[-16.464421,15.857599],[-16.464846,15.858241],[-16.467199,15.859329],[-16.467277,15.859744],[-16.466694,15.860453],[-16.466723,15.860652],[-16.46773,15.860392],[-16.468003,15.860715],[-16.467309,15.86156],[-16.467578,15.862661],[-16.467488,15.863096],[-16.467043,15.863614],[-16.466337,15.864053],[-16.466121,15.863964],[-16.466045,15.863684],[-16.466372,15.862507],[-16.465807,15.861833],[-16.465238,15.860544],[-16.464508,15.860368],[-16.463457,15.860963],[-16.463409,15.862084],[-16.463117,15.862963],[-16.463224,15.863604],[-16.462502,15.864395],[-16.462597,15.864692],[-16.463075,15.864906],[-16.463217,15.86514],[-16.462364,15.866023],[-16.462601,15.866473],[-16.463161,15.866487],[-16.464707,15.865998],[-16.466529,15.866094],[-16.467674,15.865616],[-16.468299,15.865558],[-16.471152,15.863568],[-16.472849,15.862029],[-16.473333,15.861854],[-16.473597,15.862159],[-16.472428,15.863207],[-16.470864,15.865097],[-16.469469,15.865947],[-16.469192,15.866329],[-16.469989,15.868077],[-16.470189,15.869874],[-16.47059,15.871118],[-16.470226,15.872377],[-16.470243,15.873424],[-16.470068,15.873852],[-16.469675,15.873719],[-16.469577,15.873005],[-16.46881,15.871592],[-16.469067,15.871057],[-16.468928,15.869855],[-16.469427,15.869102],[-16.469031,15.868635],[-16.468075,15.868153],[-16.467392,15.867941],[-16.467066,15.867997],[-16.465489,15.869454],[-16.464654,15.868953],[-16.463973,15.868976],[-16.463633,15.868463],[-16.462987,15.868323],[-16.460792,15.869468],[-16.460289,15.869616],[-16.459999,15.869536],[-16.459748,15.869719],[-16.459741,15.870044],[-16.459929,15.87016],[-16.46161,15.870257],[-16.462042,15.870607],[-16.461969,15.870879],[-16.461583,15.871162],[-16.461211,15.871989],[-16.460697,15.873735],[-16.459736,15.874534],[-16.45898,15.874828],[-16.457565,15.875023],[-16.456806,15.875412],[-16.456614,15.875753],[-16.457748,15.879337],[-16.457804,15.880119],[-16.457535,15.881083],[-16.457576,15.881523],[-16.458151,15.882442],[-16.459481,15.883408],[-16.459633,15.884283],[-16.459425,15.8849],[-16.458441,15.885093],[-16.457231,15.884798],[-16.456213,15.883515],[-16.45483,15.883237],[-16.453617,15.882457],[-16.453341,15.881957],[-16.453286,15.880524],[-16.453075,15.879998],[-16.45248,15.879905],[-16.45154,15.880213],[-16.451339,15.880747],[-16.450913,15.881229],[-16.450744,15.882096],[-16.451363,15.882645],[-16.451862,15.883983],[-16.453648,15.883655],[-16.453768,15.883783],[-16.453773,15.884515],[-16.45344,15.885152],[-16.454415,15.885192],[-16.455566,15.885464],[-16.456448,15.886109],[-16.456807,15.886739],[-16.45662,15.889244],[-16.456098,15.890639],[-16.455746,15.891021],[-16.454117,15.891333],[-16.453676,15.891685],[-16.453405,15.891381]],[[-16.464989,15.866913],[-16.465621,15.866871],[-16.465626,15.867487],[-16.46491,15.868074],[-16.464699,15.868535],[-16.465359,15.8689],[-16.465773,15.868649],[-16.466771,15.86736],[-16.467318,15.86731],[-16.467793,15.866609],[-16.467829,15.866198],[-16.467379,15.865984],[-16.46643,15.866398],[-16.465647,15.866123],[-16.465039,15.866116],[-16.464266,15.866337],[-16.463114,15.86704],[-16.462638,15.867103],[-16.462242,15.866615],[-16.462435,15.864712],[-16.462145,15.864388],[-16.4623,15.863985],[-16.462572,15.863993],[-16.462869,15.863248],[-16.462629,15.863008],[-16.463172,15.862011],[-16.462885,15.861338],[-16.462537,15.861229],[-16.462613,15.860769],[-16.463203,15.860383],[-16.463854,15.860244],[-16.464624,15.860105],[-16.465553,15.860176],[-16.465649,15.859716],[-16.465604,15.859334],[-16.465478,15.859319],[-16.463526,15.859685],[-16.462316,15.86051],[-16.461195,15.860823],[-16.460789,15.861112],[-16.460817,15.861497],[-16.461634,15.86184],[-16.46175,15.862204],[-16.461519,15.863412],[-16.460903,15.864726],[-16.460201,15.867001],[-16.460564,15.867211],[-16.460331,15.867825],[-16.460335,15.868322],[-16.461366,15.868793],[-16.462585,15.867867],[-16.464989,15.866913]]],[[[-16.462256,15.901283],[-16.457439,15.895895],[-16.459031,15.896623],[-16.459803,15.896771],[-16.46026,15.897093],[-16.460852,15.897794],[-16.462519,15.900492],[-16.463252,15.901111],[-16.46432,15.901511],[-16.465108,15.90202],[-16.46572,15.90264],[-16.466352,15.903621],[-16.466754,15.903618],[-16.467591,15.903106],[-16.468153,15.902376],[-16.468866,15.902266],[-16.469462,15.902645],[-16.470921,15.903078],[-16.471741,15.903671],[-16.471919,15.904363],[-16.47284,15.905265],[-16.47354,15.906408],[-16.474063,15.906931],[-16.474334,15.906857],[-16.474298,15.905246],[-16.473401,15.904248],[-16.473527,15.904135],[-16.474091,15.904381],[-16.474621,15.905227],[-16.474753,15.907743],[-16.475051,15.90809],[-16.475604,15.908332],[-16.475229,15.908281],[-16.474497,15.907833],[-16.473492,15.906951],[-16.472274,15.905209],[-16.471343,15.905014],[-16.470504,15.904297],[-16.470085,15.904472],[-16.469468,15.90566],[-16.469034,15.906085],[-16.468665,15.908229],[-16.468448,15.908608],[-16.468002,15.90821],[-16.467801,15.907757],[-16.46652,15.907444],[-16.467206,15.906603],[-16.468214,15.905879],[-16.46826,15.905472],[-16.468136,15.905305],[-16.467765,15.905332],[-16.467615,15.905117],[-16.467687,15.904782],[-16.468913,15.903411],[-16.468983,15.902956],[-16.468735,15.902766],[-16.468365,15.902817],[-16.467607,15.903994],[-16.466892,15.90419],[-16.465431,15.903745],[-16.464632,15.902603],[-16.464086,15.902248],[-16.463144,15.901943],[-16.462576,15.901947],[-16.462256,15.901283]]]]}},{"type":"Feature","properties":{"categorie":"Savane"},"geometry":{"type":"Polygon","coordinates":[[[-16.496293,15.868733],[-16.49585,15.868911],[-16.495661,15.8685],[-16.494965,15.867795],[-16.495239,15.866941],[-16.495663,15.866666],[-16.496308,15.866526],[-16.49626,15.866301],[-16.495855,15.86598],[-16.496016,15.865639],[-16.496884,15.866127],[-16.496825,15.866459],[-16.497146,15.866799],[-16.497133,15.867],[-16.496653,15.86694],[-16.496187,15.867351],[-16.496233,15.867595],[-16.496731,15.867289],[-16.497066,15.867556],[-16.497052,15.867796],[-16.496587,15.867913],[-16.4965,15.868084],[-16.496528,15.868247],[-16.496844,15.868381],[-16.497048,15.869235],[-16.49705,15.869784],[-16.496721,15.870081],[-16.496404,15.870091],[-16.49624,15.869927],[-16.496573,15.869145],[-16.496293,15.868733]]]}},{"type":"Feature","properties":{"categorie":"Vasière"},"geometry":{"type":"Polygon","coordinates":[[[-16.499094,15.942367],[-16.497292,15.94269],[-16.496822,15.942693],[-16.496648,15.942503],[-16.497231,15.941232],[-16.497747,15.940702],[-16.497766,15.940056],[-16.498018,15.939944],[-16.498337,15.941723],[-16.498462,15.941866],[-16.4994,15.94174],[-16.500143,15.945226],[-16.499947,15.945562],[-16.499485,15.945306],[-16.499831,15.945159],[-16.499828,15.944801],[-16.499094,15.942367]]]}},{"type":"Feature","properties":{"categorie":"Vasière"},"geometry":{"type":"Polygon","coordinates":[[[-16.498418,15.946648],[-16.497989,15.94653],[-16.497194,15.947031],[-16.496156,15.947356],[-16.496061,15.945586],[-16.497012,15.945026],[-16.497678,15.94483],[-16.49842,15.944849],[-16.498859,15.945078],[-16.497226,15.94527],[-16.497179,15.945581],[-16.498318,15.945765],[-16.498665,15.946001],[-16.498735,15.946549],[-16.498418,15.946648]]]}},{"type":"Feature","properties":{"categorie":"Vasière"},"geometry":{"type":"Polygon","coordinates":[[[-16.483168,15.948654],[-16.483292,15.948319],[-16.48364,15.948616],[-16.483168,15.948654]]]}}]}