{"type":"FeatureCollection","name":"risques-inondation.geojson","features":[{"type":"Feature","properties":{"Categorie":"Risque très fort","Code":"IC1 (>2,0m.)"},"geometry":{"type":"Polygon","coordinates":[[[-16.45707674852254,15.863543367192833,0.0],[-16.45670828307206,15.862497722772419,0.0],[-16.455799045765207,15.861543057407978,0.0],[-16.455429338147677,15.860322730762663,0.0],[-16.455415554879416,15.858401261494745,0.0],[-16.455861704031793,15.857699513061112,0.0],[-16.456849241061775,15.856994123026233,0.0],[-16.457482745434373,15.857251891954435,0.0],[-16.45695013354799,15.858478286999533,0.0],[-16.45704914678157,15.85970043227071,0.0],[-16.458591269870404,15.860825517884551,0.0],[-16.459323817929725,15.862305423127205,0.0],[-16.458341289778897,15.863709540494407,0.0],[-16.457272278452905,15.865638298141596,0.0],[-16.45707674852254,15.863543367192833,0.0]]]}},{"type":"Feature","properties":{"Categorie":"Risque fort","Code":"IC2 (1,0-2,0m.)"},"geometry":{"type":"Polygon","coordinates":[[[-16.442279726592222,15.88129686126796,0.0],[-16.44553652821427,15.876078157594225,0.0],[-16.448040804555692,15.872917032674957,0.0],[-16.44960219164684,15.87041727984249,0.0],[-16.449680877041313,15.868800891841653,0.0],[-16.45089720582202,15.868530710439673,0.0],[-16.452479483754757,15.868956817084445,0.0],[-16.45212604070713,15.870007313704134,0.0],[-16.450745166962164,15.87250587213827,0.0],[-16.449710541948875,15.872949524842456,0.0],[-16.45012349114886,15.873907539658251,0.0],[-16.451207303869417,15.874031289237639,0.0],[-16.453091378043784,15.87249013043095,0.0],[-16.454600372258927,15.868986245947456,0.0],[-16.45598211675283,15.86661867724652,0.0],[-16.457272278452905,15.865638298141596,0.0],[-16.459323817929725,15.862305423127205,0.0],[-16.45849647822707,15.864898551449514,0.0],[-16.458639682942223,15.865989381266875,0.0],[-16.459857550475014,15.865937500065831,0.0],[-16.460344413294965,15.864624063577619,0.0],[-16.46091206969692,15.861999928459399,0.0],[-16.46089603185536,15.859772776666954,0.0],[-16.463196338776555,15.859669902936435,0.0],[-16.464618627451948,15.85669061186157,0.0],[-16.465882496793714,15.856769405156676,0.0],[-16.46724228134713,15.857633631363088,0.0],[-16.466917947103205,15.856456693023963,0.0],[-16.46697535197946,15.851914448631174,0.0],[-16.46819154975405,15.851644180083262,0.0],[-16.46887079474952,15.851988949322227,0.0],[-16.4680124096248,15.858065129272005,0.0],[-16.46789570223667,15.860642547884646,0.0],[-16.46853650031854,15.86190468056335,0.0],[-16.469210721303266,15.86155073383533,0.0],[-16.469329625102034,15.859279002484552,0.0],[-16.469858365106923,15.857528549440646,0.0],[-16.47098499234633,15.857346214078122,0.0],[-16.47129541956742,15.856601688212205,0.0],[-16.4703886792506,15.855996442989657,0.0],[-16.469793956012058,15.854865016891777,0.0],[-16.469516308949988,15.853906124439552,0.0],[-16.4707340959149,15.85385418834053,0.0],[-16.472279406728816,15.85541586883756,0.0],[-16.4726088395925,15.857291507630286,0.0],[-16.473471427402778,15.858028057604747,0.0],[-16.475455568583595,15.857883534804316,0.0],[-16.476223488739294,15.858009316455865,0.0],[-16.47648623935991,15.856915737415854,0.0],[-16.476650178263352,15.85464370072926,0.0],[-16.477502911939755,15.854026484902716,0.0],[-16.47820757564112,15.851663416262923,0.0],[-16.478195174525958,15.849960311872083,0.0],[-16.479593704964532,15.84995076627729,0.0],[-16.479472048134337,15.851829471113875,0.0],[-16.47876739913252,15.854192542629123,0.0],[-16.478189175757887,15.855331948046643,0.0],[-16.478510389882473,15.856072171076104,0.0],[-16.47900920372049,15.856418137413934,0.0],[-16.47942033538542,15.8571140731429,0.0],[-16.47825401370397,15.858039137935364,0.0],[-16.47712866425023,15.858396188224516,0.0],[-16.477410488389683,15.859922768163816,0.0],[-16.474525275678687,15.860248133889202,0.0],[-16.474351157753865,15.861122750236603,0.0],[-16.476163759528436,15.862202188741906,0.0],[-16.475224249085727,15.863300379811431,0.0],[-16.473336315787826,15.864274009266015,0.0],[-16.472125441697433,15.865286692151306,0.0],[-16.472183239303828,15.86703316136591,0.0],[-16.470979946751626,15.869093905379644,0.0],[-16.471130194102063,15.871145447484633,0.0],[-16.470913788953894,15.87241339357284,0.0],[-16.469566865514082,15.873339647764116,0.0],[-16.469156044525196,15.872687363677478,0.0],[-16.46760966374139,15.870994663965977,0.0],[-16.467466405332008,15.86990384493165,0.0],[-16.468453320333566,15.869111062185516,0.0],[-16.468763771292142,15.868366538423034,0.0],[-16.468035241058622,15.867454376793791,0.0],[-16.467263811425543,15.866848204365718,0.0],[-16.46605288971938,15.867860856900606,0.0],[-16.466106217192458,15.868995958592684,0.0],[-16.464528650441853,15.869224997129407,0.0],[-16.46322305095239,15.86962687273211,0.0],[-16.462735568116198,15.870852975419957,0.0],[-16.461520191851392,15.871254231935978,0.0],[-16.46103584275743,15.872917027732283,0.0],[-16.460004388034594,15.873797424026478,0.0],[-16.457315945843735,15.87955838409199,0.0],[-16.454665097660126,15.881148411360213,0.0],[-16.45272613276746,15.881336130263781,0.0],[-16.452100067225217,15.88212642730116,0.0],[-16.452966773515552,15.88343076100164,0.0],[-16.453784608173496,15.884211357248994,0.0],[-16.45473718835867,15.884903699895583,0.0],[-16.455914444584497,15.885463509941541,0.0],[-16.456779933816705,15.886593146235914,0.0],[-16.45701151550882,15.887421348776533,0.0],[-16.45689059957975,15.889431063014161,0.0],[-16.45653401241142,15.890044869897897,0.0],[-16.455724305307612,15.890399697631025,0.0],[-16.455054673028556,15.891408655979438,0.0],[-16.45506314714786,15.89258773603567,0.0],[-16.454078297643544,15.892134703115836,0.0],[-16.453694166482514,15.891704966668224,0.0],[-16.453831632096193,15.890761808385523,0.0],[-16.455036471769613,15.8888758168911,0.0],[-16.4551652509344,15.887957843285422,0.0],[-16.454474922492306,15.886084602059682,0.0],[-16.452938880095164,15.885832897798847,0.0],[-16.452135757075425,15.88710477523053,0.0],[-16.451368358219092,15.887066255853515,0.0],[-16.450952868213086,15.885758889379579,0.0],[-16.44995423508716,15.884935822641879,0.0],[-16.44845267984513,15.88733865773352,0.0],[-16.445930487022967,15.885390457127459,0.0],[-16.444754654748966,15.884115099988186,0.0],[-16.44536062848817,15.88373233574483,0.0],[-16.445946780402686,15.881882759790221,0.0],[-16.446594935755755,15.88108742961749,0.0],[-16.447848429551627,15.881131775614035,0.0],[-16.448439829930326,15.880020422255953,0.0],[-16.44870357389659,15.878805796142514,0.0],[-16.44879519788912,15.876379462470906,0.0],[-16.44868095697166,15.875641964691205,0.0],[-16.447754765341493,15.87564816415129,0.0],[-16.447213711854054,15.876179114693842,0.0],[-16.44678877249311,15.877711216256795,0.0],[-16.445818246361295,15.879141498336818,0.0],[-16.44495103281514,15.879780090159622,0.0],[-16.44442349501488,15.882209336780393,0.0],[-16.443855568816552,15.883139913570801,0.0],[-16.442251300256267,15.881399856415618,0.0],[-16.442279726592222,15.88129686126796,0.0]]]}},{"type":"Feature","properties":{"Categorie":"Risque fort","Code":"IC2 (1,0-2,0m.)"},"geometry":{"type":"Polygon","coordinates":[[[-16.45633132692354,15.893234271276944,0.0],[-16.459453379426773,15.894392348282341,0.0],[-16.45973010792682,15.895220240945402,0.0],[-16.46232964504469,15.899002097185189,0.0],[-16.462605130396852,15.89965530649475,0.0],[-16.462118218824443,15.900968749804159,0.0],[-16.45888911327291,15.89749684607588,0.0],[-16.458818045466046,15.897437169040165,0.0],[-16.45409388555655,15.892152141675998,0.0],[-16.45633132692354,15.893234271276944,0.0]]]}},{"type":"Feature","properties":{"Categorie":"Risque fort","Code":"IC2 (1,0-2,0m.)"},"geometry":{"type":"Polygon","coordinates":[[[-16.486546356553248,15.872153721746193,0.0],[-16.48874348380581,15.876418399856778,0.0],[-16.48826897719761,15.87939130888329,0.0],[-16.487028046009694,15.882456830646015,0.0],[-16.48706491559792,15.887478769136038,0.0],[-16.48687297520715,15.89206556725059,0.0],[-16.485018812353307,15.89766823103894,0.0],[-16.484040807134978,15.89968382662904,0.0],[-16.484096181419556,15.90108092555017,0.0],[-16.484735304074597,15.902080972196186,0.0],[-16.484201167980338,15.903089080411938,0.0],[-16.48412245025569,15.904661784907534,0.0],[-16.483373883706044,15.907199857467129,0.0],[-16.483785789362432,15.907983109697915,0.0],[-16.482540169424833,15.910437252396598,0.0],[-16.48219067526071,15.912011815469398,0.0],[-16.481386056898664,15.91306544681266,0.0],[-16.481800850020086,15.914241723221037,0.0],[-16.480626210458702,15.926390378854126,0.0],[-16.480613733713867,15.930844924771211,0.0],[-16.48000973574181,15.934648462238757,0.0],[-16.48018452216361,15.940018814470758,0.0],[-16.48071079665404,15.944076615185903,0.0],[-16.48179499443528,15.944200177204104,0.0],[-16.482913094399294,15.942795012452244,0.0],[-16.482745925651503,15.938472723774087,0.0],[-16.482357277917444,15.934719680002091,0.0],[-16.483228814652264,15.93047758850845,0.0],[-16.482766916346346,15.92903961670419,0.0],[-16.48374120093706,15.926499991884961,0.0],[-16.484682849911202,15.925663762454558,0.0],[-16.485384069521558,15.922820313419372,0.0],[-16.484737488691348,15.920815891020952,0.0],[-16.484314002036122,15.918460561976303,0.0],[-16.484038097272098,15.917763720603459,0.0],[-16.48447222735521,15.915424328313618,0.0],[-16.485528352853663,15.911748686420944,0.0],[-16.48609222380337,15.908644154168629,0.0],[-16.486803979187528,15.907241778241042,0.0],[-16.48711651564141,15.900645280934466,0.0],[-16.48772771783308,15.897846118272273,0.0],[-16.4884807003973,15.89591940153383,0.0],[-16.48932873642855,15.894647095428674,0.0],[-16.48913378608303,15.892683236222537,0.0],[-16.489665945875693,15.891413105604173,0.0],[-16.49084267784684,15.891885375828785,0.0],[-16.491666152843354,15.89340818431281,0.0],[-16.491812464829707,15.894891992589844,0.0],[-16.49050998931047,15.895730730682086,0.0],[-16.489977504631458,15.896957194484468,0.0],[-16.490892855044926,15.898697726193062,0.0],[-16.490996618235346,15.90053119697126,0.0],[-16.48960867718791,15.902025589074249,0.0],[-16.48890306388285,15.90425768110437,0.0],[-16.4890103528804,15.906571511182733,0.0],[-16.48757305630254,15.90749850928317,0.0],[-16.486960550429327,15.910122996044976,0.0],[-16.487153906082078,15.9118685099256,0.0],[-16.487704433283763,15.913087508806708,0.0],[-16.488657904108823,15.913867016542374,0.0],[-16.488455738026094,15.917056400483029,0.0],[-16.488613318116677,15.920068618480242,0.0],[-16.48931568565998,15.923513786344264,0.0],[-16.490043241775787,15.924251171104935,0.0],[-16.490716005799207,15.92367880077906,0.0],[-16.49081015618695,15.918088257685744,0.0],[-16.490294098130917,15.915427886753186,0.0],[-16.490639989558822,15.913372958638554,0.0],[-16.48998792628569,15.910626181431164,0.0],[-16.49028482879826,15.908047538317136,0.0],[-16.49081154086727,15.906035032997286,0.0],[-16.491907467945193,15.904717333586502,0.0],[-16.491984997651077,15.902991790419673,0.0],[-16.492803224057365,15.900737077488975,0.0],[-16.493339243865826,15.899990965047046,0.0],[-16.493145533832802,15.898201789591203,0.0],[-16.494123116385627,15.896142492029407,0.0],[-16.495552559479204,15.894167407157298,0.0],[-16.49563248180314,15.892769380280354,0.0],[-16.496351223018678,15.892327695335855,0.0],[-16.497347803618496,15.892844846522397,0.0],[-16.497984696411656,15.8935391698788,0.0],[-16.49797706382163,15.898605059651464,0.0],[-16.49590650908534,15.899318140440169,0.0],[-16.495288319361595,15.901156603006912,0.0],[-16.495328990989243,15.90665887043467,0.0],[-16.494833315644627,15.912863584994607,0.0],[-16.493700011974504,15.918286633348165,0.0],[-16.49399273807098,15.921254234437654,0.0],[-16.49517385898605,15.922294157437525,0.0],[-16.496521279689027,15.921411398548873,0.0],[-16.497547929332377,15.919875794336326,0.0],[-16.49835928113062,15.91973915023644,0.0],[-16.498993354899973,15.920040443522703,0.0],[-16.49900598899412,15.921743520740495,0.0],[-16.49946927476234,15.923356124762243,0.0],[-16.50023712995191,15.92343812922348,0.0],[-16.501133213892665,15.928628727244536,0.0],[-16.50257935327766,15.928880683727552,0.0],[-16.50283194326533,15.926433358989513,0.0],[-16.502899462354492,15.923375931593414,0.0],[-16.502110505160754,15.920455478984644,0.0],[-16.501148844988496,15.918584323000179,0.0],[-16.501349187247854,15.915176601524964,0.0],[-16.50206896283608,15.914865898490905,0.0],[-16.503347482487793,15.9168658576765,0.0],[-16.50441859081018,15.921312817953453,0.0],[-16.504541044157495,15.9256353727092,0.0],[-16.504131044519447,15.93118442061846,0.0],[-16.504160724855375,15.936465337023687,0.0],[-16.5032750700102,15.944812626652354,0.0],[-16.503448196676352,15.945749100163496,0.0],[-16.500846643504936,15.945887163433829,0.0],[-16.49469915314368,15.947812491095577,0.0],[-16.49409707345911,15.947857310774555,0.0],[-16.493766850755037,15.941052384372915,0.0],[-16.493124224703863,15.933501764752933,0.0],[-16.49221803006799,15.93302765637992,0.0],[-16.491003977248837,15.93364744708473,0.0],[-16.490748362585887,15.941815686289551,0.0],[-16.491359960046758,15.94517411822188,0.0],[-16.492048610135434,15.946741504827672,0.0],[-16.491747991781228,15.948032179798368,0.0],[-16.48076157455418,15.948850024522015,0.0],[-16.47751863197128,15.948872286217002,0.0],[-16.4749036372891,15.946066276565382,0.0],[-16.474234426656505,15.943246928977992,0.0],[-16.474232973796017,15.943224490840748,0.0],[-16.47428317768722,15.94313807514739,0.0],[-16.47585490811728,15.942035538750192,0.0],[-16.47696920637856,15.940106373987565,0.0],[-16.477046051401338,15.938271657114868,0.0],[-16.47631784481084,15.937446891615954,0.0],[-16.475854696897628,15.93583422689677,0.0],[-16.474635146238167,15.935711556788846,0.0],[-16.474326550308703,15.936718105858466,0.0],[-16.473875272090968,15.937566202574013,0.0],[-16.47511557034219,15.930690087208822,0.0],[-16.472622367936125,15.925168918778937,0.0],[-16.472661212785475,15.924981905526433,0.0],[-16.47233352206759,15.923368302506766,0.0],[-16.47159836450238,15.922901274797548,0.0],[-16.471533250523887,15.922757080631227,0.0],[-16.471906988854787,15.92057624600656,0.0],[-16.471748701711586,15.917432987263503,0.0],[-16.471333003509894,15.916125679827505,0.0],[-16.471314250713352,15.913549195782517,0.0],[-16.47229403251239,15.911751989980953,0.0],[-16.47227431911237,15.909044498334728,0.0],[-16.471258012934484,15.905819739835666,0.0],[-16.470661208720077,15.904426318275627,0.0],[-16.470175675081048,15.899713106280322,0.0],[-16.472605439595412,15.898735788575419,0.0],[-16.473399247236536,15.896197434981282,0.0],[-16.473741800463927,15.893662156778515,0.0],[-16.475719602918453,15.892600548731734,0.0],[-16.477501594867267,15.889444036527742,0.0],[-16.47739159676078,15.886737162302522,0.0],[-16.477558067694698,15.884814483543707,0.0],[-16.47926352241243,15.88045752213231,0.0],[-16.480995619407445,15.876668096791795,0.0],[-16.482731010726248,15.8733371880335,0.0],[-16.4845963395297,15.87081329721616,0.0],[-16.486546356553248,15.872153721746193,0.0]],[[-16.48542210799924,15.880773182927612,0.0],[-16.48568833315814,15.879927637857358,0.0],[-16.485782218292922,15.8778704335949,0.0],[-16.485395049927043,15.877082107741519,0.0],[-16.484470025762022,15.877246653922185,0.0],[-16.484159357804394,15.879463543195458,0.0],[-16.4831840852692,15.880208485277148,0.0],[-16.483248218255056,15.881526353889132,0.0],[-16.484012519291625,15.881732040420186,0.0],[-16.48542210799924,15.880773182927612,0.0]],[[-16.48421152733501,15.89401729694835,0.0],[-16.484587901529267,15.893329192803103,0.0],[-16.484199542848604,15.892382679195661,0.0],[-16.483054961157283,15.892337802968413,0.0],[-16.482511650657393,15.892552459143976,0.0],[-16.482080784515368,15.893240933806533,0.0],[-16.48235977748185,15.894135469623631,0.0],[-16.48421152733501,15.89401729694835,0.0]],[[-16.47714645164616,15.905703125134101,0.0],[-16.47696291709645,15.905289502600567,0.0],[-16.4759877636861,15.904619262445324,0.0],[-16.474838798639716,15.90486730282486,0.0],[-16.474578547056463,15.906310234747755,0.0],[-16.475453957914127,15.906599556365972,0.0],[-16.475672575537548,15.907809424230265,0.0],[-16.477071825749054,15.907843530216526,0.0],[-16.47802151469869,15.907478450778026,0.0],[-16.47809592744905,15.906476027412358,0.0],[-16.47714645164616,15.905703125134101,0.0]]]}},{"type":"Feature","properties":{"Categorie":"Risque fort","Code":"IC2 (1,0-2,0m.)"},"geometry":{"type":"Polygon","coordinates":[[[-16.505556339437238,15.922582253759142,0.0],[-16.50513553557123,15.920620003792502,0.0],[-16.50441859081018,15.921312817953453,0.0],[-16.503347482487793,15.9168658576765,0.0],[-16.50544635306194,15.916905818294136,0.0],[-16.505528764166133,15.91282202298836,0.0],[-16.50608029131195,15.908101728434106,0.0],[-16.506600337380988,15.905215826982888,0.0],[-16.50665904165722,15.900979346741503,0.0],[-16.508451169017007,15.900538012660496,0.0],[-16.508967731772596,15.903241994957659,0.0],[-16.50905879544697,15.909398938723776,0.0],[-16.508830075425845,15.915034065101988,0.0],[-16.50736202676081,15.917882920726276,0.0],[-16.50632451847294,15.924004071707051,0.0],[-16.505556339437238,15.922582253759142,0.0]]]}},{"type":"Feature","properties":{"Categorie":"Risque fort","Code":"IC2 (1,0-2,0m.)"},"geometry":{"type":"Polygon","coordinates":[[[-16.49797706382163,15.898605059651464,0.0],[-16.497979051720346,15.89734950461043,0.0],[-16.500719525721184,15.897221312724398,0.0],[-16.50437586111573,15.897370573239199,0.0],[-16.50483749123413,15.898764827273766,0.0],[-16.505170251907526,15.901033394801471,0.0],[-16.50504234907999,15.902038715759572,0.0],[-16.50437619071557,15.903484494398166,0.0],[-16.505151443152204,15.904570865465814,0.0],[-16.504804733551577,15.906494798724578,0.0],[-16.503992466521655,15.906500456456385,0.0],[-16.503777226749985,15.907899422898579,0.0],[-16.503028904923088,15.910437542766319,0.0],[-16.502537052432203,15.911052358016029,0.0],[-16.50223385087444,15.906687378962271,0.0],[-16.502811079974016,15.905416907591475,0.0],[-16.502439046229558,15.903934685160932,0.0],[-16.50125995186868,15.903156806254097,0.0],[-16.50043344699934,15.901241027008119,0.0],[-16.497177345935217,15.900302853823,0.0],[-16.49590650908534,15.899318140440169,0.0],[-16.49797706382163,15.898605059651464,0.0]]]}},{"type":"Feature","properties":{"Categorie":"Risque fort","Code":"IC2 (1,0-2,0m.)"},"geometry":{"type":"Polygon","coordinates":[[[-16.512413135682404,15.941517070511724,0.0],[-16.511508830775064,15.935278515274835,0.0],[-16.512966451601248,15.93103224369254,0.0],[-16.513331050374497,15.93035905874144,0.0],[-16.513919990855932,15.931877693967566,0.0],[-16.515002446882168,15.935644130063764,0.0],[-16.514954073147344,15.939749985421448,0.0],[-16.51473403358466,15.943187310116047,0.0],[-16.512373294187135,15.943967106992778,0.0],[-16.512413135682404,15.941517070511724,0.0]]]}},{"type":"Feature","properties":{"Categorie":"Risque moyen","Code":"IC3 (0,5-1,0m.)"},"geometry":{"type":"Polygon","coordinates":[[[-16.49835928113062,15.91973915023644,0.0],[-16.497547929332377,15.919875794336326,0.0],[-16.496521279689027,15.921411398548873,0.0],[-16.49517385898605,15.922294157437525,0.0],[-16.49399273807098,15.921254234437654,0.0],[-16.493700011974504,15.918286633348165,0.0],[-16.494833315644627,15.912863584994607,0.0],[-16.4955402507906,15.913104338645507,0.0],[-16.497525864390852,15.913090575374172,0.0],[-16.4980976383983,15.911077745256062,0.0],[-16.504009604521404,15.911080318208356,0.0],[-16.505186318923734,15.911530662457729,0.0],[-16.505394105145363,15.912162440795553,0.0],[-16.504968647376582,15.912602115016153,0.0],[-16.503306080418227,15.91357445611263,0.0],[-16.503347482487793,15.9168658576765,0.0],[-16.50206896283608,15.914865898490905,0.0],[-16.500455875270053,15.915668651005404,0.0],[-16.500013020280996,15.916807172014519,0.0],[-16.499576641232217,15.91881906533243,0.0],[-16.498993354899973,15.920040443522703,0.0],[-16.49835928113062,15.91973915023644,0.0]]]}},{"type":"Feature","properties":{"Categorie":"Risque moyen","Code":"IC3 (0,5-1,0m.)"},"geometry":{"type":"Polygon","coordinates":[[[-16.490401367432973,15.889404622006891,0.0],[-16.493285336147544,15.888860667643716,0.0],[-16.494822070831646,15.88919941661877,0.0],[-16.497091422010296,15.890974226656686,0.0],[-16.497347803618496,15.892844846522397,0.0],[-16.496351223018678,15.892327695335855,0.0],[-16.49563248180314,15.892769380280354,0.0],[-16.495247520733457,15.891816739023009,0.0],[-16.494656410030966,15.891209431942011,0.0],[-16.49212406399641,15.890484517316796,0.0],[-16.49084267784684,15.891885375828785,0.0],[-16.489665945875693,15.891413105604173,0.0],[-16.490401367432973,15.889404622006891,0.0]]]}},{"type":"Feature","properties":{"Categorie":"Risque moyen","Code":"IC3 (0,5-1,0m.)"},"geometry":{"type":"Polygon","coordinates":[[[-16.499040125969227,15.886004061665012,0.0],[-16.499911836434098,15.881849269824956,0.0],[-16.50057991153454,15.88066551821807,0.0],[-16.502333772847205,15.879867265690269,0.0],[-16.50395485280006,15.879419290929421,0.0],[-16.504171375773804,15.878194998339497,0.0],[-16.50529774460251,15.87796880876273,0.0],[-16.506331274578457,15.877393892498079,0.0],[-16.50690289066988,15.875381048916006,0.0],[-16.507112575034082,15.873239712701572,0.0],[-16.508773832484334,15.872136363101268,0.0],[-16.509839850101947,15.875928295242165,0.0],[-16.509580846150097,15.87750225429249,0.0],[-16.507969221804554,15.879216659373165,0.0],[-16.507171033410877,15.881100071352185,0.0],[-16.506558185785952,15.883637253859169,0.0],[-16.505255523156542,15.88443240151134,0.0],[-16.5031737984409,15.883617133403364,0.0],[-16.50191203254401,15.88384425485419,0.0],[-16.50097387667526,15.885117227294707,0.0],[-16.49999608619809,15.887132878546751,0.0],[-16.499040125969227,15.886004061665012,0.0]]]}},{"type":"Feature","properties":{"Categorie":"Risque moyen","Code":"IC3 (0,5-1,0m.)"},"geometry":{"type":"Polygon","coordinates":[[[-16.45701151550882,15.887421348776533,0.0],[-16.456779933816705,15.886593146235914,0.0],[-16.455914444584497,15.885463509941541,0.0],[-16.45473718835867,15.884903699895583,0.0],[-16.453784608173496,15.884211357248994,0.0],[-16.452966773515552,15.88343076100164,0.0],[-16.452100067225217,15.88212642730116,0.0],[-16.45272613276746,15.881336130263781,0.0],[-16.454665097660126,15.881148411360213,0.0],[-16.457315945843735,15.87955838409199,0.0],[-16.460004388034594,15.873797424026478,0.0],[-16.458983080116674,15.87843897599591,0.0],[-16.45903731961015,15.879705090265986,0.0],[-16.457872502540127,15.880870245058519,0.0],[-16.45745107666684,15.881877535239564,0.0],[-16.45776975469072,15.882268433207136,0.0],[-16.45921537226089,15.882498879071804,0.0],[-16.45978269537784,15.882953603486046,0.0],[-16.459524708919144,15.884724048568142,0.0],[-16.45879151847415,15.88630117724381,0.0],[-16.45755976708231,15.887575963604553,0.0],[-16.45689059957975,15.889431063014161,0.0],[-16.45701151550882,15.887421348776533,0.0]]]}},{"type":"Feature","properties":{"Categorie":"Risque moyen","Code":"IC3 (0,5-1,0m.)"},"geometry":{"type":"Polygon","coordinates":[[[-16.45717600862619,15.89225142399799,0.0],[-16.46020244654821,15.892667717508372,0.0],[-16.46187738622566,15.89339881382316,0.0],[-16.46377479943871,15.89369167366081,0.0],[-16.466250933782995,15.893669431390464,0.0],[-16.4652692722011,15.895204593308481,0.0],[-16.464552655997807,15.895951867379125,0.0],[-16.464565296238245,15.897698644445587,0.0],[-16.462605130396852,15.89965530649475,0.0],[-16.46232964504469,15.899002097185189,0.0],[-16.45973010792682,15.895220240945402,0.0],[-16.459453379426773,15.894392348282341,0.0],[-16.45633132692354,15.893234271276944,0.0],[-16.45506314714786,15.89258773603567,0.0],[-16.45717600862619,15.89225142399799,0.0]]]}},{"type":"Feature","properties":{"Categorie":"Risque faible","Code":"IC4 (<-0,5m.)"},"geometry":{"type":"Polygon","coordinates":[[[-16.44995423508716,15.884935822641879,0.0],[-16.450952868213086,15.885758889379579,0.0],[-16.451368358219092,15.887066255853515,0.0],[-16.452135757075425,15.88710477523053,0.0],[-16.452938880095164,15.885832897798847,0.0],[-16.454474922492306,15.886084602059682,0.0],[-16.4551652509344,15.887957843285422,0.0],[-16.455036471769613,15.8888758168911,0.0],[-16.453831632096193,15.890761808385523,0.0],[-16.453694166482514,15.891704966668224,0.0],[-16.452776862323947,15.890678757210422,0.0],[-16.44845267984513,15.88733865773352,0.0],[-16.44995423508716,15.884935822641879,0.0]]]}},{"type":"Feature","properties":{"Categorie":"Risque faible","Code":"IC4 (<-0,5m.)"},"geometry":{"type":"Polygon","coordinates":[[[-16.458983080116674,15.87843897599591,0.0],[-16.460004388034594,15.873797424026478,0.0],[-16.46103584275743,15.872917027732283,0.0],[-16.461520191851392,15.871254231935978,0.0],[-16.462735568116198,15.870852975419957,0.0],[-16.46322305095239,15.86962687273211,0.0],[-16.464528650441853,15.869224997129407,0.0],[-16.466106217192458,15.868995958592684,0.0],[-16.46605288971938,15.867860856900606,0.0],[-16.467263811425543,15.866848204365718,0.0],[-16.468035241058622,15.867454376793791,0.0],[-16.468763771292142,15.868366538423034,0.0],[-16.468453320333566,15.869111062185516,0.0],[-16.467466405332008,15.86990384493165,0.0],[-16.46760966374139,15.870994663965977,0.0],[-16.469156044525196,15.872687363677478,0.0],[-16.469566865514082,15.873339647764116,0.0],[-16.470913788953894,15.87241339357284,0.0],[-16.47124272436522,15.872662268883516,0.0],[-16.4707074734591,15.873517502616348,0.0],[-16.46902309511533,15.874577062136053,0.0],[-16.46720440383669,15.872667851208908,0.0],[-16.466382782137334,15.871363271429535,0.0],[-16.465524260150026,15.871194400353026,0.0],[-16.465259859438888,15.872069623695767,0.0],[-16.46419088005796,15.873998412261214,0.0],[-16.462348539992,15.87505899156854,0.0],[-16.460601140776372,15.876773991312723,0.0],[-16.45903731961015,15.879705090265986,0.0],[-16.458983080116674,15.87843897599591,0.0]]]}},{"type":"Feature","properties":{"Categorie":"Risque faible","Code":"IC4 (<-0,5m.)"},"geometry":{"type":"Polygon","coordinates":[[[-16.459524708919144,15.884724048568142,0.0],[-16.45978269537784,15.882953603486046,0.0],[-16.45921537226089,15.882498879071804,0.0],[-16.45776975469072,15.882268433207136,0.0],[-16.45745107666684,15.881877535239564,0.0],[-16.457872502540127,15.880870245058519,0.0],[-16.45903731961015,15.879705090265986,0.0],[-16.4604502455335,15.88088015020848,0.0],[-16.462303678462067,15.881348016115439,0.0],[-16.463119013745793,15.881779218758691,0.0],[-16.463892386551645,15.882647418403572,0.0],[-16.464085497358,15.88439297627207,0.0],[-16.461988096002628,15.88763886816819,0.0],[-16.46090735823814,15.887951874770968,0.0],[-16.45991182518827,15.887565554031113,0.0],[-16.45879151847415,15.88630117724381,0.0],[-16.459524708919144,15.884724048568142,0.0]]]}},{"type":"Feature","properties":{"Categorie":"Risque faible","Code":"IC4 (<-0,5m.)"},"geometry":{"type":"Polygon","coordinates":[[[-16.452665746415526,15.869763496640315,0.0],[-16.45222018838949,15.87055258042198,0.0],[-16.452293497700293,15.87133818215049,0.0],[-16.45365964586856,15.871116109762612,0.0],[-16.453091378043784,15.87249013043095,0.0],[-16.451207303869417,15.874031289237639,0.0],[-16.45012349114886,15.873907539658251,0.0],[-16.449710541948875,15.872949524842456,0.0],[-16.450745166962164,15.87250587213827,0.0],[-16.45212604070713,15.870007313704134,0.0],[-16.452479483754757,15.868956817084445,0.0],[-16.452665746415526,15.869763496640315,0.0]]]}},{"type":"Feature","properties":{"Categorie":"Risque faible","Code":"IC4 (<-0,5m.)"},"geometry":{"type":"Polygon","coordinates":[[[-16.47350710718418,15.850513573838061,0.0],[-16.478195174525958,15.849960311872083,0.0],[-16.47820757564112,15.851663416262923,0.0],[-16.477502911939755,15.854026484902716,0.0],[-16.476650178263352,15.85464370072926,0.0],[-16.47648623935991,15.856915737415854,0.0],[-16.476223488739294,15.858009316455865,0.0],[-16.475455568583595,15.857883534804316,0.0],[-16.473471427402778,15.858028057604747,0.0],[-16.4726088395925,15.857291507630286,0.0],[-16.472279406728816,15.85541586883756,0.0],[-16.4707340959149,15.85385418834053,0.0],[-16.469516308949988,15.853906124439552,0.0],[-16.469793956012058,15.854865016891777,0.0],[-16.4703886792506,15.855996442989657,0.0],[-16.47129541956742,15.856601688212205,0.0],[-16.47098499234633,15.857346214078122,0.0],[-16.469858365106923,15.857528549440646,0.0],[-16.469329625102034,15.859279002484552,0.0],[-16.469210721303266,15.86155073383533,0.0],[-16.46853650031854,15.86190468056335,0.0],[-16.46789570223667,15.860642547884646,0.0],[-16.4680124096248,15.858065129272005,0.0],[-16.46887079474952,15.851988949322227,0.0],[-16.47350710718418,15.850513573838061,0.0]]]}},{"type":"Feature","properties":{"Categorie":"Risque faible","Code":"IC4 (<-0,5m.)"},"geometry":{"type":"Polygon","coordinates":[[[-16.48931568565998,15.923513786344264,0.0],[-16.488613318116677,15.920068618480242,0.0],[-16.488455738026094,15.917056400483029,0.0],[-16.488657904108823,15.913867016542374,0.0],[-16.487704433283763,15.913087508806708,0.0],[-16.487153906082078,15.9118685099256,0.0],[-16.488197957430963,15.911159849141699,0.0],[-16.4892125178409,15.911043676534712,0.0],[-16.4899320213477,15.90763236771177,0.0],[-16.49081154086727,15.906035032997286,0.0],[-16.49028482879826,15.908047538317136,0.0],[-16.48998792628569,15.910626181431164,0.0],[-16.490639989558822,15.913372958638554,0.0],[-16.490294098130917,15.915427886753186,0.0],[-16.49081015618695,15.918088257685744,0.0],[-16.490716005799207,15.92367880077906,0.0],[-16.490043241775787,15.924251171104935,0.0],[-16.48931568565998,15.923513786344264,0.0]]]}},{"type":"Feature","properties":{"Categorie":"Risque faible","Code":"IC4 (<-0,5m.)"},"geometry":{"type":"Polygon","coordinates":[[[-16.495328990989243,15.90665887043467,0.0],[-16.495288319361595,15.901156603006912,0.0],[-16.49590650908534,15.899318140440169,0.0],[-16.497177345935217,15.900302853823,0.0],[-16.50043344699934,15.901241027008119,0.0],[-16.50125995186868,15.903156806254097,0.0],[-16.502439046229558,15.903934685160932,0.0],[-16.502811079974016,15.905416907591475,0.0],[-16.50223385087444,15.906687378962271,0.0],[-16.502537052432203,15.911052358016029,0.0],[-16.4980976383983,15.911077745256062,0.0],[-16.497525864390852,15.913090575374172,0.0],[-16.4955402507906,15.913104338645507,0.0],[-16.494833315644627,15.912863584994607,0.0],[-16.495328990989243,15.90665887043467,0.0]]]}},{"type":"Feature","properties":{"Categorie":"Risque moyen","Code":"IC3 (0,5-1,0m.)"},"geometry":{"type":"Polygon","coordinates":[[[-16.474212126742902,15.942902526658314,0.0],[-16.47386889208461,15.937601572824443,0.0],[-16.473875272090968,15.937566202574013,0.0],[-16.474326550308703,15.936718105858466,0.0],[-16.474635146238167,15.935711556788846,0.0],[-16.475854696897628,15.93583422689677,0.0],[-16.47631784481084,15.937446891615954,0.0],[-16.477046051401338,15.938271657114868,0.0],[-16.47696920637856,15.940106373987565,0.0],[-16.47585490811728,15.942035538750192,0.0],[-16.47428317768722,15.94313807514739,0.0],[-16.474212126742902,15.942902526658314,0.0]]]}},{"type":"Feature","properties":{"Categorie":"Risque moyen","Code":"IC3 (0,5-1,0m.)"},"geometry":{"type":"Polygon","coordinates":[[[-16.517609444768706,15.875917435413736,0.0],[-16.517284132244,15.874653265197347,0.0],[-16.51706444198189,15.869414313252433,0.0],[-16.517816401504493,15.867400185724643,0.0],[-16.519609298806365,15.865815459522421,0.0],[-16.519870507888683,15.864547174081803,0.0],[-16.519223670782026,15.862521023638712,0.0],[-16.518423717499854,15.852089313543543,0.0],[-16.518802623190926,15.84846197935431,0.0],[-16.51945676695135,15.845444106634986,0.0],[-16.521462600078664,15.842198395388818,0.0],[-16.52524197940842,15.834835148637293,0.0],[-16.52569536993507,15.835137654580082,0.0],[-16.522371436870163,15.849091997176457,0.0],[-16.521074991919544,15.8566998163039,0.0],[-16.520367114241587,15.8645873578642,0.0],[-16.518297350928922,15.877397413889335,0.0],[-16.517609444768706,15.875917435413736,0.0]]]}},{"type":"Feature","properties":{"Categorie":"Risque moyen","Code":"IC3 (0,5-1,0m.)"},"geometry":{"type":"Polygon","coordinates":[[[-16.51075596523791,15.870528376575622,0.0],[-16.509222934660837,15.870670085444099,0.0],[-16.50849455047574,15.869801745210747,0.0],[-16.50818487043917,15.864563390488179,0.0],[-16.50762432207727,15.861990707820793,0.0],[-16.507745389655103,15.86006834205318,0.0],[-16.509256254794437,15.85695717935339,0.0],[-16.51015438449089,15.853738374586603,0.0],[-16.512516981188977,15.846497081810645,0.0],[-16.514095282529365,15.847157500903895,0.0],[-16.513736162541566,15.850424410594885,0.0],[-16.513623941612543,15.853525828821168,0.0],[-16.513048528584132,15.855014659390962,0.0],[-16.512220221118163,15.861920446554262,0.0],[-16.51169884584124,15.864609847301786,0.0],[-16.511550440775665,15.86891246568101,0.0],[-16.51075596523791,15.870528376575622,0.0]]]}},{"type":"Feature","properties":{"Categorie":"Risque très fort","Code":"IC1 (>2,0m.)"},"geometry":{"type":"Polygon","coordinates":[[[-16.5032750700102,15.944812626652354,0.0],[-16.504160724855375,15.936465337023687,0.0],[-16.505164590270816,15.931872903886621,0.0],[-16.50630837026124,15.927890881435275,0.0],[-16.50632451847294,15.924004071707051,0.0],[-16.50736202676081,15.917882920726276,0.0],[-16.508830075425845,15.915034065101988,0.0],[-16.50905879544697,15.909398938723776,0.0],[-16.508967731772596,15.903241994957659,0.0],[-16.508451169017007,15.900538012660496,0.0],[-16.50888503045387,15.89215018569416,0.0],[-16.51028726351782,15.886550527639455,0.0],[-16.510510324952854,15.874102776680862,0.0],[-16.509222934660837,15.870670085444099,0.0],[-16.51075596523791,15.870528376575622,0.0],[-16.511550440775665,15.86891246568101,0.0],[-16.51279829492334,15.868346944029602,0.0],[-16.51388380411045,15.861144581510853,0.0],[-16.515002398294254,15.847047442712391,0.0],[-16.51468019813126,15.84694597658255,0.0],[-16.514095282529365,15.847157500903895,0.0],[-16.512516981188977,15.846497081810645,0.0],[-16.517643355888143,15.832390891701051,0.0],[-16.519052051763715,15.82919559267768,0.0],[-16.527392408379477,15.828730019449772,0.0],[-16.52763365362254,15.832683828853664,0.0],[-16.52763362918308,15.832683943751256,0.0],[-16.52569536993507,15.835137654580082,0.0],[-16.52524197940842,15.834835148637293,0.0],[-16.521462600078664,15.842198395388818,0.0],[-16.51945676695135,15.845444106634986,0.0],[-16.518802623190926,15.84846197935431,0.0],[-16.518423717499854,15.852089313543543,0.0],[-16.519223670782026,15.862521023638712,0.0],[-16.519870507888683,15.864547174081803,0.0],[-16.519609298806365,15.865815459522421,0.0],[-16.517816401504493,15.867400185724643,0.0],[-16.51706444198189,15.869414313252433,0.0],[-16.517284132244,15.874653265197347,0.0],[-16.517609444768706,15.875917435413736,0.0],[-16.518297350928922,15.877397413889335,0.0],[-16.518321616258724,15.877738035052067,0.0],[-16.51548964185439,15.887963489250284,0.0],[-16.51520628735492,15.891984876052527,0.0],[-16.5144471010195,15.895251233435596,0.0],[-16.514455612531492,15.896388762968112,0.0],[-16.513223375520283,15.899279235854635,0.0],[-16.512150678786945,15.902547812864587,0.0],[-16.511490750176748,15.908619429467564,0.0],[-16.511737071777553,15.920600106267734,0.0],[-16.51248839764307,15.92673770850579,0.0],[-16.51321874392818,15.930069466616478,0.0],[-16.513331050374497,15.93035905874144,0.0],[-16.512966451601248,15.93103224369254,0.0],[-16.511508830775064,15.935278515274835,0.0],[-16.512413135682404,15.941517070511724,0.0],[-16.512373294187135,15.943967106992778,0.0],[-16.507654285224096,15.94552588491401,0.0],[-16.503448196676352,15.945749100163496,0.0],[-16.5032750700102,15.944812626652354,0.0]]]}},{"type":"Feature","properties":{"Categorie":"Risque très fort","Code":"IC1 (>2,0m.)"},"geometry":{"type":"Polygon","coordinates":[[[-16.482080784515368,15.893240933806533,0.0],[-16.482511650657393,15.892552459143976,0.0],[-16.483054961157283,15.892337802968413,0.0],[-16.484199542848604,15.892382679195661,0.0],[-16.484587901529267,15.893329192803103,0.0],[-16.48421152733501,15.89401729694835,0.0],[-16.48235977748185,15.894135469623631,0.0],[-16.482080784515368,15.893240933806533,0.0]]]}},{"type":"Feature","properties":{"Categorie":"Risque fort","Code":"IC2 (1,0-2,0m.)"},"geometry":{"type":"Polygon","coordinates":[[[-16.474016385006927,15.884573797109262,0.0],[-16.47383394161007,15.885708789508056,0.0],[-16.473870968705093,15.887053215903531,0.0],[-16.474531499026398,15.887971530832868,0.0],[-16.474542058032643,15.889421601927188,0.0],[-16.47331921627224,15.889851798846648,0.0],[-16.471021414046312,15.892319509158543,0.0],[-16.470808067989616,15.892953751353645,0.0],[-16.470930833510707,15.894851286887981,0.0],[-16.47213413757859,15.89547588395318,0.0],[-16.47203436834058,15.896742143374633,0.0],[-16.47116564325343,15.8971699191891,0.0],[-16.470409719924632,15.89812424943086,0.0],[-16.469649385733234,15.89847218340861,0.0],[-16.469764296859527,15.899288755997613,0.0],[-16.470175675081048,15.899713106280322,0.0],[-16.470661208720077,15.904426318275627,0.0],[-16.469576901802274,15.910996646105696,0.0],[-16.46828903351218,15.913747496972842,0.0],[-16.468179151700106,15.91409044988437,0.0],[-16.467522997059703,15.91222938214035,0.0],[-16.467368419608167,15.911908137822754,0.0],[-16.467522645697173,15.911392927897934,0.0],[-16.468166966095296,15.910070235235452,0.0],[-16.467394531262492,15.908757172387917,0.0],[-16.465474749457254,15.907972694656026,0.0],[-16.46225582220984,15.901283089692924,0.0],[-16.46206685963032,15.901071692868367,0.0],[-16.462118218824443,15.900968749804159,0.0],[-16.462605130396852,15.89965530649475,0.0],[-16.464565296238245,15.897698644445587,0.0],[-16.464552655997807,15.895951867379125,0.0],[-16.4652692722011,15.895204593308481,0.0],[-16.466250933782995,15.893669431390464,0.0],[-16.46624037601489,15.892365175963851,0.0],[-16.471270778169288,15.88726867151251,0.0],[-16.472379958934795,15.884321282450374,0.0],[-16.474016385006927,15.884573797109262,0.0]],[[-16.469093062362596,15.895021984391335,0.0],[-16.469841707589914,15.893065789974676,0.0],[-16.470460445195663,15.891980564473162,0.0],[-16.473326507018808,15.88898166294396,0.0],[-16.473482095997245,15.887899586359524,0.0],[-16.473311545528947,15.886925197210756,0.0],[-16.4728985032971,15.886321587254276,0.0],[-16.47238032899262,15.886246017490912,0.0],[-16.47181878394342,15.88769998532098,0.0],[-16.470870091907862,15.888365598143432,0.0],[-16.471068258208057,15.88939253455436,0.0],[-16.471562072065357,15.88986376666762,0.0],[-16.469799726102945,15.891035871994392,0.0],[-16.46914685687143,15.891172141420569,0.0],[-16.46853672034768,15.893443788186348,0.0],[-16.466967129915773,15.89490459331738,0.0],[-16.46618662336197,15.896228204989098,0.0],[-16.465898211811208,15.897785773605353,0.0],[-16.466342516478704,15.898942876283664,0.0],[-16.466914637105052,15.898938993002805,0.0],[-16.467347288486472,15.898487828466193,0.0],[-16.467554532084424,15.897009908894493,0.0],[-16.469093062362596,15.895021984391335,0.0]]]}},{"type":"Feature","properties":{"Categorie":"Risque très fort","Code":"IC1 (>2,0m.)"},"geometry":{"type":"Polygon","coordinates":[[[-16.467394531262492,15.908757172387917,0.0],[-16.468166966095296,15.910070235235452,0.0],[-16.467522645697173,15.911392927897934,0.0],[-16.467368419608167,15.911908137822754,0.0],[-16.465433975277502,15.90788795737113,0.0],[-16.467394531262492,15.908757172387917,0.0]]]}},{"type":"Feature","properties":{"Categorie":"Risque très fort","Code":"IC1 (>2,0m.)"},"geometry":{"type":"Polygon","coordinates":[[[-16.467554532084424,15.897009908894493,0.0],[-16.467347288486472,15.898487828466193,0.0],[-16.466914637105052,15.898938993002805,0.0],[-16.466342516478704,15.898942876283664,0.0],[-16.465898211811208,15.897785773605353,0.0],[-16.46618662336197,15.896228204989098,0.0],[-16.466967129915773,15.89490459331738,0.0],[-16.46853672034768,15.893443788186348,0.0],[-16.46914685687143,15.891172141420569,0.0],[-16.469799726102945,15.891035871994392,0.0],[-16.471562072065357,15.88986376666762,0.0],[-16.471068258208057,15.88939253455436,0.0],[-16.470870091907862,15.888365598143432,0.0],[-16.47181878394342,15.88769998532098,0.0],[-16.47238032899262,15.886246017490912,0.0],[-16.4728985032971,15.886321587254276,0.0],[-16.473311545528947,15.886925197210756,0.0],[-16.473482095997245,15.887899586359524,0.0],[-16.473326507018808,15.88898166294396,0.0],[-16.470460445195663,15.891980564473162,0.0],[-16.469841707589914,15.893065789974676,0.0],[-16.469093062362596,15.895021984391335,0.0],[-16.467554532084424,15.897009908894493,0.0]]]}},{"type":"Feature","properties":{"Categorie":"Risque très fort","Code":"IC1 (>2,0m.)"},"geometry":{"type":"Polygon","coordinates":[[[-16.470460445195663,15.891980564473162,0.0],[-16.469841707589914,15.893065789974676,0.0],[-16.469093062362596,15.895021984391335,0.0],[-16.467554532084424,15.897009908894493,0.0],[-16.467347288486472,15.898487828466193,0.0],[-16.466914637105052,15.898938993002805,0.0],[-16.466342516478704,15.898942876283664,0.0],[-16.465898211811208,15.897785773605353,0.0],[-16.46618662336197,15.896228204989098,0.0],[-16.466967129915773,15.89490459331738,0.0],[-16.46853672034768,15.893443788186348,0.0],[-16.46914685687143,15.891172141420569,0.0],[-16.469799726102945,15.891035871994392,0.0],[-16.471562072065357,15.88986376666762,0.0],[-16.471068258208057,15.88939253455436,0.0],[-16.470870091907862,15.888365598143432,0.0],[-16.47181878394342,15.88769998532098,0.0],[-16.47238032899262,15.886246017490912,0.0],[-16.4728985032971,15.886321587254276,0.0],[-16.473311545528947,15.886925197210756,0.0],[-16.473482095997245,15.887899586359524,0.0],[-16.473326507018808,15.88898166294396,0.0],[-16.470460445195663,15.891980564473162,0.0]]]}},{"type":"Feature","properties":{"Categorie":"Risque très fort","Code":"IC1 (>2,0m.)"},"geometry":{"type":"Polygon","coordinates":[[[-16.477071825749054,15.907843530216526,0.0],[-16.475672575537548,15.907809424230265,0.0],[-16.475453957914127,15.906599556365972,0.0],[-16.474578547056463,15.906310234747755,0.0],[-16.474838798639716,15.90486730282486,0.0],[-16.4759877636861,15.904619262445324,0.0],[-16.47696291709645,15.905289502600567,0.0],[-16.47714645164616,15.905703125134101,0.0],[-16.47809592744905,15.906476027412358,0.0],[-16.47802151469869,15.907478450778026,0.0],[-16.477071825749054,15.907843530216526,0.0]]]}}]}