{"type":"FeatureCollection","name":"risques-erosion.geojson","features":[{"type":"Feature","properties":{"id":1,"risque":"Fort"},"geometry":{"type":"LineString","coordinates":[[-16.515447832500936,15.937296419683456],[-16.51500081728177,15.935814314292612]]}},{"type":"Feature","properties":{"id":2,"risque":"Moyen"},"geometry":{"type":"MultiLineString","coordinates":[[[-16.51500081728177,15.935814314292612],[-16.514261283363734,15.93338620978194],[-16.513817345006014,15.931613012546586]],[[-16.51238471968001,15.925890760294218],[-16.51150817756078,15.922389638943766],[-16.511252952603268,15.909111988803618],[-16.51184284488133,15.904580776391844],[-16.51196831459859,15.904225638945615]],[[-16.515433170321888,15.888764937174804],[-16.515301550804686,15.887504533978355],[-16.516514982316046,15.88296894287895],[-16.518263466354817,15.877947997818017]]]}},{"type":"Feature","properties":{"id":3,"risque":"Fort"},"geometry":{"type":"MultiLineString","coordinates":[[[-16.519591899209075,15.873909773599065],[-16.519987207633246,15.871896052278936]],[[-16.521306193360683,15.864030572639987],[-16.5231443453723,15.851231578863663],[-16.52427296611229,15.847576638317216]]]}}]}