{"type":"FeatureCollection","name":"transport-piste.geojson","features":[{"type":"Feature","properties":{"full_id":"w137152707","Type de vo":"piste rurale","Ruines":null,"Niveau":null,"Pont":null,"Abandonné":null,"État de s":null,"Moto autor":null,"motorcar":null,"Véhicule ":null,"Accès":null,"Praticabil":null,"surface":null,"Sens uniqu":null,"Type de pi":null},"geometry":{"type":"LineString","coordinates":[[-16.4985099,15.8876164],[-16.4956668,15.8862027],[-16.4927049,15.8857668],[-16.4905216,15.8849661]]}},{"type":"Feature","properties":{"full_id":"w217855696","Type de vo":"piste rurale","Ruines":null,"Niveau":null,"Pont":null,"Abandonné":null,"État de s":null,"Moto autor":null,"motorcar":null,"Véhicule ":null,"Accès":null,"Praticabil":"4wd_less_than_3.5mt","surface":null,"Sens uniqu":null,"Type de pi":"grade3"},"geometry":{"type":"LineString","coordinates":[[-16.5018188,15.9070813],[-16.5031205,15.907302],[-16.5047794,15.9083526],[-16.5059785,15.9082578],[-16.5060662,15.9084021]]}},{"type":"Feature","properties":{"full_id":"w217855697","Type de vo":"piste rurale","Ruines":null,"Niveau":null,"Pont":null,"Abandonné":null,"État de s":null,"Moto autor":null,"motorcar":null,"Véhicule ":null,"Accès":null,"Praticabil":"4wd_less_than_3.5mt","surface":null,"Sens uniqu":null,"Type de pi":null},"geometry":{"type":"LineString","coordinates":[[-16.5072511,15.9007204],[-16.5067296,15.9030985],[-16.5067317,15.9055899],[-16.5062206,15.9077853]]}},{"type":"Feature","properties":{"full_id":"w217855698","Type de vo":"piste rurale","Ruines":null,"Niveau":null,"Pont":null,"Abandonné":null,"État de s":null,"Moto autor":null,"motorcar":null,"Véhicule ":null,"Accès":null,"Praticabil":"4wd_less_than_3.5mt","surface":null,"Sens uniqu":null,"Type de pi":"grade2"},"geometry":{"type":"LineString","coordinates":[[-16.4978505,15.8972385],[-16.4985366,15.9012198],[-16.5018188,15.9070813],[-16.5014495,15.9099108],[-16.5017146,15.9103608],[-16.5022495,15.9107804],[-16.5031486,15.9109753],[-16.5059883,15.9112144],[-16.5060662,15.9084021]]}},{"type":"Feature","properties":{"full_id":"w397795468","Type de vo":"piste rurale","Ruines":null,"Niveau":null,"Pont":null,"Abandonné":null,"État de s":null,"Moto autor":null,"motorcar":null,"Véhicule ":null,"Accès":null,"Praticabil":null,"surface":null,"Sens uniqu":null,"Type de pi":"grade3"},"geometry":{"type":"LineString","coordinates":[[-16.4375691,15.8675885],[-16.4366419,15.8671178]]}},{"type":"Feature","properties":{"full_id":"w398461755","Type de vo":"piste rurale","Ruines":null,"Niveau":null,"Pont":null,"Abandonné":null,"État de s":null,"Moto autor":null,"motorcar":null,"Véhicule ":null,"Accès":null,"Praticabil":null,"surface":null,"Sens uniqu":null,"Type de pi":"grade3"},"geometry":{"type":"LineString","coordinates":[[-16.473613,15.860983199999989],[-16.4723578,15.8616901]]}},{"type":"Feature","properties":{"full_id":"w398461756","Type de vo":"piste rurale","Ruines":null,"Niveau":null,"Pont":null,"Abandonné":null,"État de s":null,"Moto autor":null,"motorcar":null,"Véhicule ":null,"Accès":null,"Praticabil":null,"surface":null,"Sens uniqu":null,"Type de pi":"grade3"},"geometry":{"type":"LineString","coordinates":[[-16.4723899,15.8608594],[-16.4724919,15.8608284]]}},{"type":"Feature","properties":{"full_id":"w398461759","Type de vo":"piste rurale","Ruines":null,"Niveau":null,"Pont":null,"Abandonné":null,"État de s":null,"Moto autor":null,"motorcar":null,"Véhicule ":null,"Accès":null,"Praticabil":null,"surface":null,"Sens uniqu":null,"Type de pi":"grade3"},"geometry":{"type":"LineString","coordinates":[[-16.4723953,15.8606994],[-16.4732482,15.8611999]]}},{"type":"Feature","properties":{"full_id":"w398466761","Type de vo":"piste rurale","Ruines":null,"Niveau":null,"Pont":null,"Abandonné":null,"État de s":null,"Moto autor":null,"motorcar":null,"Véhicule ":null,"Accès":null,"Praticabil":null,"surface":null,"Sens uniqu":null,"Type de pi":"grade3"},"geometry":{"type":"LineString","coordinates":[[-16.4502529,15.8635344],[-16.449103,15.8631918],[-16.4480803,15.8632403],[-16.4467534,15.8629802],[-16.4459755,15.862717],[-16.4442769,15.8617025]]}},{"type":"Feature","properties":{"full_id":"w482302908","Type de vo":"piste rurale","Ruines":null,"Niveau":null,"Pont":null,"Abandonné":null,"État de s":null,"Moto autor":null,"motorcar":null,"Véhicule ":null,"Accès":null,"Praticabil":null,"surface":"Sable","Sens uniqu":null,"Type de pi":null},"geometry":{"type":"LineString","coordinates":[[-16.5120079,15.8654624],[-16.5114879,15.8655384]]}},{"type":"Feature","properties":{"full_id":"w482302909","Type de vo":"piste rurale","Ruines":null,"Niveau":null,"Pont":null,"Abandonné":null,"État de s":null,"Moto autor":null,"motorcar":null,"Véhicule ":null,"Accès":null,"Praticabil":null,"surface":"Sable","Sens uniqu":null,"Type de pi":"grade4"},"geometry":{"type":"LineString","coordinates":[[-16.5113836,15.8655853],[-16.5113035,15.8648755],[-16.511506,15.863739]]}},{"type":"Feature","properties":{"full_id":"w482302911","Type de vo":"piste rurale","Ruines":null,"Niveau":null,"Pont":null,"Abandonné":null,"État de s":null,"Moto autor":null,"motorcar":null,"Véhicule ":null,"Accès":null,"Praticabil":null,"surface":"Sable","Sens uniqu":null,"Type de pi":null},"geometry":{"type":"LineString","coordinates":[[-16.5114018,15.8668209],[-16.5124166,15.8660558]]}},{"type":"Feature","properties":{"full_id":"w482302915","Type de vo":"piste rurale","Ruines":null,"Niveau":null,"Pont":null,"Abandonné":null,"État de s":null,"Moto autor":null,"motorcar":null,"Véhicule ":null,"Accès":null,"Praticabil":null,"surface":"Sable","Sens uniqu":null,"Type de pi":"grade3"},"geometry":{"type":"LineString","coordinates":[[-16.5114715,15.8655741],[-16.5113836,15.8655853]]}},{"type":"Feature","properties":{"full_id":"w482302918","Type de vo":"piste rurale","Ruines":null,"Niveau":null,"Pont":null,"Abandonné":null,"État de s":null,"Moto autor":null,"motorcar":null,"Véhicule ":null,"Accès":null,"Praticabil":null,"surface":"Sable","Sens uniqu":null,"Type de pi":"grade4"},"geometry":{"type":"LineString","coordinates":[[-16.5125403,15.8654328],[-16.511586,15.8653934]]}},{"type":"Feature","properties":{"full_id":"w482304561","Type de vo":"piste rurale","Ruines":null,"Niveau":null,"Pont":null,"Abandonné":null,"État de s":null,"Moto autor":null,"motorcar":null,"Véhicule ":null,"Accès":null,"Praticabil":null,"surface":"Sable","Sens uniqu":null,"Type de pi":null},"geometry":{"type":"LineString","coordinates":[[-16.5112439,15.8672261],[-16.5122477,15.8675697],[-16.5123523,15.8674045]]}},{"type":"Feature","properties":{"full_id":"w482306083","Type de vo":"piste rurale","Ruines":null,"Niveau":null,"Pont":null,"Abandonné":null,"État de s":null,"Moto autor":null,"motorcar":null,"Véhicule ":null,"Accès":null,"Praticabil":null,"surface":"Sable","Sens uniqu":null,"Type de pi":null},"geometry":{"type":"LineString","coordinates":[[-16.5105713,15.871628],[-16.5093428,15.8716409]]}},{"type":"Feature","properties":{"full_id":"w482306084","Type de vo":"piste rurale","Ruines":null,"Niveau":null,"Pont":null,"Abandonné":null,"État de s":null,"Moto autor":null,"motorcar":null,"Véhicule ":null,"Accès":null,"Praticabil":null,"surface":"Sable","Sens uniqu":null,"Type de pi":null},"geometry":{"type":"LineString","coordinates":[[-16.5093428,15.8716409],[-16.5093053,15.8733772],[-16.5096084,15.8748993],[-16.5098927,15.8755082]]}},{"type":"Feature","properties":{"full_id":"w482306085","Type de vo":"piste rurale","Ruines":null,"Niveau":null,"Pont":null,"Abandonné":null,"État de s":null,"Moto autor":null,"motorcar":null,"Véhicule ":null,"Accès":null,"Praticabil":null,"surface":"Sable","Sens uniqu":null,"Type de pi":null},"geometry":{"type":"LineString","coordinates":[[-16.5075954,15.8727864],[-16.5092436,15.8723297]]}},{"type":"Feature","properties":{"full_id":"w482306086","Type de vo":"piste rurale","Ruines":null,"Niveau":null,"Pont":null,"Abandonné":null,"État de s":null,"Moto autor":null,"motorcar":null,"Véhicule ":null,"Accès":null,"Praticabil":null,"surface":"Sable","Sens uniqu":null,"Type de pi":null},"geometry":{"type":"LineString","coordinates":[[-16.5089806,15.8673031],[-16.5085613,15.8682311]]}},{"type":"Feature","properties":{"full_id":"w482306087","Type de vo":"piste rurale","Ruines":null,"Niveau":null,"Pont":null,"Abandonné":null,"État de s":null,"Moto autor":null,"motorcar":null,"Véhicule ":null,"Accès":null,"Praticabil":null,"surface":"Sable","Sens uniqu":null,"Type de pi":null},"geometry":{"type":"LineString","coordinates":[[-16.5063653,15.8746074],[-16.5072842,15.8734004],[-16.5077456,15.8723891],[-16.5080299,15.8705212],[-16.5079963,15.8687294]]}},{"type":"Feature","properties":{"full_id":"w482307054","Type de vo":"piste rurale","Ruines":null,"Niveau":null,"Pont":null,"Abandonné":null,"État de s":null,"Moto autor":null,"motorcar":null,"Véhicule ":null,"Accès":null,"Praticabil":null,"surface":"Sable","Sens uniqu":null,"Type de pi":null},"geometry":{"type":"LineString","coordinates":[[-16.5093428,15.8716409],[-16.508911,15.8679902],[-16.5087723,15.8677869]]}},{"type":"Feature","properties":{"full_id":"w482309151","Type de vo":"piste rurale","Ruines":null,"Niveau":null,"Pont":null,"Abandonné":null,"État de s":null,"Moto autor":null,"motorcar":null,"Véhicule ":null,"Accès":null,"Praticabil":null,"surface":"Sable","Sens uniqu":null,"Type de pi":null},"geometry":{"type":"LineString","coordinates":[[-16.49942,15.8602539],[-16.4990054,15.8597261],[-16.4976672,15.8587071],[-16.4961651,15.8578041],[-16.4958754,15.8564934],[-16.4953819,15.8558741],[-16.4944592,15.8551775],[-16.4937082,15.8543106],[-16.493617,15.8539803]]}},{"type":"Feature","properties":{"full_id":"w482309152","Type de vo":"piste rurale","Ruines":null,"Niveau":null,"Pont":null,"Abandonné":null,"État de s":null,"Moto autor":null,"motorcar":null,"Véhicule ":null,"Accès":null,"Praticabil":null,"surface":"Sable","Sens uniqu":null,"Type de pi":null},"geometry":{"type":"LineString","coordinates":[[-16.5053865,15.8637461],[-16.5043512,15.8632919],[-16.502994,15.8623425],[-16.5007785,15.8613879],[-16.4994932,15.8602539],[-16.4978522,15.8606999]]}},{"type":"Feature","properties":{"full_id":"w762166681","Type de vo":"piste rurale","Ruines":null,"Niveau":null,"Pont":null,"Abandonné":null,"État de s":null,"Moto autor":null,"motorcar":null,"Véhicule ":null,"Accès":null,"Praticabil":null,"surface":"Sable","Sens uniqu":null,"Type de pi":null},"geometry":{"type":"LineString","coordinates":[[-16.5080671,15.8687132],[-16.5079963,15.8687294]]}},{"type":"Feature","properties":{"full_id":"w762166682","Type de vo":"piste rurale","Ruines":null,"Niveau":"1","Pont":"yes","Abandonné":null,"État de s":null,"Moto autor":null,"motorcar":null,"Véhicule ":null,"Accès":null,"Praticabil":null,"surface":"Sable","Sens uniqu":null,"Type de pi":null},"geometry":{"type":"LineString","coordinates":[[-16.5085613,15.8682311],[-16.5080671,15.8687132]]}},{"type":"Feature","properties":{"full_id":"w963195113","Type de vo":"piste rurale","Ruines":null,"Niveau":null,"Pont":null,"Abandonné":null,"État de s":null,"Moto autor":null,"motorcar":null,"Véhicule ":null,"Accès":null,"Praticabil":null,"surface":null,"Sens uniqu":null,"Type de pi":null},"geometry":{"type":"LineString","coordinates":[[-16.4696968,15.9082709],[-16.4698389,15.9097206],[-16.4695492,15.9102313],[-16.4689028,15.9107808],[-16.4685541,15.9135459],[-16.468222190567666,15.914212522096044]]}},{"type":"Feature","properties":{"full_id":"w963195114","Type de vo":"piste rurale","Ruines":null,"Niveau":null,"Pont":null,"Abandonné":null,"État de s":null,"Moto autor":null,"motorcar":null,"Véhicule ":null,"Accès":null,"Praticabil":null,"surface":null,"Sens uniqu":null,"Type de pi":null},"geometry":{"type":"LineString","coordinates":[[-16.4706185,15.9101769],[-16.4701152,15.9094833],[-16.4695895,15.9076776],[-16.4692998,15.9073423]]}},{"type":"Feature","properties":{"full_id":"w1013624864","Type de vo":"piste rurale","Ruines":null,"Niveau":null,"Pont":null,"Abandonné":null,"État de s":null,"Moto autor":null,"motorcar":null,"Véhicule ":null,"Accès":null,"Praticabil":null,"surface":null,"Sens uniqu":null,"Type de pi":null},"geometry":{"type":"LineString","coordinates":[[-16.4923615,15.9452172],[-16.4928455,15.9457327],[-16.4930975,15.9465966],[-16.4936301,15.9474644],[-16.493676044738745,15.947888652758966]]}},{"type":"Feature","properties":{"full_id":"w1013624865","Type de vo":"piste rurale","Ruines":null,"Niveau":null,"Pont":null,"Abandonné":null,"État de s":null,"Moto autor":null,"motorcar":null,"Véhicule ":null,"Accès":null,"Praticabil":null,"surface":null,"Sens uniqu":null,"Type de pi":null},"geometry":{"type":"LineString","coordinates":[[-16.4920261,15.9477854],[-16.49360713720319,15.94789378233517]]}},{"type":"Feature","properties":{"full_id":"w1013624866","Type de vo":"piste rurale","Ruines":null,"Niveau":null,"Pont":null,"Abandonné":null,"État de s":null,"Moto autor":null,"motorcar":null,"Véhicule ":null,"Accès":null,"Praticabil":null,"surface":null,"Sens uniqu":null,"Type de pi":null},"geometry":{"type":"LineString","coordinates":[[-16.4933211,15.9439775],[-16.4936952,15.9450955],[-16.4940489,15.9455959]]}},{"type":"Feature","properties":{"full_id":"w1013624867","Type de vo":"piste rurale","Ruines":null,"Niveau":null,"Pont":null,"Abandonné":null,"État de s":null,"Moto autor":null,"motorcar":null,"Véhicule ":null,"Accès":null,"Praticabil":null,"surface":null,"Sens uniqu":null,"Type de pi":null},"geometry":{"type":"LineString","coordinates":[[-16.4933211,15.9439775],[-16.4930325,15.9431019]]}},{"type":"Feature","properties":{"full_id":"w1013624870","Type de vo":"piste rurale","Ruines":null,"Niveau":null,"Pont":null,"Abandonné":null,"État de s":null,"Moto autor":null,"motorcar":null,"Véhicule ":null,"Accès":null,"Praticabil":null,"surface":null,"Sens uniqu":null,"Type de pi":null},"geometry":{"type":"LineString","coordinates":[[-16.4931369,15.942351],[-16.494044,15.9422674]]}},{"type":"Feature","properties":{"full_id":"w1013624874","Type de vo":"piste rurale","Ruines":null,"Niveau":null,"Pont":null,"Abandonné":null,"État de s":null,"Moto autor":null,"motorcar":null,"Véhicule ":null,"Accès":null,"Praticabil":null,"surface":null,"Sens uniqu":null,"Type de pi":null},"geometry":{"type":"LineString","coordinates":[[-16.4920462,15.9434344],[-16.4914883,15.9434968],[-16.4910522,15.9433269]]}},{"type":"Feature","properties":{"full_id":"w1013624881","Type de vo":"piste rurale","Ruines":null,"Niveau":null,"Pont":null,"Abandonné":null,"État de s":null,"Moto autor":null,"motorcar":null,"Véhicule ":null,"Accès":null,"Praticabil":null,"surface":null,"Sens uniqu":null,"Type de pi":null},"geometry":{"type":"LineString","coordinates":[[-16.4914425,15.9425862],[-16.4909282,15.9424826]]}},{"type":"Feature","properties":{"full_id":"w1013624891","Type de vo":"piste rurale","Ruines":null,"Niveau":null,"Pont":null,"Abandonné":null,"État de s":null,"Moto autor":null,"motorcar":null,"Véhicule ":null,"Accès":null,"Praticabil":null,"surface":null,"Sens uniqu":null,"Type de pi":null},"geometry":{"type":"LineString","coordinates":[[-16.492019,15.9408911],[-16.4903399,15.9413889]]}},{"type":"Feature","properties":{"full_id":"w1013624892","Type de vo":"piste rurale","Ruines":null,"Niveau":null,"Pont":null,"Abandonné":null,"État de s":null,"Moto autor":null,"motorcar":null,"Véhicule ":null,"Accès":null,"Praticabil":null,"surface":null,"Sens uniqu":null,"Type de pi":null},"geometry":{"type":"LineString","coordinates":[[-16.4911625,15.941137],[-16.4906418,15.9419695],[-16.4909282,15.9424826]]}},{"type":"Feature","properties":{"full_id":"w1013624899","Type de vo":"piste rurale","Ruines":null,"Niveau":null,"Pont":null,"Abandonné":null,"État de s":null,"Moto autor":null,"motorcar":null,"Véhicule ":null,"Accès":null,"Praticabil":null,"surface":null,"Sens uniqu":null,"Type de pi":null},"geometry":{"type":"LineString","coordinates":[[-16.4920511,15.9398079],[-16.4917898,15.9396385],[-16.490967,15.9400801],[-16.490576,15.9406348]]}},{"type":"Feature","properties":{"full_id":"w1013624900","Type de vo":"piste rurale","Ruines":null,"Niveau":null,"Pont":null,"Abandonné":null,"État de s":null,"Moto autor":null,"motorcar":null,"Véhicule ":null,"Accès":null,"Praticabil":null,"surface":null,"Sens uniqu":null,"Type de pi":null},"geometry":{"type":"LineString","coordinates":[[-16.4907484,15.9405078],[-16.4909345,15.9412022]]}},{"type":"Feature","properties":{"full_id":"w1013624904","Type de vo":"piste rurale","Ruines":null,"Niveau":null,"Pont":null,"Abandonné":null,"État de s":null,"Moto autor":null,"motorcar":null,"Véhicule ":null,"Accès":null,"Praticabil":null,"surface":null,"Sens uniqu":null,"Type de pi":null},"geometry":{"type":"LineString","coordinates":[[-16.4921958,15.9391018],[-16.492036,15.939106],[-16.4919347,15.9397094]]}},{"type":"Feature","properties":{"full_id":"w1013624905","Type de vo":"piste rurale","Ruines":null,"Niveau":null,"Pont":null,"Abandonné":null,"État de s":null,"Moto autor":null,"motorcar":null,"Véhicule ":null,"Accès":null,"Praticabil":null,"surface":null,"Sens uniqu":null,"Type de pi":null},"geometry":{"type":"LineString","coordinates":[[-16.4920591,15.9394823],[-16.4924137,15.939618]]}},{"type":"Feature","properties":{"full_id":"w1013624906","Type de vo":"piste rurale","Ruines":null,"Niveau":null,"Pont":null,"Abandonné":null,"État de s":null,"Moto autor":null,"motorcar":null,"Véhicule ":null,"Accès":null,"Praticabil":null,"surface":null,"Sens uniqu":null,"Type de pi":null},"geometry":{"type":"LineString","coordinates":[[-16.4920637,15.939422],[-16.490745,15.9391772],[-16.4903491,15.9388513],[-16.4890628,15.9383284]]}},{"type":"Feature","properties":{"full_id":"w1013624908","Type de vo":"piste rurale","Ruines":null,"Niveau":null,"Pont":null,"Abandonné":null,"État de s":null,"Moto autor":null,"motorcar":null,"Véhicule ":null,"Accès":null,"Praticabil":null,"surface":null,"Sens uniqu":null,"Type de pi":null},"geometry":{"type":"LineString","coordinates":[[-16.492036,15.939106],[-16.4916295,15.9370935],[-16.4919594,15.9362682],[-16.491836,15.9353449],[-16.4920774,15.9345557],[-16.4918092,15.9337252],[-16.4914686,15.9335034]]}},{"type":"Feature","properties":{"full_id":"w1013624909","Type de vo":"piste rurale","Ruines":null,"Niveau":null,"Pont":null,"Abandonné":null,"État de s":null,"Moto autor":null,"motorcar":null,"Véhicule ":null,"Accès":null,"Praticabil":null,"surface":null,"Sens uniqu":null,"Type de pi":null},"geometry":{"type":"LineString","coordinates":[[-16.4921813,15.9389435],[-16.4919995,15.9389672]]}},{"type":"Feature","properties":{"full_id":"w1013624911","Type de vo":"piste rurale","Ruines":null,"Niveau":null,"Pont":null,"Abandonné":null,"État de s":null,"Moto autor":null,"motorcar":null,"Véhicule ":null,"Accès":null,"Praticabil":null,"surface":null,"Sens uniqu":null,"Type de pi":null},"geometry":{"type":"LineString","coordinates":[[-16.4921538,15.938634],[-16.4914834,15.9385357]]}},{"type":"Feature","properties":{"full_id":"w1013624914","Type de vo":"piste rurale","Ruines":null,"Niveau":null,"Pont":null,"Abandonné":null,"État de s":null,"Moto autor":null,"motorcar":null,"Véhicule ":null,"Accès":null,"Praticabil":null,"surface":null,"Sens uniqu":null,"Type de pi":null},"geometry":{"type":"LineString","coordinates":[[-16.4925986,15.9370861],[-16.4929035,15.9350631],[-16.4925966,15.9344239]]}},{"type":"Feature","properties":{"full_id":"w1013624915","Type de vo":"piste rurale","Ruines":null,"Niveau":null,"Pont":null,"Abandonné":null,"État de s":null,"Moto autor":null,"motorcar":null,"Véhicule ":null,"Accès":null,"Praticabil":null,"surface":null,"Sens uniqu":null,"Type de pi":null},"geometry":{"type":"LineString","coordinates":[[-16.4926063,15.9370565],[-16.4921621,15.9363467],[-16.4919594,15.9362682]]}},{"type":"Feature","properties":{"full_id":"w1013626897","Type de vo":"piste rurale","Ruines":null,"Niveau":null,"Pont":null,"Abandonné":null,"État de s":null,"Moto autor":null,"motorcar":null,"Véhicule ":null,"Accès":null,"Praticabil":null,"surface":null,"Sens uniqu":null,"Type de pi":null},"geometry":{"type":"LineString","coordinates":[[-16.505908,15.9112094],[-16.5055005,15.9148313],[-16.5055035,15.9167068],[-16.5049459,15.917892],[-16.5050568,15.9196845],[-16.5046994,15.920289],[-16.5051738,15.9210496],[-16.5053872,15.9218049],[-16.5055153,15.9236118],[-16.5058641,15.9247001],[-16.505679,15.9254462],[-16.506042,15.9272326],[-16.5060349,15.9279513],[-16.505494,15.9295529],[-16.5052092,15.9312024],[-16.5053516,15.9321195],[-16.5045544,15.9356307]]}},{"type":"Feature","properties":{"full_id":"w1013626899","Type de vo":"piste rurale","Ruines":null,"Niveau":null,"Pont":null,"Abandonné":null,"État de s":null,"Moto autor":null,"motorcar":null,"Véhicule ":null,"Accès":null,"Praticabil":null,"surface":null,"Sens uniqu":null,"Type de pi":null},"geometry":{"type":"LineString","coordinates":[[-16.5059657,15.9114712],[-16.5062005,15.908093]]}},{"type":"Feature","properties":{"full_id":"w1013626900","Type de vo":"piste rurale","Ruines":null,"Niveau":null,"Pont":null,"Abandonné":null,"État de s":null,"Moto autor":null,"motorcar":null,"Véhicule ":null,"Accès":null,"Praticabil":null,"surface":null,"Sens uniqu":null,"Type de pi":null},"geometry":{"type":"LineString","coordinates":[[-16.5060773,15.9112842],[-16.506866,15.9116516]]}},{"type":"Feature","properties":{"full_id":"w1013626901","Type de vo":"piste rurale","Ruines":null,"Niveau":null,"Pont":null,"Abandonné":null,"État de s":null,"Moto autor":null,"motorcar":null,"Véhicule ":null,"Accès":null,"Praticabil":null,"surface":null,"Sens uniqu":null,"Type de pi":null},"geometry":{"type":"LineString","coordinates":[[-16.5060804,15.9107834],[-16.506712,15.9108131]]}},{"type":"Feature","properties":{"full_id":"w1013626902","Type de vo":"piste rurale","Ruines":null,"Niveau":null,"Pont":null,"Abandonné":null,"État de s":null,"Moto autor":null,"motorcar":null,"Véhicule ":null,"Accès":null,"Praticabil":null,"surface":null,"Sens uniqu":null,"Type de pi":null},"geometry":{"type":"LineString","coordinates":[[-16.5061387,15.9096041],[-16.5065518,15.9101434]]}},{"type":"Feature","properties":{"full_id":"w1013626903","Type de vo":"piste rurale","Ruines":null,"Niveau":null,"Pont":null,"Abandonné":null,"État de s":null,"Moto autor":null,"motorcar":null,"Véhicule ":null,"Accès":null,"Praticabil":"4wd_less_than_3.5mt","surface":null,"Sens uniqu":null,"Type de pi":"grade2"},"geometry":{"type":"LineString","coordinates":[[-16.5059785,15.9082578],[-16.5062005,15.908093],[-16.5062206,15.9077853]]}},{"type":"Feature","properties":{"full_id":"w1013626904","Type de vo":"piste rurale","Ruines":null,"Niveau":null,"Pont":null,"Abandonné":null,"État de s":null,"Moto autor":null,"motorcar":null,"Véhicule ":null,"Accès":null,"Praticabil":null,"surface":null,"Sens uniqu":null,"Type de pi":null},"geometry":{"type":"LineString","coordinates":[[-16.5062104,15.9078583],[-16.5074047,15.9083047]]}},{"type":"Feature","properties":{"full_id":"w1013626934","Type de vo":"piste rurale","Ruines":null,"Niveau":null,"Pont":null,"Abandonné":null,"État de s":null,"Moto autor":null,"motorcar":null,"Véhicule ":null,"Accès":null,"Praticabil":null,"surface":null,"Sens uniqu":null,"Type de pi":null},"geometry":{"type":"LineString","coordinates":[[-16.5081296,15.9006838],[-16.5085273,15.9007087]]}},{"type":"Feature","properties":{"full_id":"w1013629924","Type de vo":"piste rurale","Ruines":null,"Niveau":null,"Pont":null,"Abandonné":null,"État de s":null,"Moto autor":null,"motorcar":null,"Véhicule ":null,"Accès":null,"Praticabil":null,"surface":null,"Sens uniqu":null,"Type de pi":null},"geometry":{"type":"LineString","coordinates":[[-16.5054031,15.8945828],[-16.5055049,15.8957786],[-16.5057839,15.8962506]]}},{"type":"Feature","properties":{"full_id":"w1013629927","Type de vo":"piste rurale","Ruines":null,"Niveau":null,"Pont":null,"Abandonné":null,"État de s":null,"Moto autor":null,"motorcar":null,"Véhicule ":null,"Accès":null,"Praticabil":null,"surface":null,"Sens uniqu":null,"Type de pi":null},"geometry":{"type":"LineString","coordinates":[[-16.507846,15.8915072],[-16.5068474,15.8908279],[-16.5066386,15.890525],[-16.5059449,15.8886562]]}},{"type":"Feature","properties":{"full_id":"w1013629930","Type de vo":"piste rurale","Ruines":null,"Niveau":null,"Pont":null,"Abandonné":null,"État de s":null,"Moto autor":null,"motorcar":null,"Véhicule ":null,"Accès":null,"Praticabil":null,"surface":null,"Sens uniqu":null,"Type de pi":null},"geometry":{"type":"LineString","coordinates":[[-16.507432,15.8898414],[-16.5071837,15.8902547],[-16.5062581,15.8906771]]}},{"type":"Feature","properties":{"full_id":"w1013629932","Type de vo":"piste rurale","Ruines":null,"Niveau":null,"Pont":null,"Abandonné":null,"État de s":null,"Moto autor":null,"motorcar":null,"Véhicule ":null,"Accès":null,"Praticabil":null,"surface":null,"Sens uniqu":null,"Type de pi":null},"geometry":{"type":"LineString","coordinates":[[-16.5069424,15.8894478],[-16.5059449,15.8886562]]}},{"type":"Feature","properties":{"full_id":"w1013629945","Type de vo":"piste rurale","Ruines":null,"Niveau":null,"Pont":null,"Abandonné":null,"État de s":null,"Moto autor":null,"motorcar":null,"Véhicule ":null,"Accès":null,"Praticabil":null,"surface":null,"Sens uniqu":null,"Type de pi":null},"geometry":{"type":"LineString","coordinates":[[-16.5089889,15.8893162],[-16.5078858,15.8894246]]}},{"type":"Feature","properties":{"full_id":"w1013629950","Type de vo":"piste rurale","Ruines":null,"Niveau":null,"Pont":null,"Abandonné":null,"État de s":null,"Moto autor":null,"motorcar":null,"Véhicule ":null,"Accès":null,"Praticabil":null,"surface":null,"Sens uniqu":null,"Type de pi":null},"geometry":{"type":"LineString","coordinates":[[-16.5059449,15.8886562],[-16.5056414,15.8885081]]}},{"type":"Feature","properties":{"full_id":"w1013629951","Type de vo":"piste rurale","Ruines":null,"Niveau":null,"Pont":null,"Abandonné":null,"État de s":null,"Moto autor":null,"motorcar":null,"Véhicule ":null,"Accès":null,"Praticabil":null,"surface":null,"Sens uniqu":null,"Type de pi":null},"geometry":{"type":"LineString","coordinates":[[-16.5058859,15.8886278],[-16.5056594,15.8887168]]}},{"type":"Feature","properties":{"full_id":"w1013629952","Type de vo":"piste rurale","Ruines":null,"Niveau":null,"Pont":null,"Abandonné":null,"État de s":null,"Moto autor":null,"motorcar":null,"Véhicule ":null,"Accès":null,"Praticabil":null,"surface":null,"Sens uniqu":null,"Type de pi":null},"geometry":{"type":"LineString","coordinates":[[-16.5071984,15.8891139],[-16.5062078,15.8888134]]}},{"type":"Feature","properties":{"full_id":"w1013631872","Type de vo":"piste rurale","Ruines":null,"Niveau":null,"Pont":null,"Abandonné":null,"État de s":null,"Moto autor":null,"motorcar":null,"Véhicule ":null,"Accès":null,"Praticabil":null,"surface":null,"Sens uniqu":null,"Type de pi":null},"geometry":{"type":"LineString","coordinates":[[-16.5074125,15.8803682],[-16.5077861,15.8814266],[-16.5081042,15.8832796]]}},{"type":"Feature","properties":{"full_id":"w1013631875","Type de vo":"piste rurale","Ruines":null,"Niveau":null,"Pont":null,"Abandonné":null,"État de s":null,"Moto autor":null,"motorcar":null,"Véhicule ":null,"Accès":null,"Praticabil":null,"surface":null,"Sens uniqu":null,"Type de pi":null},"geometry":{"type":"LineString","coordinates":[[-16.5093414,15.8812501],[-16.509489,15.8788783],[-16.5099667,15.8786617],[-16.5101558,15.8778828],[-16.5101511,15.8769306],[-16.5098927,15.8755082]]}},{"type":"Feature","properties":{"full_id":"w1013631876","Type de vo":"piste rurale","Ruines":null,"Niveau":null,"Pont":null,"Abandonné":null,"État de s":null,"Moto autor":null,"motorcar":null,"Véhicule ":null,"Accès":null,"Praticabil":null,"surface":null,"Sens uniqu":null,"Type de pi":null},"geometry":{"type":"LineString","coordinates":[[-16.5094729,15.8796955],[-16.5101224,15.8796821]]}},{"type":"Feature","properties":{"full_id":"w1013631888","Type de vo":"piste rurale","Ruines":null,"Niveau":null,"Pont":null,"Abandonné":null,"État de s":null,"Moto autor":null,"motorcar":null,"Véhicule ":null,"Accès":null,"Praticabil":null,"surface":null,"Sens uniqu":null,"Type de pi":null},"geometry":{"type":"LineString","coordinates":[[-16.5051933,15.8871484],[-16.5057179,15.886891]]}},{"type":"Feature","properties":{"full_id":"w1013631890","Type de vo":"piste rurale","Ruines":null,"Niveau":null,"Pont":null,"Abandonné":null,"État de s":null,"Moto autor":null,"motorcar":null,"Véhicule ":null,"Accès":null,"Praticabil":null,"surface":null,"Sens uniqu":null,"Type de pi":null},"geometry":{"type":"LineString","coordinates":[[-16.5046483,15.8875978],[-16.5052039,15.8878258],[-16.5053489,15.888126]]}},{"type":"Feature","properties":{"full_id":"w1013631900","Type de vo":"piste rurale","Ruines":null,"Niveau":null,"Pont":null,"Abandonné":null,"État de s":null,"Moto autor":null,"motorcar":null,"Véhicule ":null,"Accès":null,"Praticabil":null,"surface":null,"Sens uniqu":null,"Type de pi":null},"geometry":{"type":"LineString","coordinates":[[-16.5040736,15.8970351],[-16.5062554,15.8988753]]}},{"type":"Feature","properties":{"full_id":"w1013631901","Type de vo":"piste rurale","Ruines":null,"Niveau":null,"Pont":null,"Abandonné":null,"État de s":null,"Moto autor":null,"motorcar":null,"Véhicule ":null,"Accès":null,"Praticabil":null,"surface":null,"Sens uniqu":null,"Type de pi":null},"geometry":{"type":"LineString","coordinates":[[-16.5023171,15.8971228],[-16.5018382,15.8959729]]}},{"type":"Feature","properties":{"full_id":"w1013631902","Type de vo":"piste rurale","Ruines":null,"Niveau":null,"Pont":null,"Abandonné":null,"État de s":null,"Moto autor":null,"motorcar":null,"Véhicule ":null,"Accès":null,"Praticabil":null,"surface":null,"Sens uniqu":null,"Type de pi":null},"geometry":{"type":"LineString","coordinates":[[-16.5020824,15.896342],[-16.5030323,15.8968569],[-16.503116,15.8971058]]}},{"type":"Feature","properties":{"full_id":"w1013892317","Type de vo":"piste rurale","Ruines":null,"Niveau":null,"Pont":null,"Abandonné":null,"État de s":null,"Moto autor":null,"motorcar":null,"Véhicule ":null,"Accès":null,"Praticabil":null,"surface":null,"Sens uniqu":null,"Type de pi":null},"geometry":{"type":"LineString","coordinates":[[-16.5029532,15.888361],[-16.5031351,15.888267],[-16.5033221,15.8883999],[-16.5034236,15.8890048]]}},{"type":"Feature","properties":{"full_id":"w1013892322","Type de vo":"piste rurale","Ruines":null,"Niveau":null,"Pont":null,"Abandonné":null,"État de s":null,"Moto autor":null,"motorcar":null,"Véhicule ":null,"Accès":null,"Praticabil":null,"surface":null,"Sens uniqu":null,"Type de pi":null},"geometry":{"type":"LineString","coordinates":[[-16.5014007,15.8962045],[-16.5014953,15.8965167]]}},{"type":"Feature","properties":{"full_id":"w1013914219","Type de vo":"piste rurale","Ruines":null,"Niveau":null,"Pont":null,"Abandonné":null,"État de s":null,"Moto autor":null,"motorcar":null,"Véhicule ":null,"Accès":null,"Praticabil":null,"surface":null,"Sens uniqu":null,"Type de pi":null},"geometry":{"type":"LineString","coordinates":[[-16.499937,15.8956876],[-16.499743,15.8958965],[-16.4993885,15.8971042]]}},{"type":"Feature","properties":{"full_id":"w1013914220","Type de vo":"piste rurale","Ruines":null,"Niveau":null,"Pont":null,"Abandonné":null,"État de s":null,"Moto autor":null,"motorcar":null,"Véhicule ":null,"Accès":null,"Praticabil":null,"surface":null,"Sens uniqu":null,"Type de pi":null},"geometry":{"type":"LineString","coordinates":[[-16.499388,15.8957501],[-16.4998101,15.8970674]]}},{"type":"Feature","properties":{"full_id":"w1013914264","Type de vo":"piste rurale","Ruines":null,"Niveau":null,"Pont":null,"Abandonné":null,"État de s":null,"Moto autor":null,"motorcar":null,"Véhicule ":null,"Accès":null,"Praticabil":null,"surface":null,"Sens uniqu":null,"Type de pi":null},"geometry":{"type":"LineString","coordinates":[[-16.500873,15.8882829],[-16.5003658,15.8888923]]}},{"type":"Feature","properties":{"full_id":"w1013914267","Type de vo":"piste rurale","Ruines":null,"Niveau":null,"Pont":null,"Abandonné":null,"État de s":null,"Moto autor":null,"motorcar":null,"Véhicule ":null,"Accès":null,"Praticabil":null,"surface":null,"Sens uniqu":null,"Type de pi":null},"geometry":{"type":"LineString","coordinates":[[-16.5001629,15.88766],[-16.4998679,15.8876715],[-16.4986065,15.8867637]]}},{"type":"Feature","properties":{"full_id":"w1013914268","Type de vo":"piste rurale","Ruines":null,"Niveau":null,"Pont":null,"Abandonné":null,"État de s":null,"Moto autor":null,"motorcar":null,"Véhicule ":null,"Accès":null,"Praticabil":null,"surface":null,"Sens uniqu":null,"Type de pi":null},"geometry":{"type":"LineString","coordinates":[[-16.5006289,15.8874256],[-16.5005704,15.8868536],[-16.5009586,15.8862936],[-16.5010264,15.8859172],[-16.5008477,15.8849837],[-16.5000343,15.8842784],[-16.4992517,15.8841006],[-16.4983336,15.8827849],[-16.4976711,15.8814691],[-16.4968192,15.8806004]]}},{"type":"Feature","properties":{"full_id":"w1013914274","Type de vo":"piste rurale","Ruines":null,"Niveau":null,"Pont":null,"Abandonné":null,"État de s":null,"Moto autor":null,"motorcar":null,"Véhicule ":null,"Accès":null,"Praticabil":null,"surface":null,"Sens uniqu":null,"Type de pi":null},"geometry":{"type":"LineString","coordinates":[[-16.5015853,15.8861961],[-16.5008666,15.8848565],[-16.5006813,15.8847585]]}},{"type":"Feature","properties":{"full_id":"w1013914276","Type de vo":"piste rurale","Ruines":null,"Niveau":null,"Pont":null,"Abandonné":null,"État de s":null,"Moto autor":null,"motorcar":null,"Véhicule ":null,"Accès":null,"Praticabil":null,"surface":null,"Sens uniqu":null,"Type de pi":null},"geometry":{"type":"LineString","coordinates":[[-16.5017913,15.8855366],[-16.5016912,15.8853024],[-16.5008666,15.8848565]]}},{"type":"Feature","properties":{"full_id":"w1013914279","Type de vo":"piste rurale","Ruines":null,"Niveau":null,"Pont":null,"Abandonné":null,"État de s":null,"Moto autor":null,"motorcar":null,"Véhicule ":null,"Accès":null,"Praticabil":null,"surface":null,"Sens uniqu":null,"Type de pi":null},"geometry":{"type":"LineString","coordinates":[[-16.5035068,15.8838046],[-16.5047026,15.8841894],[-16.5051128,15.8847174]]}},{"type":"Feature","properties":{"full_id":"w1013915571","Type de vo":"piste rurale","Ruines":null,"Niveau":null,"Pont":null,"Abandonné":null,"État de s":null,"Moto autor":null,"motorcar":null,"Véhicule ":null,"Accès":null,"Praticabil":null,"surface":null,"Sens uniqu":null,"Type de pi":null},"geometry":{"type":"LineString","coordinates":[[-16.5005704,15.8868536],[-16.4997467,15.8878721],[-16.4995851,15.889192]]}},{"type":"Feature","properties":{"full_id":"w1013915572","Type de vo":"piste rurale","Ruines":null,"Niveau":null,"Pont":null,"Abandonné":null,"État de s":null,"Moto autor":null,"motorcar":null,"Véhicule ":null,"Accès":null,"Praticabil":null,"surface":null,"Sens uniqu":null,"Type de pi":null},"geometry":{"type":"LineString","coordinates":[[-16.4996204,15.8883861],[-16.5003658,15.8888923]]}},{"type":"Feature","properties":{"full_id":"w1013915573","Type de vo":"piste rurale","Ruines":null,"Niveau":null,"Pont":null,"Abandonné":null,"État de s":null,"Moto autor":null,"motorcar":null,"Véhicule ":null,"Accès":null,"Praticabil":null,"surface":null,"Sens uniqu":null,"Type de pi":null},"geometry":{"type":"LineString","coordinates":[[-16.4996248,15.8884152],[-16.4991265,15.8885352],[-16.4991336,15.8887156]]}},{"type":"Feature","properties":{"full_id":"w1013915579","Type de vo":"piste rurale","Ruines":null,"Niveau":null,"Pont":null,"Abandonné":null,"État de s":null,"Moto autor":null,"motorcar":null,"Véhicule ":null,"Accès":null,"Praticabil":null,"surface":null,"Sens uniqu":null,"Type de pi":null},"geometry":{"type":"LineString","coordinates":[[-16.4988744,15.8948531],[-16.4984727,15.8971842]]}},{"type":"Feature","properties":{"full_id":"w1013915580","Type de vo":"piste rurale","Ruines":null,"Niveau":null,"Pont":null,"Abandonné":null,"État de s":null,"Moto autor":null,"motorcar":null,"Véhicule ":null,"Accès":null,"Praticabil":null,"surface":null,"Sens uniqu":null,"Type de pi":null},"geometry":{"type":"LineString","coordinates":[[-16.4988744,15.8948531],[-16.497412,15.8962077],[-16.497508,15.8972677]]}},{"type":"Feature","properties":{"full_id":"w1013915582","Type de vo":"piste rurale","Ruines":null,"Niveau":null,"Pont":null,"Abandonné":null,"État de s":null,"Moto autor":null,"motorcar":null,"Véhicule ":null,"Accès":null,"Praticabil":null,"surface":null,"Sens uniqu":null,"Type de pi":null},"geometry":{"type":"LineString","coordinates":[[-16.4988394,15.8946291],[-16.4986874,15.8949912]]}},{"type":"Feature","properties":{"full_id":"w1013915587","Type de vo":"piste rurale","Ruines":null,"Niveau":null,"Pont":null,"Abandonné":null,"État de s":null,"Moto autor":null,"motorcar":null,"Véhicule ":null,"Accès":null,"Praticabil":null,"surface":null,"Sens uniqu":null,"Type de pi":null},"geometry":{"type":"LineString","coordinates":[[-16.498547,15.8935585],[-16.4976646,15.894464],[-16.4973905,15.8962954]]}},{"type":"Feature","properties":{"full_id":"w1013915588","Type de vo":"piste rurale","Ruines":null,"Niveau":null,"Pont":null,"Abandonné":null,"État de s":null,"Moto autor":null,"motorcar":null,"Véhicule ":null,"Accès":null,"Praticabil":null,"surface":null,"Sens uniqu":null,"Type de pi":null},"geometry":{"type":"LineString","coordinates":[[-16.4988249,15.8946632],[-16.4985077,15.8940931],[-16.4986682,15.8938475],[-16.498547,15.8935585]]}},{"type":"Feature","properties":{"full_id":"w1013915593","Type de vo":"piste rurale","Ruines":null,"Niveau":null,"Pont":null,"Abandonné":null,"État de s":null,"Moto autor":null,"motorcar":null,"Véhicule ":null,"Accès":null,"Praticabil":null,"surface":null,"Sens uniqu":null,"Type de pi":null},"geometry":{"type":"LineString","coordinates":[[-16.4978472,15.8934995],[-16.4975454,15.8940883],[-16.4975715,15.8947346]]}},{"type":"Feature","properties":{"full_id":"w1013915596","Type de vo":"piste rurale","Ruines":null,"Niveau":null,"Pont":null,"Abandonné":null,"État de s":null,"Moto autor":null,"motorcar":null,"Véhicule ":null,"Accès":null,"Praticabil":null,"surface":null,"Sens uniqu":null,"Type de pi":null},"geometry":{"type":"LineString","coordinates":[[-16.4971829,15.8912979],[-16.4970557,15.8915454],[-16.4973814,15.8922635],[-16.4975842,15.8939692]]}},{"type":"Feature","properties":{"full_id":"w1013915597","Type de vo":"piste rurale","Ruines":null,"Niveau":null,"Pont":null,"Abandonné":null,"État de s":null,"Moto autor":null,"motorcar":null,"Véhicule ":null,"Accès":null,"Praticabil":null,"surface":null,"Sens uniqu":null,"Type de pi":null},"geometry":{"type":"LineString","coordinates":[[-16.4974856,15.8932783],[-16.4978472,15.8934995]]}},{"type":"Feature","properties":{"full_id":"w1013915598","Type de vo":"piste rurale","Ruines":null,"Niveau":null,"Pont":null,"Abandonné":null,"État de s":null,"Moto autor":null,"motorcar":null,"Véhicule ":null,"Accès":null,"Praticabil":null,"surface":null,"Sens uniqu":null,"Type de pi":null},"geometry":{"type":"LineString","coordinates":[[-16.498016,15.8923846],[-16.4975752,15.8924522],[-16.497402,15.8926635]]}},{"type":"Feature","properties":{"full_id":"w1013915599","Type de vo":"piste rurale","Ruines":null,"Niveau":null,"Pont":null,"Abandonné":null,"État de s":null,"Moto autor":null,"motorcar":null,"Véhicule ":null,"Accès":null,"Praticabil":null,"surface":null,"Sens uniqu":null,"Type de pi":null},"geometry":{"type":"LineString","coordinates":[[-16.4976144,15.8924381],[-16.4973861,15.8923421]]}},{"type":"Feature","properties":{"full_id":"w1013915600","Type de vo":"piste rurale","Ruines":null,"Niveau":null,"Pont":null,"Abandonné":null,"État de s":null,"Moto autor":null,"motorcar":null,"Véhicule ":null,"Accès":null,"Praticabil":null,"surface":null,"Sens uniqu":null,"Type de pi":null},"geometry":{"type":"LineString","coordinates":[[-16.4970714,15.8913795],[-16.4959664,15.8922961],[-16.4939152,15.8925469]]}},{"type":"Feature","properties":{"full_id":"w1013915603","Type de vo":"piste rurale","Ruines":null,"Niveau":null,"Pont":null,"Abandonné":null,"État de s":null,"Moto autor":null,"motorcar":null,"Véhicule ":null,"Accès":null,"Praticabil":null,"surface":null,"Sens uniqu":null,"Type de pi":null},"geometry":{"type":"LineString","coordinates":[[-16.4941019,15.8925095],[-16.4939608,15.8929751],[-16.4934861,15.8933853],[-16.4932259,15.893553],[-16.4919384,15.8937361],[-16.4903705,15.8949634],[-16.489698,15.8963454],[-16.4896945,15.8968185],[-16.4892127,15.8980569]]}},{"type":"Feature","properties":{"full_id":"w1013915615","Type de vo":"piste rurale","Ruines":null,"Niveau":null,"Pont":null,"Abandonné":null,"État de s":null,"Moto autor":null,"motorcar":null,"Véhicule ":null,"Accès":null,"Praticabil":null,"surface":null,"Sens uniqu":null,"Type de pi":null},"geometry":{"type":"LineString","coordinates":[[-16.4970103,15.8902103],[-16.4959567,15.8888974],[-16.4957226,15.8877417],[-16.4947089,15.8865949],[-16.4932373,15.8858471]]}},{"type":"Feature","properties":{"full_id":"w1013915616","Type de vo":"piste rurale","Ruines":null,"Niveau":null,"Pont":null,"Abandonné":null,"État de s":null,"Moto autor":null,"motorcar":null,"Véhicule ":null,"Accès":null,"Praticabil":null,"surface":null,"Sens uniqu":null,"Type de pi":null},"geometry":{"type":"LineString","coordinates":[[-16.4957442,15.8878484],[-16.4969199,15.8888172],[-16.4971846,15.8893957]]}},{"type":"Feature","properties":{"full_id":"w1013915617","Type de vo":"piste rurale","Ruines":null,"Niveau":null,"Pont":null,"Abandonné":null,"État de s":null,"Moto autor":null,"motorcar":null,"Véhicule ":null,"Accès":null,"Praticabil":null,"surface":null,"Sens uniqu":null,"Type de pi":null},"geometry":{"type":"LineString","coordinates":[[-16.4970103,15.8902103],[-16.4972653,15.8906383]]}},{"type":"Feature","properties":{"full_id":"w1013915622","Type de vo":"piste rurale","Ruines":null,"Niveau":null,"Pont":null,"Abandonné":null,"État de s":null,"Moto autor":null,"motorcar":null,"Véhicule ":null,"Accès":null,"Praticabil":null,"surface":null,"Sens uniqu":null,"Type de pi":null},"geometry":{"type":"LineString","coordinates":[[-16.4973352,15.8878637],[-16.4969778,15.8871317],[-16.496605,15.8868117],[-16.4957584,15.8854619],[-16.4939791,15.8837057],[-16.49248,15.8813206],[-16.4916674,15.8807636],[-16.4907708,15.879425],[-16.4872356,15.876155],[-16.4867966,15.8753015]]}},{"type":"Feature","properties":{"full_id":"w1013925562","Type de vo":"piste rurale","Ruines":null,"Niveau":null,"Pont":null,"Abandonné":null,"État de s":null,"Moto autor":null,"motorcar":null,"Véhicule ":null,"Accès":null,"Praticabil":null,"surface":null,"Sens uniqu":null,"Type de pi":null},"geometry":{"type":"LineString","coordinates":[[-16.5021368,15.87932],[-16.5029995,15.8792134],[-16.5036773,15.878591]]}},{"type":"Feature","properties":{"full_id":"w1013925563","Type de vo":"piste rurale","Ruines":null,"Niveau":null,"Pont":null,"Abandonné":null,"État de s":null,"Moto autor":null,"motorcar":null,"Véhicule ":null,"Accès":null,"Praticabil":null,"surface":null,"Sens uniqu":null,"Type de pi":null},"geometry":{"type":"LineString","coordinates":[[-16.502734,15.8792421],[-16.5028889,15.8780115]]}},{"type":"Feature","properties":{"full_id":"w1013925568","Type de vo":"piste rurale","Ruines":null,"Niveau":null,"Pont":null,"Abandonné":null,"État de s":null,"Moto autor":null,"motorcar":null,"Véhicule ":null,"Accès":null,"Praticabil":null,"surface":null,"Sens uniqu":null,"Type de pi":null},"geometry":{"type":"LineString","coordinates":[[-16.5011487,15.8741913],[-16.5017366,15.8734951],[-16.502892,15.872935],[-16.5053445,15.8723749],[-16.5061086,15.8714502],[-16.5061734,15.8711124],[-16.5065319,15.8711127]]}},{"type":"Feature","properties":{"full_id":"w1013925574","Type de vo":"piste rurale","Ruines":null,"Niveau":null,"Pont":null,"Abandonné":null,"État de s":null,"Moto autor":null,"motorcar":null,"Véhicule ":null,"Accès":null,"Praticabil":null,"surface":null,"Sens uniqu":null,"Type de pi":null},"geometry":{"type":"LineString","coordinates":[[-16.5051454,15.8872967],[-16.5052039,15.8878258]]}},{"type":"Feature","properties":{"full_id":"w1013925576","Type de vo":"piste rurale","Ruines":null,"Niveau":null,"Pont":null,"Abandonné":null,"État de s":null,"Moto autor":null,"motorcar":null,"Véhicule ":null,"Accès":null,"Praticabil":null,"surface":null,"Sens uniqu":null,"Type de pi":null},"geometry":{"type":"LineString","coordinates":[[-16.506266,15.8893251],[-16.5061204,15.8917606],[-16.5059386,15.8919029],[-16.5053106,15.8917826]]}},{"type":"Feature","properties":{"full_id":"w1013925577","Type de vo":"piste rurale","Ruines":null,"Niveau":null,"Pont":null,"Abandonné":null,"État de s":null,"Moto autor":null,"motorcar":null,"Véhicule ":null,"Accès":null,"Praticabil":null,"surface":null,"Sens uniqu":null,"Type de pi":null},"geometry":{"type":"LineString","coordinates":[[-16.5060585,15.8918225],[-16.5058893,15.8924392],[-16.505952,15.8930989]]}},{"type":"Feature","properties":{"full_id":"w1013925578","Type de vo":"piste rurale","Ruines":null,"Niveau":null,"Pont":null,"Abandonné":null,"État de s":null,"Moto autor":null,"motorcar":null,"Véhicule ":null,"Accès":null,"Praticabil":null,"surface":null,"Sens uniqu":null,"Type de pi":null},"geometry":{"type":"LineString","coordinates":[[-16.5075703,15.8926394],[-16.5067274,15.8926911],[-16.5060512,15.8931213]]}},{"type":"Feature","properties":{"full_id":"w1013925579","Type de vo":"piste rurale","Ruines":null,"Niveau":null,"Pont":null,"Abandonné":null,"État de s":null,"Moto autor":null,"motorcar":null,"Véhicule ":null,"Accès":null,"Praticabil":null,"surface":null,"Sens uniqu":null,"Type de pi":null},"geometry":{"type":"LineString","coordinates":[[-16.5061327,15.8929637],[-16.5064347,15.8919621],[-16.5066318,15.891814]]}},{"type":"Feature","properties":{"full_id":"w1013925585","Type de vo":"piste rurale","Ruines":null,"Niveau":null,"Pont":null,"Abandonné":null,"État de s":null,"Moto autor":null,"motorcar":null,"Véhicule ":null,"Accès":null,"Praticabil":null,"surface":null,"Sens uniqu":null,"Type de pi":null},"geometry":{"type":"LineString","coordinates":[[-16.5068352,15.8917636],[-16.5063232,15.8906096]]}},{"type":"Feature","properties":{"full_id":"w1013925586","Type de vo":"piste rurale","Ruines":null,"Niveau":null,"Pont":null,"Abandonné":null,"État de s":null,"Moto autor":null,"motorcar":null,"Véhicule ":null,"Accès":null,"Praticabil":null,"surface":null,"Sens uniqu":null,"Type de pi":null},"geometry":{"type":"LineString","coordinates":[[-16.5068912,15.8908518],[-16.5065025,15.8909608],[-16.5061351,15.8915186]]}},{"type":"Feature","properties":{"full_id":"w1013926865","Type de vo":"piste rurale","Ruines":null,"Niveau":null,"Pont":null,"Abandonné":null,"État de s":null,"Moto autor":null,"motorcar":null,"Véhicule ":null,"Accès":null,"Praticabil":null,"surface":null,"Sens uniqu":null,"Type de pi":null},"geometry":{"type":"LineString","coordinates":[[-16.493428,15.947041],[-16.4936363,15.9463457]]}},{"type":"Feature","properties":{"full_id":"w1013926887","Type de vo":"piste rurale","Ruines":null,"Niveau":null,"Pont":null,"Abandonné":null,"État de s":null,"Moto autor":null,"motorcar":null,"Véhicule ":null,"Accès":null,"Praticabil":null,"surface":null,"Sens uniqu":null,"Type de pi":null},"geometry":{"type":"LineString","coordinates":[[-16.4934398,15.9441234],[-16.4928316,15.9441541],[-16.4924298,15.9439074]]}},{"type":"Feature","properties":{"full_id":"w1013926888","Type de vo":"piste rurale","Ruines":null,"Niveau":null,"Pont":null,"Abandonné":null,"État de s":null,"Moto autor":null,"motorcar":null,"Véhicule ":null,"Accès":null,"Praticabil":null,"surface":null,"Sens uniqu":null,"Type de pi":null},"geometry":{"type":"LineString","coordinates":[[-16.4923557,15.9451193],[-16.4938063,15.9453229]]}},{"type":"Feature","properties":{"full_id":"w1013926891","Type de vo":"piste rurale","Ruines":null,"Niveau":null,"Pont":null,"Abandonné":null,"État de s":null,"Moto autor":null,"motorcar":null,"Véhicule ":null,"Accès":null,"Praticabil":null,"surface":null,"Sens uniqu":null,"Type de pi":null},"geometry":{"type":"LineString","coordinates":[[-16.4926191,15.937233],[-16.4925986,15.9370861]]}},{"type":"Feature","properties":{"full_id":"w1013926894","Type de vo":"piste rurale","Ruines":null,"Niveau":null,"Pont":null,"Abandonné":null,"État de s":null,"Moto autor":null,"motorcar":null,"Véhicule ":null,"Accès":null,"Praticabil":null,"surface":null,"Sens uniqu":null,"Type de pi":null},"geometry":{"type":"LineString","coordinates":[[-16.4923913,15.9378679],[-16.4917246,15.937788]]}},{"type":"Feature","properties":{"full_id":"w1013926898","Type de vo":"piste rurale","Ruines":null,"Niveau":null,"Pont":null,"Abandonné":null,"État de s":null,"Moto autor":null,"motorcar":null,"Véhicule ":null,"Accès":null,"Praticabil":null,"surface":null,"Sens uniqu":null,"Type de pi":null},"geometry":{"type":"LineString","coordinates":[[-16.4919482,15.9395519],[-16.4917898,15.9396385]]}},{"type":"Feature","properties":{"full_id":"w1013926899","Type de vo":"piste rurale","Ruines":null,"Niveau":null,"Pont":null,"Abandonné":null,"État de s":null,"Moto autor":null,"motorcar":null,"Véhicule ":null,"Accès":null,"Praticabil":null,"surface":null,"Sens uniqu":null,"Type de pi":null},"geometry":{"type":"LineString","coordinates":[[-16.4924892,15.9393512],[-16.4923102,15.9394912]]}},{"type":"Feature","properties":{"full_id":"w1013930426","Type de vo":"piste rurale","Ruines":null,"Niveau":null,"Pont":null,"Abandonné":null,"État de s":null,"Moto autor":null,"motorcar":null,"Véhicule ":null,"Accès":null,"Praticabil":null,"surface":null,"Sens uniqu":null,"Type de pi":null},"geometry":{"type":"LineString","coordinates":[[-16.5069944,15.8994306],[-16.5066482,15.8994428],[-16.5057305,15.8999391],[-16.505413,15.900496],[-16.5049506,15.9007341],[-16.504974,15.9013786],[-16.5045116,15.9012056]]}},{"type":"Feature","properties":{"full_id":"w1013930428","Type de vo":"piste rurale","Ruines":null,"Niveau":null,"Pont":null,"Abandonné":null,"État de s":null,"Moto autor":null,"motorcar":null,"Véhicule ":null,"Accès":null,"Praticabil":null,"surface":null,"Sens uniqu":null,"Type de pi":null},"geometry":{"type":"LineString","coordinates":[[-16.5041654,15.8971319],[-16.5044263,15.899831],[-16.5043248,15.9006824],[-16.5045116,15.9012056],[-16.5042828,15.9019355],[-16.5043604,15.9035162],[-16.5041661,15.9044596],[-16.5043155,15.9054566],[-16.5046004,15.9060315],[-16.5045257,15.9067815],[-16.5049646,15.9076393],[-16.5056558,15.9078325],[-16.5062206,15.9077853]]}},{"type":"Feature","properties":{"full_id":"w1013930429","Type de vo":"piste rurale","Ruines":null,"Niveau":null,"Pont":null,"Abandonné":null,"État de s":null,"Moto autor":null,"motorcar":null,"Véhicule ":null,"Accès":null,"Praticabil":null,"surface":null,"Sens uniqu":null,"Type de pi":null},"geometry":{"type":"LineString","coordinates":[[-16.5060989,15.8998345],[-16.5072555,15.9006968]]}},{"type":"Feature","properties":{"full_id":"w1013930430","Type de vo":"piste rurale","Ruines":null,"Niveau":null,"Pont":null,"Abandonné":null,"État de s":null,"Moto autor":null,"motorcar":null,"Véhicule ":null,"Accès":null,"Praticabil":null,"surface":null,"Sens uniqu":null,"Type de pi":null},"geometry":{"type":"LineString","coordinates":[[-16.5068597,15.9004508],[-16.5061342,15.9004641],[-16.506094,15.900637],[-16.5058955,15.9006292]]}},{"type":"Feature","properties":{"full_id":"w1013930431","Type de vo":"piste rurale","Ruines":null,"Niveau":null,"Pont":null,"Abandonné":null,"État de s":null,"Moto autor":null,"motorcar":null,"Véhicule ":null,"Accès":null,"Praticabil":null,"surface":null,"Sens uniqu":null,"Type de pi":null},"geometry":{"type":"LineString","coordinates":[[-16.506263,15.9004768],[-16.5061508,15.8999028]]}},{"type":"Feature","properties":{"full_id":"w1013930442","Type de vo":"piste rurale","Ruines":null,"Niveau":null,"Pont":null,"Abandonné":null,"État de s":null,"Moto autor":null,"motorcar":null,"Véhicule ":null,"Accès":null,"Praticabil":null,"surface":null,"Sens uniqu":null,"Type de pi":null},"geometry":{"type":"LineString","coordinates":[[-16.5063272,15.895468],[-16.5059788,15.8955525],[-16.5055406,15.89537]]}},{"type":"Feature","properties":{"full_id":"w1013930456","Type de vo":"piste rurale","Ruines":null,"Niveau":null,"Pont":null,"Abandonné":null,"État de s":null,"Moto autor":null,"motorcar":null,"Véhicule ":null,"Accès":null,"Praticabil":null,"surface":null,"Sens uniqu":null,"Type de pi":null},"geometry":{"type":"LineString","coordinates":[[-16.5055039,15.8957187],[-16.503794,15.8941263],[-16.5031063,15.893138]]}},{"type":"Feature","properties":{"full_id":"w1013930457","Type de vo":"piste rurale","Ruines":null,"Niveau":null,"Pont":null,"Abandonné":null,"État de s":null,"Moto autor":null,"motorcar":null,"Véhicule ":null,"Accès":null,"Praticabil":null,"surface":null,"Sens uniqu":null,"Type de pi":null},"geometry":{"type":"LineString","coordinates":[[-16.5058208,15.893683],[-16.505417,15.8942486]]}},{"type":"Feature","properties":{"full_id":"w1013930460","Type de vo":"piste rurale","Ruines":null,"Niveau":null,"Pont":null,"Abandonné":null,"État de s":null,"Moto autor":null,"motorcar":null,"Véhicule ":null,"Accès":null,"Praticabil":null,"surface":null,"Sens uniqu":null,"Type de pi":null},"geometry":{"type":"LineString","coordinates":[[-16.5054092,15.894123],[-16.5052914,15.8937144],[-16.505381,15.8928774]]}},{"type":"Feature","properties":{"full_id":"w1013930461","Type de vo":"piste rurale","Ruines":null,"Niveau":null,"Pont":null,"Abandonné":null,"État de s":null,"Moto autor":null,"motorcar":null,"Véhicule ":null,"Accès":null,"Praticabil":null,"surface":null,"Sens uniqu":null,"Type de pi":null},"geometry":{"type":"LineString","coordinates":[[-16.5058285,15.8936548],[-16.5052966,15.8936715]]}},{"type":"Feature","properties":{"full_id":"w1013930462","Type de vo":"piste rurale","Ruines":null,"Niveau":null,"Pont":null,"Abandonné":null,"État de s":null,"Moto autor":null,"motorcar":null,"Véhicule ":null,"Accès":null,"Praticabil":null,"surface":null,"Sens uniqu":null,"Type de pi":null},"geometry":{"type":"LineString","coordinates":[[-16.5053045,15.8936063],[-16.5048909,15.8935218]]}},{"type":"Feature","properties":{"full_id":"w1013930465","Type de vo":"piste rurale","Ruines":null,"Niveau":null,"Pont":null,"Abandonné":null,"État de s":null,"Moto autor":null,"motorcar":null,"Véhicule ":null,"Accès":null,"Praticabil":null,"surface":null,"Sens uniqu":null,"Type de pi":null},"geometry":{"type":"LineString","coordinates":[[-16.5048909,15.8935218],[-16.5047646,15.8941886]]}},{"type":"Feature","properties":{"full_id":"w1013930466","Type de vo":"piste rurale","Ruines":null,"Niveau":null,"Pont":null,"Abandonné":null,"État de s":null,"Moto autor":null,"motorcar":null,"Véhicule ":null,"Accès":null,"Praticabil":null,"surface":null,"Sens uniqu":null,"Type de pi":null},"geometry":{"type":"LineString","coordinates":[[-16.5048574,15.89364],[-16.5042839,15.89351],[-16.5043455,15.8932996]]}},{"type":"Feature","properties":{"full_id":"w1013933670","Type de vo":"piste rurale","Ruines":null,"Niveau":null,"Pont":null,"Abandonné":null,"État de s":null,"Moto autor":null,"motorcar":null,"Véhicule ":null,"Accès":null,"Praticabil":null,"surface":null,"Sens uniqu":null,"Type de pi":null},"geometry":{"type":"LineString","coordinates":[[-16.5055757,15.8910112],[-16.5053311,15.8910112],[-16.5053054,15.8911441]]}},{"type":"Feature","properties":{"full_id":"w1013933671","Type de vo":"piste rurale","Ruines":null,"Niveau":null,"Pont":null,"Abandonné":null,"État de s":null,"Moto autor":null,"motorcar":null,"Véhicule ":null,"Accès":null,"Praticabil":null,"surface":null,"Sens uniqu":null,"Type de pi":null},"geometry":{"type":"LineString","coordinates":[[-16.5055799,15.8908654],[-16.5062392,15.89086]]}},{"type":"Feature","properties":{"full_id":"w1013933680","Type de vo":"piste rurale","Ruines":null,"Niveau":null,"Pont":null,"Abandonné":null,"État de s":null,"Moto autor":null,"motorcar":null,"Véhicule ":null,"Accès":null,"Praticabil":null,"surface":null,"Sens uniqu":null,"Type de pi":null},"geometry":{"type":"LineString","coordinates":[[-16.5072594,15.890156],[-16.5073355,15.8901586]]}},{"type":"Feature","properties":{"full_id":"w1013933681","Type de vo":"piste rurale","Ruines":null,"Niveau":null,"Pont":null,"Abandonné":null,"État de s":null,"Moto autor":null,"motorcar":null,"Véhicule ":null,"Accès":null,"Praticabil":null,"surface":null,"Sens uniqu":null,"Type de pi":null},"geometry":{"type":"LineString","coordinates":[[-16.505998,15.8887277],[-16.5051256,15.8893447]]}},{"type":"Feature","properties":{"full_id":"w1013933683","Type de vo":"piste rurale","Ruines":null,"Niveau":null,"Pont":null,"Abandonné":null,"État de s":null,"Moto autor":null,"motorcar":null,"Véhicule ":null,"Accès":null,"Praticabil":null,"surface":null,"Sens uniqu":null,"Type de pi":null},"geometry":{"type":"LineString","coordinates":[[-16.5055372,15.8893467],[-16.5053679,15.8891486]]}},{"type":"Feature","properties":{"full_id":"w1013933685","Type de vo":"piste rurale","Ruines":null,"Niveau":null,"Pont":null,"Abandonné":null,"État de s":null,"Moto autor":null,"motorcar":null,"Véhicule ":null,"Accès":null,"Praticabil":null,"surface":null,"Sens uniqu":null,"Type de pi":null},"geometry":{"type":"LineString","coordinates":[[-16.5048491,15.8890132],[-16.5053265,15.8896246],[-16.505631,15.8896283]]}},{"type":"Feature","properties":{"full_id":"w1013933686","Type de vo":"piste rurale","Ruines":null,"Niveau":null,"Pont":null,"Abandonné":null,"État de s":null,"Moto autor":null,"motorcar":null,"Véhicule ":null,"Accès":null,"Praticabil":null,"surface":null,"Sens uniqu":null,"Type de pi":null},"geometry":{"type":"LineString","coordinates":[[-16.504149,15.8900734],[-16.5047794,15.8896581],[-16.5049966,15.8892428]]}},{"type":"Feature","properties":{"full_id":"w1013933703","Type de vo":"piste rurale","Ruines":null,"Niveau":null,"Pont":null,"Abandonné":null,"État de s":null,"Moto autor":null,"motorcar":null,"Véhicule ":null,"Accès":null,"Praticabil":null,"surface":null,"Sens uniqu":null,"Type de pi":null},"geometry":{"type":"LineString","coordinates":[[-16.500183,15.8961454],[-16.4995891,15.8963772]]}},{"type":"Feature","properties":{"full_id":"w1013934902","Type de vo":"piste rurale","Ruines":null,"Niveau":null,"Pont":null,"Abandonné":null,"État de s":null,"Moto autor":null,"motorcar":null,"Véhicule ":null,"Accès":null,"Praticabil":null,"surface":null,"Sens uniqu":null,"Type de pi":null},"geometry":{"type":"LineString","coordinates":[[-16.4989248,15.8951191],[-16.4992332,15.8957752],[-16.499388,15.8957501]]}},{"type":"Feature","properties":{"full_id":"w1013934907","Type de vo":"piste rurale","Ruines":null,"Niveau":null,"Pont":null,"Abandonné":null,"État de s":null,"Moto autor":null,"motorcar":null,"Véhicule ":null,"Accès":null,"Praticabil":null,"surface":null,"Sens uniqu":null,"Type de pi":null},"geometry":{"type":"LineString","coordinates":[[-16.4990386,15.8939582],[-16.4986682,15.8938475]]}},{"type":"Feature","properties":{"full_id":"w1013934909","Type de vo":"piste rurale","Ruines":null,"Niveau":null,"Pont":null,"Abandonné":null,"État de s":null,"Moto autor":null,"motorcar":null,"Véhicule ":null,"Accès":null,"Praticabil":null,"surface":null,"Sens uniqu":null,"Type de pi":null},"geometry":{"type":"LineString","coordinates":[[-16.4981852,15.8928694],[-16.4974263,15.8928786]]}},{"type":"Feature","properties":{"full_id":"w1013934913","Type de vo":"piste rurale","Ruines":null,"Niveau":null,"Pont":null,"Abandonné":null,"État de s":null,"Moto autor":null,"motorcar":null,"Véhicule ":null,"Accès":null,"Praticabil":null,"surface":null,"Sens uniqu":null,"Type de pi":null},"geometry":{"type":"LineString","coordinates":[[-16.4976819,15.8919515],[-16.4973081,15.8920432]]}},{"type":"Feature","properties":{"full_id":"w1013934922","Type de vo":"piste rurale","Ruines":null,"Niveau":null,"Pont":null,"Abandonné":null,"État de s":null,"Moto autor":null,"motorcar":null,"Véhicule ":null,"Accès":null,"Praticabil":null,"surface":null,"Sens uniqu":null,"Type de pi":null},"geometry":{"type":"LineString","coordinates":[[-16.5048585,15.8856071],[-16.5044723,15.8862544],[-16.5044394,15.8869102]]}},{"type":"Feature","properties":{"full_id":"w1013936678","Type de vo":"piste rurale","Ruines":null,"Niveau":null,"Pont":null,"Abandonné":null,"État de s":null,"Moto autor":null,"motorcar":null,"Véhicule ":null,"Accès":null,"Praticabil":null,"surface":null,"Sens uniqu":null,"Type de pi":null},"geometry":{"type":"LineString","coordinates":[[-16.5035415,15.8889481],[-16.5037649,15.8875012],[-16.5040453,15.8873086],[-16.5042554,15.8873969]]}},{"type":"Feature","properties":{"full_id":"w1013936690","Type de vo":"piste rurale","Ruines":null,"Niveau":null,"Pont":null,"Abandonné":null,"État de s":null,"Moto autor":null,"motorcar":null,"Véhicule ":null,"Accès":null,"Praticabil":null,"surface":null,"Sens uniqu":null,"Type de pi":null},"geometry":{"type":"LineString","coordinates":[[-16.5016813,15.8855211],[-16.5005106,15.8850879],[-16.499705,15.885326],[-16.4992707,15.8860177],[-16.4986758,15.8860426]]}},{"type":"Feature","properties":{"full_id":"w1013936691","Type de vo":"piste rurale","Ruines":null,"Niveau":null,"Pont":null,"Abandonné":null,"État de s":null,"Moto autor":null,"motorcar":null,"Véhicule ":null,"Accès":null,"Praticabil":null,"surface":null,"Sens uniqu":null,"Type de pi":null},"geometry":{"type":"LineString","coordinates":[[-16.4989762,15.8860802],[-16.4992683,15.8863882],[-16.4996059,15.8882922]]}},{"type":"Feature","properties":{"full_id":"w1013936693","Type de vo":"piste rurale","Ruines":null,"Niveau":null,"Pont":null,"Abandonné":null,"État de s":null,"Moto autor":null,"motorcar":null,"Véhicule ":null,"Accès":null,"Praticabil":null,"surface":null,"Sens uniqu":null,"Type de pi":null},"geometry":{"type":"LineString","coordinates":[[-16.5017131,15.8846904],[-16.5007771,15.8848091]]}},{"type":"Feature","properties":{"full_id":"w1013936695","Type de vo":"piste rurale","Ruines":null,"Niveau":null,"Pont":null,"Abandonné":null,"État de s":null,"Moto autor":null,"motorcar":null,"Véhicule ":null,"Accès":null,"Praticabil":null,"surface":null,"Sens uniqu":null,"Type de pi":null},"geometry":{"type":"LineString","coordinates":[[-16.5035068,15.8838046],[-16.5025124,15.8833807],[-16.5013663,15.880684],[-16.5019482,15.8804979]]}},{"type":"Feature","properties":{"full_id":"w1013936696","Type de vo":"piste rurale","Ruines":null,"Niveau":null,"Pont":null,"Abandonné":null,"État de s":null,"Moto autor":null,"motorcar":null,"Véhicule ":null,"Accès":null,"Praticabil":null,"surface":null,"Sens uniqu":null,"Type de pi":null},"geometry":{"type":"LineString","coordinates":[[-16.501197,15.8799601],[-16.5013878,15.880109],[-16.5013878,15.8805832]]}},{"type":"Feature","properties":{"full_id":"w1013936697","Type de vo":"piste rurale","Ruines":null,"Niveau":null,"Pont":null,"Abandonné":null,"État de s":null,"Moto autor":null,"motorcar":null,"Véhicule ":null,"Accès":null,"Praticabil":null,"surface":null,"Sens uniqu":null,"Type de pi":null},"geometry":{"type":"LineString","coordinates":[[-16.4976282,15.8891379],[-16.4967578,15.8897686]]}},{"type":"Feature","properties":{"full_id":"w1013936699","Type de vo":"piste rurale","Ruines":null,"Niveau":null,"Pont":null,"Abandonné":null,"État de s":null,"Moto autor":null,"motorcar":null,"Véhicule ":null,"Accès":null,"Praticabil":null,"surface":null,"Sens uniqu":null,"Type de pi":null},"geometry":{"type":"LineString","coordinates":[[-16.498558,15.8878577],[-16.4993465,15.8879818],[-16.4996059,15.8882922]]}},{"type":"Feature","properties":{"full_id":"w1013936702","Type de vo":"piste rurale","Ruines":null,"Niveau":null,"Pont":null,"Abandonné":null,"État de s":null,"Moto autor":null,"motorcar":null,"Véhicule ":null,"Accès":null,"Praticabil":null,"surface":null,"Sens uniqu":null,"Type de pi":null},"geometry":{"type":"LineString","coordinates":[[-16.4975293,15.8883674],[-16.4964486,15.8884705],[-16.4957674,15.888353]]}},{"type":"Feature","properties":{"full_id":"w1013936703","Type de vo":"piste rurale","Ruines":null,"Niveau":null,"Pont":null,"Abandonné":null,"État de s":null,"Moto autor":null,"motorcar":null,"Véhicule ":null,"Accès":null,"Praticabil":null,"surface":null,"Sens uniqu":null,"Type de pi":null},"geometry":{"type":"LineString","coordinates":[[-16.5036036,15.8821022],[-16.5031471,15.8835496]]}},{"type":"Feature","properties":{"full_id":"w1013936704","Type de vo":"piste rurale","Ruines":null,"Niveau":null,"Pont":null,"Abandonné":null,"État de s":null,"Moto autor":null,"motorcar":null,"Véhicule ":null,"Accès":null,"Praticabil":null,"surface":null,"Sens uniqu":null,"Type de pi":null},"geometry":{"type":"LineString","coordinates":[[-16.5036036,15.8821022],[-16.5035838,15.880094],[-16.503409,15.879351],[-16.5031774,15.8790462]]}},{"type":"Feature","properties":{"full_id":"w1013937658","Type de vo":"piste rurale","Ruines":null,"Niveau":null,"Pont":null,"Abandonné":null,"État de s":null,"Moto autor":null,"motorcar":null,"Véhicule ":null,"Accès":null,"Praticabil":null,"surface":null,"Sens uniqu":null,"Type de pi":null},"geometry":{"type":"LineString","coordinates":[[-16.5065673,15.8695264],[-16.5057066,15.8695959],[-16.5059131,15.8707182],[-16.5060606,15.8709994],[-16.5063013,15.8710749]]}},{"type":"Feature","properties":{"full_id":"w1013937659","Type de vo":"piste rurale","Ruines":null,"Niveau":null,"Pont":null,"Abandonné":null,"État de s":null,"Moto autor":null,"motorcar":null,"Véhicule ":null,"Accès":null,"Praticabil":null,"surface":null,"Sens uniqu":null,"Type de pi":null},"geometry":{"type":"LineString","coordinates":[[-16.5054791,15.8722376],[-16.5060499,15.8724467],[-16.506015,15.8727047],[-16.5064966,15.8726917]]}},{"type":"Feature","properties":{"full_id":"w1013937660","Type de vo":"piste rurale","Ruines":null,"Niveau":null,"Pont":null,"Abandonné":null,"État de s":null,"Moto autor":null,"motorcar":null,"Véhicule ":null,"Accès":null,"Praticabil":null,"surface":null,"Sens uniqu":null,"Type de pi":null},"geometry":{"type":"LineString","coordinates":[[-16.5061196,15.8694901],[-16.5060397,15.86841]]}},{"type":"Feature","properties":{"full_id":"w1013937708","Type de vo":"piste rurale","Ruines":null,"Niveau":null,"Pont":null,"Abandonné":null,"État de s":null,"Moto autor":null,"motorcar":null,"Véhicule ":null,"Accès":null,"Praticabil":null,"surface":null,"Sens uniqu":null,"Type de pi":null},"geometry":{"type":"LineString","coordinates":[[-16.5064071,15.8621968],[-16.5059003,15.8619088],[-16.5049065,15.861772]]}},{"type":"Feature","properties":{"full_id":"w1013938098","Type de vo":"piste rurale","Ruines":null,"Niveau":null,"Pont":null,"Abandonné":null,"État de s":null,"Moto autor":null,"motorcar":null,"Véhicule ":null,"Accès":null,"Praticabil":null,"surface":null,"Sens uniqu":null,"Type de pi":null},"geometry":{"type":"LineString","coordinates":[[-16.5059173,15.8631729],[-16.5049464,15.8630233],[-16.5050358,15.8618086]]}},{"type":"Feature","properties":{"full_id":"w1013938099","Type de vo":"piste rurale","Ruines":null,"Niveau":null,"Pont":null,"Abandonné":null,"État de s":null,"Moto autor":null,"motorcar":null,"Véhicule ":null,"Accès":null,"Praticabil":null,"surface":null,"Sens uniqu":null,"Type de pi":null},"geometry":{"type":"LineString","coordinates":[[-16.5050593,15.8630534],[-16.5051866,15.8635985]]}},{"type":"Feature","properties":{"full_id":"w1013938102","Type de vo":"piste rurale","Ruines":null,"Niveau":null,"Pont":null,"Abandonné":null,"État de s":null,"Moto autor":null,"motorcar":null,"Véhicule ":null,"Accès":null,"Praticabil":null,"surface":null,"Sens uniqu":null,"Type de pi":null},"geometry":{"type":"LineString","coordinates":[[-16.5056988,15.868274],[-16.5056992,15.8687016],[-16.5054981,15.8690576],[-16.5055383,15.8694833],[-16.50572,15.8695288]]}},{"type":"Feature","properties":{"full_id":"w1013939525","Type de vo":"piste rurale","Ruines":null,"Niveau":null,"Pont":null,"Abandonné":null,"État de s":null,"Moto autor":null,"motorcar":null,"Véhicule ":null,"Accès":null,"Praticabil":null,"surface":null,"Sens uniqu":null,"Type de pi":null},"geometry":{"type":"LineString","coordinates":[[-16.4974077,15.8614317],[-16.4977641,15.8610483],[-16.4980366,15.860061]]}},{"type":"Feature","properties":{"full_id":"w1013939548","Type de vo":"piste rurale","Ruines":null,"Niveau":null,"Pont":null,"Abandonné":null,"État de s":null,"Moto autor":null,"motorcar":null,"Véhicule ":null,"Accès":null,"Praticabil":null,"surface":null,"Sens uniqu":null,"Type de pi":null},"geometry":{"type":"LineString","coordinates":[[-16.4818086,15.8658244],[-16.4859432,15.8659463]]}},{"type":"Feature","properties":{"full_id":"w1013939553","Type de vo":"piste rurale","Ruines":null,"Niveau":null,"Pont":null,"Abandonné":null,"État de s":null,"Moto autor":null,"motorcar":null,"Véhicule ":null,"Accès":null,"Praticabil":null,"surface":null,"Sens uniqu":null,"Type de pi":null},"geometry":{"type":"LineString","coordinates":[[-16.4801951,15.8649234],[-16.4811072,15.8655831]]}},{"type":"Feature","properties":{"full_id":"w1013939554","Type de vo":"piste rurale","Ruines":null,"Niveau":null,"Pont":null,"Abandonné":null,"État de s":null,"Moto autor":null,"motorcar":null,"Véhicule ":null,"Accès":null,"Praticabil":null,"surface":null,"Sens uniqu":null,"Type de pi":null},"geometry":{"type":"LineString","coordinates":[[-16.4803632,15.8649964],[-16.4805996,15.8648178],[-16.4808558,15.8648765],[-16.481116,15.8650798],[-16.4811746,15.8653525]]}},{"type":"Feature","properties":{"full_id":"w1013939555","Type de vo":"piste rurale","Ruines":null,"Niveau":null,"Pont":null,"Abandonné":null,"État de s":null,"Moto autor":null,"motorcar":null,"Véhicule ":null,"Accès":null,"Praticabil":null,"surface":null,"Sens uniqu":null,"Type de pi":null},"geometry":{"type":"LineString","coordinates":[[-16.4802832,15.8655821],[-16.4812464,15.865639]]}},{"type":"Feature","properties":{"full_id":"w1013939558","Type de vo":"piste rurale","Ruines":null,"Niveau":null,"Pont":null,"Abandonné":null,"État de s":null,"Moto autor":null,"motorcar":null,"Véhicule ":null,"Accès":null,"Praticabil":null,"surface":null,"Sens uniqu":null,"Type de pi":null},"geometry":{"type":"LineString","coordinates":[[-16.4797488,15.8652791],[-16.4779123,15.8647183],[-16.4775279,15.8640164],[-16.4766463,15.8634869],[-16.4755506,15.8612846],[-16.4752154,15.8601834],[-16.4748883,15.8598688],[-16.4740173,15.8612734],[-16.4719725,15.8638438]]}},{"type":"Feature","properties":{"full_id":"w1013939569","Type de vo":"piste rurale","Ruines":null,"Niveau":null,"Pont":null,"Abandonné":null,"État de s":null,"Moto autor":null,"motorcar":null,"Véhicule ":null,"Accès":null,"Praticabil":null,"surface":null,"Sens uniqu":null,"Type de pi":null},"geometry":{"type":"LineString","coordinates":[[-16.4819783,15.8721721],[-16.4815279,15.8717855],[-16.480876,15.8717323]]}},{"type":"Feature","properties":{"full_id":"w1013939577","Type de vo":"piste rurale","Ruines":null,"Niveau":null,"Pont":null,"Abandonné":null,"État de s":null,"Moto autor":null,"motorcar":null,"Véhicule ":null,"Accès":null,"Praticabil":null,"surface":null,"Sens uniqu":null,"Type de pi":null},"geometry":{"type":"LineString","coordinates":[[-16.4815117,15.8727843],[-16.4817652,15.8739038],[-16.4815009,15.8740258],[-16.4816277,15.8741633]]}},{"type":"Feature","properties":{"full_id":"w1013941964","Type de vo":"piste rurale","Ruines":null,"Niveau":null,"Pont":null,"Abandonné":null,"État de s":null,"Moto autor":null,"motorcar":null,"Véhicule ":null,"Accès":null,"Praticabil":null,"surface":null,"Sens uniqu":null,"Type de pi":null},"geometry":{"type":"LineString","coordinates":[[-16.4867481,15.8751673],[-16.4877731,15.8747972],[-16.4881914,15.8748836]]}},{"type":"Feature","properties":{"full_id":"w1013941969","Type de vo":"piste rurale","Ruines":null,"Niveau":null,"Pont":null,"Abandonné":null,"État de s":null,"Moto autor":null,"motorcar":null,"Véhicule ":null,"Accès":null,"Praticabil":null,"surface":null,"Sens uniqu":null,"Type de pi":null},"geometry":{"type":"LineString","coordinates":[[-16.4777734,15.8836693],[-16.4772837,15.8841038],[-16.47718,15.8844752],[-16.4780557,15.8851916],[-16.4781469,15.8862235],[-16.4768809,15.8875598],[-16.4766878,15.8894224],[-16.4753466,15.8926522],[-16.4734637,15.8957581],[-16.4731848,15.8975845],[-16.4719992,15.8999216],[-16.4720529,15.9004375],[-16.4715218,15.9012836],[-16.4716613,15.9020317],[-16.4721655,15.9031564]]}},{"type":"Feature","properties":{"full_id":"w1013941971","Type de vo":"piste rurale","Ruines":null,"Niveau":null,"Pont":null,"Abandonné":null,"État de s":null,"Moto autor":null,"motorcar":null,"Véhicule ":null,"Accès":null,"Praticabil":null,"surface":null,"Sens uniqu":null,"Type de pi":null},"geometry":{"type":"LineString","coordinates":[[-16.4771194,15.8837805],[-16.4771683,15.8834851],[-16.4773775,15.8834885],[-16.4777815,15.8830881],[-16.478877,15.8828195]]}},{"type":"Feature","properties":{"full_id":"w1013942930","Type de vo":"piste rurale","Ruines":null,"Niveau":null,"Pont":null,"Abandonné":null,"État de s":null,"Moto autor":null,"motorcar":null,"Véhicule ":null,"Accès":null,"Praticabil":null,"surface":null,"Sens uniqu":null,"Type de pi":null},"geometry":{"type":"LineString","coordinates":[[-16.5099149,15.8498944],[-16.5109833,15.8498597],[-16.5111811,15.8500564]]}},{"type":"Feature","properties":{"full_id":"w1014156464","Type de vo":"piste rurale","Ruines":null,"Niveau":null,"Pont":null,"Abandonné":null,"État de s":null,"Moto autor":null,"motorcar":null,"Véhicule ":null,"Accès":null,"Praticabil":null,"surface":null,"Sens uniqu":null,"Type de pi":null},"geometry":{"type":"LineString","coordinates":[[-16.4766036,15.8811688],[-16.477127,15.8786384],[-16.47661,15.8770335],[-16.4766404,15.8761182],[-16.4764144,15.8753617],[-16.4763188,15.8734684],[-16.4772791,15.8715709],[-16.4772878,15.871178],[-16.4770705,15.8708771],[-16.4778939,15.8695944]]}},{"type":"Feature","properties":{"full_id":"w1293371209","Type de vo":"piste rurale","Ruines":null,"Niveau":null,"Pont":null,"Abandonné":null,"État de s":null,"Moto autor":null,"motorcar":null,"Véhicule ":null,"Accès":null,"Praticabil":null,"surface":"Non revêtu","Sens uniqu":null,"Type de pi":null},"geometry":{"type":"LineString","coordinates":[[-16.4918306,15.9383341],[-16.4915669,15.9383658],[-16.4914834,15.9385357]]}},{"type":"Feature","properties":{"full_id":"w1293372848","Type de vo":"piste rurale","Ruines":null,"Niveau":null,"Pont":null,"Abandonné":null,"État de s":null,"Moto autor":null,"motorcar":null,"Véhicule ":null,"Accès":null,"Praticabil":null,"surface":"Aucun","Sens uniqu":null,"Type de pi":null},"geometry":{"type":"LineString","coordinates":[[-16.4915094,15.9384641],[-16.4908386,15.9379606],[-16.4906158,15.9368978],[-16.4910943,15.9349951],[-16.4913176,15.9346616],[-16.4916631,15.9320138]]}},{"type":"Feature","properties":{"full_id":"w1293373491","Type de vo":"piste rurale","Ruines":null,"Niveau":null,"Pont":null,"Abandonné":null,"État de s":null,"Moto autor":null,"motorcar":null,"Véhicule ":null,"Accès":null,"Praticabil":null,"surface":"Non revêtu","Sens uniqu":null,"Type de pi":null},"geometry":{"type":"LineString","coordinates":[[-16.4916429,15.9373411],[-16.4918291,15.9372769]]}},{"type":"Feature","properties":{"full_id":"w1293374414","Type de vo":"piste rurale","Ruines":null,"Niveau":null,"Pont":null,"Abandonné":null,"État de s":null,"Moto autor":null,"motorcar":null,"Véhicule ":null,"Accès":null,"Praticabil":null,"surface":"Non revêtu","Sens uniqu":null,"Type de pi":null},"geometry":{"type":"LineString","coordinates":[[-16.4890628,15.9383284],[-16.4883837,15.9380436],[-16.487068,15.9368085]]}},{"type":"Feature","properties":{"full_id":"w1293374997","Type de vo":"piste rurale","Ruines":null,"Niveau":null,"Pont":null,"Abandonné":null,"État de s":null,"Moto autor":null,"motorcar":null,"Véhicule ":null,"Accès":null,"Praticabil":null,"surface":"Non revêtu","Sens uniqu":null,"Type de pi":null},"geometry":{"type":"LineString","coordinates":[[-16.4915223,15.9398015],[-16.4914099,15.9406786]]}},{"type":"Feature","properties":{"full_id":"w1293375894","Type de vo":"piste rurale","Ruines":null,"Niveau":null,"Pont":null,"Abandonné":null,"État de s":null,"Moto autor":null,"motorcar":null,"Véhicule ":null,"Accès":null,"Praticabil":null,"surface":"Non revêtu","Sens uniqu":null,"Type de pi":null},"geometry":{"type":"LineString","coordinates":[[-16.4914686,15.9335034],[-16.4914395,15.9334858]]}},{"type":"Feature","properties":{"full_id":"w1293376837","Type de vo":"piste rurale","Ruines":null,"Niveau":null,"Pont":null,"Abandonné":null,"État de s":null,"Moto autor":null,"motorcar":null,"Véhicule ":null,"Accès":null,"Praticabil":null,"surface":"Non revêtu","Sens uniqu":null,"Type de pi":null},"geometry":{"type":"LineString","coordinates":[[-16.4920637,15.939422],[-16.4917395,15.9390044],[-16.4918249,15.938636]]}},{"type":"Feature","properties":{"full_id":"w1293377032","Type de vo":"piste rurale","Ruines":null,"Niveau":null,"Pont":null,"Abandonné":null,"État de s":null,"Moto autor":null,"motorcar":null,"Véhicule ":null,"Accès":null,"Praticabil":null,"surface":"Non revêtu","Sens uniqu":null,"Type de pi":null},"geometry":{"type":"LineString","coordinates":[[-16.4915223,15.9398015],[-16.49158,15.9394156]]}},{"type":"Feature","properties":{"full_id":"w1293417194","Type de vo":"piste rurale","Ruines":null,"Niveau":null,"Pont":null,"Abandonné":null,"État de s":null,"Moto autor":null,"motorcar":null,"Véhicule ":null,"Accès":null,"Praticabil":null,"surface":"Non revêtu","Sens uniqu":null,"Type de pi":null},"geometry":{"type":"LineString","coordinates":[[-16.4940489,15.9455959],[-16.4941652,15.9457158]]}},{"type":"Feature","properties":{"full_id":"w1293417195","Type de vo":"piste rurale","Ruines":null,"Niveau":null,"Pont":null,"Abandonné":null,"État de s":null,"Moto autor":null,"motorcar":null,"Véhicule ":null,"Accès":null,"Praticabil":null,"surface":"Non revêtu","Sens uniqu":null,"Type de pi":null},"geometry":{"type":"LineString","coordinates":[[-16.496113,15.9457675],[-16.4966803,15.9466119],[-16.49677793494168,15.947161439062434]]}},{"type":"Feature","properties":{"full_id":"w1293419581","Type de vo":"piste rurale","Ruines":null,"Niveau":null,"Pont":null,"Abandonné":null,"État de s":null,"Moto autor":null,"motorcar":null,"Véhicule ":null,"Accès":null,"Praticabil":null,"surface":"Non revêtu","Sens uniqu":null,"Type de pi":null},"geometry":{"type":"LineString","coordinates":[[-16.4962854,15.9459345],[-16.4967557,15.94592],[-16.4975361,15.9455671],[-16.4995937,15.9454277]]}},{"type":"Feature","properties":{"full_id":"w1293424222","Type de vo":"piste rurale","Ruines":null,"Niveau":null,"Pont":null,"Abandonné":null,"État de s":null,"Moto autor":null,"motorcar":null,"Véhicule ":null,"Accès":null,"Praticabil":null,"surface":null,"Sens uniqu":null,"Type de pi":null},"geometry":{"type":"LineString","coordinates":[[-16.4733008,15.9176735],[-16.4731836,15.9174763],[-16.4726709,15.9174692],[-16.4721215,15.9180116],[-16.4718405,15.9177653]]}},{"type":"Feature","properties":{"full_id":"w1293424223","Type de vo":"piste rurale","Ruines":null,"Niveau":null,"Pont":null,"Abandonné":null,"État de s":null,"Moto autor":null,"motorcar":null,"Véhicule ":null,"Accès":null,"Praticabil":null,"surface":null,"Sens uniqu":null,"Type de pi":null},"geometry":{"type":"LineString","coordinates":[[-16.4721215,15.9180116],[-16.4721362,15.9184343],[-16.4724072,15.9190048],[-16.472268,15.9192514],[-16.4719338,15.9191436]]}},{"type":"Feature","properties":{"full_id":"w1293424224","Type de vo":"piste rurale","Ruines":null,"Niveau":null,"Pont":null,"Abandonné":null,"État de s":null,"Moto autor":null,"motorcar":null,"Véhicule ":null,"Accès":null,"Praticabil":null,"surface":null,"Sens uniqu":null,"Type de pi":null},"geometry":{"type":"LineString","coordinates":[[-16.4721944,15.9192244],[-16.4727395,15.9199706],[-16.4728856,15.9209537],[-16.473262,15.9216559]]}},{"type":"Feature","properties":{"full_id":"w1293593452","Type de vo":"piste rurale","Ruines":null,"Niveau":null,"Pont":null,"Abandonné":null,"État de s":null,"Moto autor":null,"motorcar":null,"Véhicule ":null,"Accès":null,"Praticabil":null,"surface":null,"Sens uniqu":null,"Type de pi":null},"geometry":{"type":"LineString","coordinates":[[-16.4717323,15.9044661],[-16.471217,15.9048026],[-16.470852,15.9054663],[-16.4719273,15.9095956],[-16.4717579,15.9111852],[-16.4710985,15.9130398],[-16.4708505,15.9145531],[-16.4710277,15.9155101],[-16.4710862,15.9175604],[-16.4716608,15.9197915],[-16.471707,15.9206503],[-16.471177680186457,15.921969674154791]]}}]}