{"type":"FeatureCollection","name":"transport-route-locale.geojson","features":[{"type":"Feature","properties":{"full_id":"w137152697","Type de vo":"non classée","Vitesse ma":null,"Accès":null,"Référenc":null,"Nom":null,"Type de pi":null,"surface":"Sable","Sens uniqu":null},"geometry":{"type":"LineString","coordinates":[[-16.4864928,15.8841374],[-16.4865669,15.88576],[-16.4870733,15.8875638],[-16.4863327,15.8900001],[-16.4850044,15.8988643]]}},{"type":"Feature","properties":{"full_id":"w137153112","Type de vo":"non classée","Vitesse ma":null,"Accès":null,"Référenc":null,"Nom":null,"Type de pi":"grade3","surface":"Sol naturel","Sens uniqu":null},"geometry":{"type":"LineString","coordinates":[[-16.4637268,15.8896653],[-16.4646959,15.8865444],[-16.4675712,15.8811577],[-16.469041,15.8773602],[-16.4691161,15.8759464],[-16.4701689,15.8720255],[-16.4708933,15.8680267],[-16.4718803,15.8643425],[-16.4723578,15.8616901],[-16.4724114,15.8601266],[-16.4719876,15.8584857],[-16.4712527,15.8568911],[-16.4712259,15.8558281],[-16.4713439,15.85399],[-16.4719769,15.8514418],[-16.4720198,15.8506007],[-16.4727708,15.8487687],[-16.4730819,15.8484487],[-16.4740422,15.8480049],[-16.4745357,15.8467819],[-16.4761237,15.8442347],[-16.4764956,15.842738],[-16.4774593,15.8408317],[-16.4782586,15.8384061],[-16.479353,15.8365586],[-16.4798143,15.8353303],[-16.4818635,15.8324144],[-16.48186049427228,15.831215114639521]]}},{"type":"Feature","properties":{"full_id":"w231499512","Type de vo":"non classée","Vitesse ma":null,"Accès":null,"Référenc":null,"Nom":null,"Type de pi":null,"surface":null,"Sens uniqu":null},"geometry":{"type":"LineString","coordinates":[[-16.471846,15.9113398],[-16.4706185,15.9101769],[-16.4697142,15.9125186],[-16.4700596,15.9141425],[-16.4696427,15.9155728],[-16.4704993,15.9177749],[-16.4702471,15.9184307],[-16.470307,15.9198855],[-16.470261123635435,15.919939970075644]]}},{"type":"Feature","properties":{"full_id":"w358328497","Type de vo":"non classée","Vitesse ma":null,"Accès":null,"Référenc":null,"Nom":null,"Type de pi":null,"surface":"Non revêtu","Sens uniqu":null},"geometry":{"type":"LineString","coordinates":[[-16.4927274,15.9404108],[-16.4926346,15.9425958],[-16.4923304,15.9442587],[-16.4923663,15.94567],[-16.491959610316176,15.948016426609803]]}},{"type":"Feature","properties":{"full_id":"w557761326","Type de vo":"non classée","Vitesse ma":null,"Accès":null,"Référenc":null,"Nom":null,"Type de pi":"grade2","surface":"Sable","Sens uniqu":null},"geometry":{"type":"LineString","coordinates":[[-16.508415,15.8672154],[-16.5089806,15.8673031],[-16.5099249,15.8669621]]}},{"type":"Feature","properties":{"full_id":"w616952732","Type de vo":"non classée","Vitesse ma":null,"Accès":null,"Référenc":null,"Nom":null,"Type de pi":null,"surface":null,"Sens uniqu":null},"geometry":{"type":"LineString","coordinates":[[-16.5130131,15.844077],[-16.5125102,15.843958],[-16.5115339,15.8431039]]}},{"type":"Feature","properties":{"full_id":"w762164573","Type de vo":"non classée","Vitesse ma":null,"Accès":null,"Référenc":null,"Nom":null,"Type de pi":"grade2","surface":"Sable","Sens uniqu":null},"geometry":{"type":"LineString","coordinates":[[-16.5080263,15.8671893],[-16.508415,15.8672154]]}},{"type":"Feature","properties":{"full_id":"w762164574","Type de vo":"non classée","Vitesse ma":null,"Accès":null,"Référenc":null,"Nom":null,"Type de pi":"grade2","surface":"Sable","Sens uniqu":null},"geometry":{"type":"LineString","coordinates":[[-16.5066925,15.8670646],[-16.5080263,15.8671893]]}},{"type":"Feature","properties":{"full_id":"w776328321","Type de vo":"non classée","Vitesse ma":null,"Accès":null,"Référenc":null,"Nom":null,"Type de pi":null,"surface":null,"Sens uniqu":null},"geometry":{"type":"LineString","coordinates":[[-16.4357241,15.8425815],[-16.4352677,15.8430947],[-16.4346801,15.843265],[-16.4329106,15.842836],[-16.4309711,15.8420733],[-16.426031891065723,15.841147945945911]]}},{"type":"Feature","properties":{"full_id":"w815855576","Type de vo":"non classée","Vitesse ma":null,"Accès":null,"Référenc":null,"Nom":null,"Type de pi":null,"surface":"Sable","Sens uniqu":"no"},"geometry":{"type":"LineString","coordinates":[[-16.5111811,15.8500564],[-16.5115747,15.849561],[-16.5126582,15.8459013],[-16.5137825,15.8402677],[-16.5144825,15.8322793],[-16.5149143,15.8298734],[-16.51502722387634,15.829420265578086]]}},{"type":"Feature","properties":{"full_id":"w815855579","Type de vo":"non classée","Vitesse ma":null,"Accès":null,"Référenc":null,"Nom":null,"Type de pi":null,"surface":null,"Sens uniqu":"non"},"geometry":{"type":"LineString","coordinates":[[-16.5060957,15.8760983],[-16.5064882,15.8730657],[-16.5066093,15.867787],[-16.5069229,15.8651114],[-16.5063398,15.8633725],[-16.5063277,15.8624847],[-16.5065887,15.8615386],[-16.5079326,15.859263]]}},{"type":"Feature","properties":{"full_id":"w848279027","Type de vo":"non classée","Vitesse ma":null,"Accès":null,"Référenc":null,"Nom":null,"Type de pi":null,"surface":"Sol naturel","Sens uniqu":null},"geometry":{"type":"LineString","coordinates":[[-16.5110956276467,15.829639734125031],[-16.5125705,15.8304684]]}},{"type":"Feature","properties":{"full_id":"w850654109","Type de vo":"non classée","Vitesse ma":null,"Accès":null,"Référenc":null,"Nom":null,"Type de pi":null,"surface":"Non revêtu","Sens uniqu":null},"geometry":{"type":"LineString","coordinates":[[-16.4366868,15.8664275],[-16.4357773,15.8667591]]}},{"type":"Feature","properties":{"full_id":"w905557845","Type de vo":"non classée","Vitesse ma":null,"Accès":null,"Référenc":null,"Nom":null,"Type de pi":null,"surface":null,"Sens uniqu":null},"geometry":{"type":"LineString","coordinates":[[-16.4474264,15.8371128],[-16.4461618,15.8385655],[-16.4455766,15.8384293],[-16.4443686,15.8390013]]}},{"type":"Feature","properties":{"full_id":"w905557846","Type de vo":"non classée","Vitesse ma":null,"Accès":null,"Référenc":null,"Nom":null,"Type de pi":null,"surface":null,"Sens uniqu":null},"geometry":{"type":"LineString","coordinates":[[-16.4443686,15.8390013],[-16.4431486,15.8396596],[-16.4401696,15.8418977],[-16.4390721,15.8430654],[-16.4378195,15.8438588]]}},{"type":"Feature","properties":{"full_id":"w905557847","Type de vo":"non classée","Vitesse ma":null,"Accès":null,"Référenc":null,"Nom":null,"Type de pi":null,"surface":null,"Sens uniqu":null},"geometry":{"type":"LineString","coordinates":[[-16.4375964,15.8403839],[-16.4377569,15.8425357],[-16.438016,15.8436801]]}},{"type":"Feature","properties":{"full_id":"w905557848","Type de vo":"non classée","Vitesse ma":null,"Accès":null,"Référenc":null,"Nom":null,"Type de pi":null,"surface":null,"Sens uniqu":null},"geometry":{"type":"LineString","coordinates":[[-16.4333649,15.8490166],[-16.4336532,15.846297],[-16.4340019,15.8449759],[-16.434238,15.8446379],[-16.4347279,15.8442855],[-16.4355725,15.8440763],[-16.4372939,15.8440016],[-16.4378132,15.8438133]]}},{"type":"Feature","properties":{"full_id":"w905557849","Type de vo":"non classée","Vitesse ma":null,"Accès":null,"Référenc":null,"Nom":null,"Type de pi":null,"surface":null,"Sens uniqu":null},"geometry":{"type":"LineString","coordinates":[[-16.4303917,15.8483431],[-16.4333783,15.8482412]]}},{"type":"Feature","properties":{"full_id":"w905557850","Type de vo":"non classée","Vitesse ma":null,"Accès":null,"Référenc":null,"Nom":null,"Type de pi":null,"surface":null,"Sens uniqu":null},"geometry":{"type":"LineString","coordinates":[[-16.4306591,15.8513594],[-16.4315998,15.8499095],[-16.4334735,15.8481677]]}},{"type":"Feature","properties":{"full_id":"w905557851","Type de vo":"non classée","Vitesse ma":null,"Accès":null,"Référenc":null,"Nom":null,"Type de pi":null,"surface":null,"Sens uniqu":null},"geometry":{"type":"LineString","coordinates":[[-16.4461618,15.8385655],[-16.4489327,15.8393121],[-16.4491704,15.8391941],[-16.449454,15.8381616],[-16.4536274,15.8386637],[-16.4576949,15.8385672],[-16.4606309,15.8388106]]}},{"type":"Feature","properties":{"full_id":"w905557852","Type de vo":"non classée","Vitesse ma":null,"Accès":null,"Référenc":null,"Nom":null,"Type de pi":null,"surface":null,"Sens uniqu":null},"geometry":{"type":"LineString","coordinates":[[-16.4641649,15.8449537],[-16.4643719,15.8433461],[-16.4642569,15.8414434],[-16.4640346,15.8411779],[-16.4631416,15.8408248],[-16.4612863,15.8397044],[-16.4606309,15.8388106]]}},{"type":"Feature","properties":{"full_id":"w905557853","Type de vo":"non classée","Vitesse ma":null,"Accès":null,"Référenc":null,"Nom":null,"Type de pi":null,"surface":null,"Sens uniqu":null},"geometry":{"type":"LineString","coordinates":[[-16.465521378940807,15.831405708111724],[-16.465514,15.8314084],[-16.4647294,15.8315642],[-16.4640507,15.8314623],[-16.4633534,15.8318457],[-16.4599536,15.835458],[-16.4589449,15.8363325],[-16.457656,15.8373209],[-16.4548664,15.8385602]]}},{"type":"Feature","properties":{"full_id":"w905557854","Type de vo":"non classée","Vitesse ma":null,"Accès":null,"Référenc":null,"Nom":null,"Type de pi":null,"surface":null,"Sens uniqu":null},"geometry":{"type":"LineString","coordinates":[[-16.4595862,15.8331097],[-16.4595115,15.8335949],[-16.4596796,15.8343557],[-16.46042,15.8349382]]}},{"type":"Feature","properties":{"full_id":"w905557855","Type de vo":"non classée","Vitesse ma":null,"Accès":null,"Référenc":null,"Nom":null,"Type de pi":null,"surface":null,"Sens uniqu":null},"geometry":{"type":"LineString","coordinates":[[-16.4565349,15.8494228],[-16.4559307,15.8466172],[-16.4546293,15.8428726],[-16.454548,15.8421684],[-16.4546177,15.8416319],[-16.4552684,15.8406482],[-16.4562211,15.8385635]]}},{"type":"Feature","properties":{"full_id":"w905557856","Type de vo":"non classée","Vitesse ma":null,"Accès":null,"Référenc":null,"Nom":null,"Type de pi":null,"surface":null,"Sens uniqu":null},"geometry":{"type":"LineString","coordinates":[[-16.4491505,15.8461184],[-16.4500474,15.8452629],[-16.4528148,15.8418263],[-16.4545103,15.8385514]]}},{"type":"Feature","properties":{"full_id":"w905557857","Type de vo":"non classée","Vitesse ma":null,"Accès":null,"Référenc":null,"Nom":null,"Type de pi":null,"surface":null,"Sens uniqu":null},"geometry":{"type":"LineString","coordinates":[[-16.4484412,15.846339],[-16.4480756,15.8463865],[-16.4477716,15.8466552],[-16.4474265,15.8466592],[-16.4465186,15.8457384],[-16.4449329,15.8445251],[-16.4435197,15.8439758],[-16.4428132,15.8434146],[-16.4423079,15.8426756],[-16.4382801,15.8434666]]}},{"type":"Feature","properties":{"full_id":"w905557858","Type de vo":"non classée","Vitesse ma":null,"Accès":null,"Référenc":null,"Nom":null,"Type de pi":null,"surface":"Sol naturel","Sens uniqu":null},"geometry":{"type":"LineString","coordinates":[[-16.4494152,15.8629038],[-16.446867,15.8585915],[-16.4444792,15.8554503],[-16.4438272,15.8540813],[-16.4429718,15.8537386],[-16.4426218,15.8530525],[-16.4410081,15.8511952],[-16.4389911,15.8500953]]}},{"type":"Feature","properties":{"full_id":"w905557859","Type de vo":"non classée","Vitesse ma":null,"Accès":null,"Référenc":null,"Nom":null,"Type de pi":null,"surface":null,"Sens uniqu":null},"geometry":{"type":"LineString","coordinates":[[-16.4443582,15.8669317],[-16.4453732,15.8637273],[-16.4457157,15.8632482],[-16.4463072,15.8617508],[-16.4471167,15.8605768],[-16.4474169,15.859509]]}},{"type":"Feature","properties":{"full_id":"w905557860","Type de vo":"non classée","Vitesse ma":null,"Accès":null,"Référenc":null,"Nom":null,"Type de pi":null,"surface":null,"Sens uniqu":null},"geometry":{"type":"LineString","coordinates":[[-16.4357773,15.8667591],[-16.43511385349564,15.866780353437424]]}},{"type":"Feature","properties":{"full_id":"w1013631868","Type de vo":"non classée","Vitesse ma":null,"Accès":null,"Référenc":null,"Nom":null,"Type de pi":null,"surface":"Terre","Sens uniqu":null},"geometry":{"type":"LineString","coordinates":[[-16.5088459,15.8811618],[-16.5087858,15.8804352],[-16.5059956,15.8803051]]}},{"type":"Feature","properties":{"full_id":"w1013631869","Type de vo":"non classée","Vitesse ma":null,"Accès":null,"Référenc":null,"Nom":null,"Type de pi":null,"surface":"Terre","Sens uniqu":null},"geometry":{"type":"LineString","coordinates":[[-16.5063705,15.880282],[-16.5071473,15.8811067],[-16.5070416,15.8826161],[-16.5065213,15.885622]]}},{"type":"Feature","properties":{"full_id":"w1013892314","Type de vo":"non classée","Vitesse ma":null,"Accès":null,"Référenc":null,"Nom":null,"Type de pi":null,"surface":"Terre","Sens uniqu":null},"geometry":{"type":"LineString","coordinates":[[-16.5058031,15.8859529],[-16.503555,15.8850169]]}},{"type":"Feature","properties":{"full_id":"w1013925553","Type de vo":"non classée","Vitesse ma":null,"Accès":null,"Référenc":null,"Nom":null,"Type de pi":null,"surface":"Terre","Sens uniqu":null},"geometry":{"type":"LineString","coordinates":[[-16.4985099,15.8876164],[-16.4986521,15.886111],[-16.4993973,15.8841502],[-16.5003515,15.8800736]]}},{"type":"Feature","properties":{"full_id":"w1013925565","Type de vo":"non classée","Vitesse ma":null,"Accès":null,"Référenc":null,"Nom":null,"Type de pi":null,"surface":"Terre","Sens uniqu":null},"geometry":{"type":"LineString","coordinates":[[-16.5003091,15.8776542],[-16.5005832,15.875797]]}},{"type":"Feature","properties":{"full_id":"w1013925570","Type de vo":"non classée","Vitesse ma":null,"Accès":null,"Référenc":null,"Nom":null,"Type de pi":null,"surface":"Terre","Sens uniqu":null},"geometry":{"type":"LineString","coordinates":[[-16.5014281,15.8794253],[-16.501983,15.8805523],[-16.5024975,15.880902],[-16.503733,15.8822385],[-16.5043123,15.8826089],[-16.5044879,15.883166],[-16.5050055,15.8838654],[-16.5051128,15.8847174]]}},{"type":"Feature","properties":{"full_id":"w1013925571","Type de vo":"non classée","Vitesse ma":null,"Accès":null,"Référenc":null,"Nom":null,"Type de pi":null,"surface":"Terre","Sens uniqu":null},"geometry":{"type":"LineString","coordinates":[[-16.5051128,15.8847174],[-16.5058731,15.8851823]]}},{"type":"Feature","properties":{"full_id":"w1013930455","Type de vo":"non classée","Vitesse ma":null,"Accès":null,"Référenc":null,"Nom":null,"Type de pi":null,"surface":"Terre","Sens uniqu":null},"geometry":{"type":"LineString","coordinates":[[-16.5055039,15.8957187],[-16.5051223,15.8958371]]}},{"type":"Feature","properties":{"full_id":"w1013933687","Type de vo":"non classée","Vitesse ma":null,"Accès":null,"Référenc":null,"Nom":null,"Type de pi":null,"surface":"Terre","Sens uniqu":null},"geometry":{"type":"LineString","coordinates":[[-16.5041457,15.8900146],[-16.5044516,15.8909703]]}},{"type":"Feature","properties":{"full_id":"w1013939538","Type de vo":"non classée","Vitesse ma":null,"Accès":null,"Référenc":null,"Nom":null,"Type de pi":null,"surface":"Terre","Sens uniqu":null},"geometry":{"type":"LineString","coordinates":[[-16.4872049,15.8658042],[-16.4858393,15.8659684],[-16.4852823,15.8662186],[-16.4842822,15.8670203],[-16.4829284,15.8670516]]}},{"type":"Feature","properties":{"full_id":"w1013939545","Type de vo":"non classée","Vitesse ma":null,"Accès":null,"Référenc":null,"Nom":null,"Type de pi":null,"surface":"Terre","Sens uniqu":null},"geometry":{"type":"LineString","coordinates":[[-16.4820353,15.8670834],[-16.4813485,15.8668043]]}},{"type":"Feature","properties":{"full_id":"w1013939549","Type de vo":"non classée","Vitesse ma":null,"Accès":null,"Référenc":null,"Nom":null,"Type de pi":null,"surface":"Terre","Sens uniqu":null},"geometry":{"type":"LineString","coordinates":[[-16.4818086,15.8658244],[-16.4813485,15.8668043]]}},{"type":"Feature","properties":{"full_id":"w1013939556","Type de vo":"non classée","Vitesse ma":null,"Accès":null,"Référenc":null,"Nom":null,"Type de pi":null,"surface":"Terre","Sens uniqu":null},"geometry":{"type":"LineString","coordinates":[[-16.4812464,15.865639],[-16.4818086,15.8658244]]}},{"type":"Feature","properties":{"full_id":"w1013939557","Type de vo":"non classée","Vitesse ma":null,"Accès":null,"Référenc":null,"Nom":null,"Type de pi":null,"surface":"Terre","Sens uniqu":null},"geometry":{"type":"LineString","coordinates":[[-16.4843639,15.8604137],[-16.4837442,15.8609788],[-16.483585,15.8614562],[-16.4826787,15.8628287],[-16.4825169,15.8634099],[-16.4822337,15.8635863],[-16.4818534,15.8643414],[-16.4816133,15.8644737],[-16.4812222,15.8651872],[-16.4812464,15.865639]]}},{"type":"Feature","properties":{"full_id":"w1013939559","Type de vo":"non classée","Vitesse ma":null,"Accès":null,"Référenc":null,"Nom":null,"Type de pi":null,"surface":"Terre","Sens uniqu":null},"geometry":{"type":"LineString","coordinates":[[-16.4813485,15.8668043],[-16.4812184,15.8670866],[-16.4807949,15.867357],[-16.4805493,15.8678569],[-16.4787377,15.8688736],[-16.4782822,15.8688086],[-16.4778017,15.8685142]]}},{"type":"Feature","properties":{"full_id":"w1013939565","Type de vo":"non classée","Vitesse ma":null,"Accès":null,"Référenc":null,"Nom":null,"Type de pi":null,"surface":"Terre","Sens uniqu":null},"geometry":{"type":"LineString","coordinates":[[-16.4785847,15.8688736],[-16.4784207,15.8695664],[-16.4788775,15.8697236],[-16.4796335,15.8706415],[-16.480876,15.8717323]]}},{"type":"Feature","properties":{"full_id":"w1013939567","Type de vo":"non classée","Vitesse ma":null,"Accès":null,"Référenc":null,"Nom":null,"Type de pi":null,"surface":"Terre","Sens uniqu":null},"geometry":{"type":"LineString","coordinates":[[-16.4847234,15.8718174],[-16.4824627,15.8723546],[-16.4818185,15.8723649],[-16.481153,15.872228],[-16.480876,15.8717323]]}},{"type":"Feature","properties":{"full_id":"w1013941966","Type de vo":"non classée","Vitesse ma":null,"Accès":null,"Référenc":null,"Nom":null,"Type de pi":null,"surface":"Terre","Sens uniqu":null},"geometry":{"type":"LineString","coordinates":[[-16.4754008,15.8836909],[-16.4735179,15.8830279],[-16.4739242,15.8808443]]}},{"type":"Feature","properties":{"full_id":"w1125044669","Type de vo":"non classée","Vitesse ma":null,"Accès":null,"Référenc":null,"Nom":null,"Type de pi":null,"surface":"Sol naturel","Sens uniqu":null},"geometry":{"type":"LineString","coordinates":[[-16.5150368,15.8316763],[-16.5134275,15.8310724],[-16.5125625,15.8305201]]}},{"type":"Feature","properties":{"full_id":"w1125044670","Type de vo":"non classée","Vitesse ma":null,"Accès":null,"Référenc":null,"Nom":null,"Type de pi":null,"surface":"Sol naturel","Sens uniqu":null},"geometry":{"type":"LineString","coordinates":[[-16.503354941965796,15.830071832677252],[-16.5040719,15.8305201],[-16.5056437,15.8311085],[-16.5078485,15.8316711],[-16.5105039,15.8327034],[-16.511668,15.8327395],[-16.5138459,15.8324453],[-16.5144624,15.8325744]]}},{"type":"Feature","properties":{"full_id":"w1154018818","Type de vo":"non classée","Vitesse ma":null,"Accès":null,"Référenc":null,"Nom":null,"Type de pi":null,"surface":"Non revêtu","Sens uniqu":null},"geometry":{"type":"LineString","coordinates":[[-16.461597787276087,15.900546930735967],[-16.462297,15.9002022],[-16.4626214,15.9002022],[-16.464453,15.9004882],[-16.4664198,15.9010537],[-16.4695829,15.9015217],[-16.4714956,15.9026332],[-16.4723962,15.9033421],[-16.4723884,15.9041171]]}}]}