{"type":"FeatureCollection","name":"urbanisation-empreinte-2024.geojson","features":[{"type":"Feature","properties":{"fid":5575.0,"DN":7,"Nature":"Empreinte urbaine"},"geometry":{"type":"Polygon","coordinates":[[[-16.513276254652954,15.942656598671142],[-16.513180137784367,15.942295762840567],[-16.512898565279155,15.942116983998451],[-16.51298858285591,15.941664463838631],[-16.513174716114552,15.941572779629057],[-16.51317200538402,15.941211288004471],[-16.51391924734689,15.941206041321733],[-16.514294902769826,15.9414745355887],[-16.514206922744663,15.94219817461276],[-16.513833300011303,15.942200798934968],[-16.513836690137406,15.942652663283758],[-16.513276254652954,15.942656598671142]]]}},{"type":"Feature","properties":{"fid":5580.0,"DN":7,"Nature":"Empreinte urbaine"},"geometry":{"type":"Polygon","coordinates":[[[-16.482160556304212,15.941336368772221],[-16.482159892512325,15.941245994578898],[-16.48225329911846,15.941245352318633],[-16.482160556304212,15.941336368772221]]]}},{"type":"Feature","properties":{"fid":5597.0,"DN":7,"Nature":"Empreinte urbaine"},"geometry":{"type":"Polygon","coordinates":[[[-16.479999609172634,15.93963401820585],[-16.47999828367733,15.93945326961266],[-16.480185095409468,15.939451987064889],[-16.480187746751405,15.939813484217526],[-16.479999609172634,15.93963401820585]]]}},{"type":"Feature","properties":{"fid":5600.0,"DN":7,"Nature":"Empreinte urbaine"},"geometry":{"type":"MultiPolygon","coordinates":[[[[-16.474302498285645,15.93976343320931],[-16.474307119837796,15.940396054884634],[-16.474065204875185,15.940633449165299],[-16.47400148262874,15.93964931577889],[-16.474302498285645,15.93976343320931]]],[[[-16.474217014315297,15.94084856629014],[-16.474497234577488,15.940846649757516],[-16.474498555268646,15.941027398777498],[-16.47515240298387,15.941022925399311],[-16.475241845754624,15.940480039297066],[-16.47542733736321,15.940298011836733],[-16.47533128817226,15.939937153171922],[-16.475610185435595,15.939754486350491],[-16.475608203078732,15.939483362923625],[-16.476075233375447,15.939480165753338],[-16.476167317370543,15.939298777288572],[-16.476354129283887,15.939297498071783],[-16.476450179855682,15.939658356172652],[-16.47626535087643,15.939930758842912],[-16.47626997863143,15.940563379947056],[-16.476084487626157,15.940745408084846],[-16.47608713185052,15.941106905865656],[-16.475808894265064,15.941379947856724],[-16.47572143568668,15.942193957407513],[-16.475259024314973,15.942829775601433],[-16.47488605435161,15.942922707004694],[-16.47488407255263,15.942651583568608],[-16.474234181362416,15.94319830360261],[-16.474234540146703,15.943247407105956],[-16.474234426656505,15.943246928977992],[-16.474070056267752,15.940708374605975],[-16.474217014315297,15.94084856629014]],[[-16.47450383820281,15.94175039482609],[-16.47441043103503,15.94175103374882],[-16.47441109137907,15.941841408255184],[-16.47450383820281,15.94175039482609]],[[-16.47440977069522,15.941660659241686],[-16.474316363564995,15.941661298120172],[-16.474317023863005,15.94175167263112],[-16.47440977069522,15.941660659241686]],[[-16.4751543849301,15.941294048843403],[-16.475060978000972,15.941294688030183],[-16.4750616386164,15.94138506251379],[-16.4751543849301,15.941294048843403]]]]}},{"type":"Feature","properties":{"fid":5607.0,"DN":7,"Nature":"Empreinte urbaine"},"geometry":{"type":"Polygon","coordinates":[[[-16.48009036398366,15.939271879770326],[-16.48008970120911,15.939181505474819],[-16.48027584982812,15.939089848580467],[-16.480277175540127,15.939270597156977],[-16.48009036398366,15.939271879770326]]]}},{"type":"Feature","properties":{"fid":5628.0,"DN":7,"Nature":"Empreinte urbaine"},"geometry":{"type":"Polygon","coordinates":[[[-16.491829532849053,15.947776914510792],[-16.491820843912254,15.946602055813482],[-16.491446540990662,15.946514268269302],[-16.49144520463853,15.946333520733257],[-16.491070234332057,15.946155358692433],[-16.49106489050146,15.94543236838107],[-16.4905898368897,15.944351113397612],[-16.490668555264378,15.94236224320223],[-16.490287586140443,15.94137071436722],[-16.490279577235235,15.940286228013226],[-16.48999135297587,15.939203678385331],[-16.49017682905625,15.939021639436664],[-16.490174827231574,15.938750517786078],[-16.49054577793938,15.938386439523326],[-16.49110754277895,15.938563311930972],[-16.491386422120435,15.938380626043312],[-16.4913850865399,15.93819987836619],[-16.49175803777923,15.938106919752563],[-16.492126311943228,15.937381343832307],[-16.492499929492098,15.937378757887965],[-16.49268206001934,15.936744848106958],[-16.493065703820005,15.938097867949608],[-16.493632819925754,15.938997723616412],[-16.493636164116722,15.939449592305422],[-16.49382565044894,15.939809792849125],[-16.49383702321384,15.94134614606072],[-16.494025173740873,15.9415255987807],[-16.494029857649974,15.942158214678166],[-16.493661583475365,15.942883793701611],[-16.49366760475776,15.943697157024403],[-16.493857764979538,15.944147730745795],[-16.493865795157912,15.945232214937775],[-16.49424344326668,15.9457718667005],[-16.49424745974572,15.946314108633304],[-16.493881857369654,15.947401182983052],[-16.49388535234974,15.94787307159891],[-16.491942290523735,15.9480177159201],[-16.491829532849053,15.947776914510792]]]}},{"type":"Feature","properties":{"fid":5688.0,"DN":7,"Nature":"Empreinte urbaine"},"geometry":{"type":"Polygon","coordinates":[[[-16.482006765835756,15.933112955848047],[-16.48209817848565,15.932841191176664],[-16.482378386633922,15.932839265342821],[-16.482192908085302,15.93302129779634],[-16.482379713680306,15.93302001385138],[-16.482381040743732,15.933200762356801],[-16.482006765835756,15.933112955848047]]]}},{"type":"Feature","properties":{"fid":5707.0,"DN":7,"Nature":"Empreinte urbaine"},"geometry":{"type":"Polygon","coordinates":[[[-16.48228033968632,15.932207287496448],[-16.482279676241106,15.932116913231686],[-16.482373078618785,15.932116271277286],[-16.48228033968632,15.932207287496448]]]}},{"type":"Feature","properties":{"fid":5713.0,"DN":7,"Nature":"Empreinte urbaine"},"geometry":{"type":"Polygon","coordinates":[[[-16.48218494706505,15.931936806606142],[-16.482184283674385,15.9318464323352],[-16.48227768593102,15.931845790432703],[-16.48218494706505,15.931936806606142]]]}},{"type":"Feature","properties":{"fid":5754.0,"DN":7,"Nature":"Empreinte urbaine"},"geometry":{"type":"Polygon","coordinates":[[[-16.482455865111564,15.930669641062341],[-16.482454538203168,15.930488892520732],[-16.48254793982055,15.930488250554433],[-16.482455865111564,15.930669641062341]]]}},{"type":"Feature","properties":{"fid":5835.0,"DN":7,"Nature":"Empreinte urbaine"},"geometry":{"type":"Polygon","coordinates":[[[-16.501605812449508,15.93089868530919],[-16.501604468383963,15.930717938353997],[-16.501790598080763,15.930626264310536],[-16.50188131037265,15.930264120091202],[-16.501505691718695,15.929995600696468],[-16.501315531265007,15.929545033473193],[-16.501033986677555,15.92936623648863],[-16.500748413171568,15.928645197917048],[-16.50074505545843,15.928193330250759],[-16.500929840177555,15.927920910036887],[-16.500919095090897,15.926474933459591],[-16.501199291997345,15.926472983935632],[-16.501296049513524,15.926924201637913],[-16.501858460373466,15.927191421635872],[-16.501860476349194,15.927462542124251],[-16.502234073880302,15.927459940891481],[-16.50223541821972,15.927640687848774],[-16.50251561657325,15.927638736476686],[-16.502701070697064,15.927456688441467],[-16.50279783218098,15.927907905101184],[-16.502719226373163,15.929896771576558],[-16.502346969074747,15.930080120943746],[-16.50207214510758,15.930805060078383],[-16.501791942304724,15.930807011251774],[-16.501793286545954,15.930987758189888],[-16.501605812449508,15.93089868530919]],[[-16.501691820832225,15.929903926785741],[-16.501598420302606,15.929904577016847],[-16.501599092294384,15.929994950501888],[-16.501691820832225,15.929903926785741]]]}},{"type":"Feature","properties":{"fid":5919.0,"DN":7,"Nature":"Empreinte urbaine"},"geometry":{"type":"Polygon","coordinates":[[[-16.504432081481436,15.934132599981385],[-16.504522116461636,15.933680081704377],[-16.504241909986096,15.933682036402876],[-16.504338679114063,15.934133251566985],[-16.50396439636677,15.934045484153225],[-16.50396237668895,15.93377436409269],[-16.50414783452242,15.933592314540112],[-16.503866281790888,15.93341352202008],[-16.504143121567846,15.93295970108151],[-16.5041417750483,15.932778954371999],[-16.503862242906287,15.932871281835727],[-16.503858877287964,15.932419414993873],[-16.50404298772336,15.932056618877573],[-16.50422979055833,15.932055316087208],[-16.504223731369645,15.931241955834144],[-16.504035583014673,15.93106251180751],[-16.504025486527436,15.92970691110461],[-16.504297609522997,15.928620476612098],[-16.504285493700703,15.926993755576426],[-16.504377546569366,15.926812357508167],[-16.50456434452579,15.926811054845285],[-16.50447431128974,15.927263573145725],[-16.504754508831187,15.927261618911297],[-16.504752488998452,15.926990498779345],[-16.505031339341176,15.926807797481066],[-16.505027299092838,15.92626555725658],[-16.504840501680654,15.92626686027682],[-16.504837808602232,15.92590536674706],[-16.505118004213053,15.925903412202747],[-16.50520938247696,15.925631640498287],[-16.504741717214404,15.925544524623191],[-16.50455290110843,15.925274707138922],[-16.50482771017432,15.924549765898814],[-16.50520130180868,15.924547159992182],[-16.50519726170808,15.924004919696824],[-16.505009119901832,15.923825475897338],[-16.505193895076513,15.92355305276248],[-16.505668964828267,15.924634275060404],[-16.50557826107816,15.924996420252729],[-16.505767751827516,15.92535661010058],[-16.506048620336994,15.92544502775212],[-16.50595926457603,15.925987919725287],[-16.50614740934207,15.926167362414814],[-16.50614943093677,15.926438482392935],[-16.505889449048667,15.9291516380838],[-16.505703322836737,15.929243315400551],[-16.505521912573823,15.929967605840368],[-16.50524440590306,15.930331054720897],[-16.50497498095445,15.931778983325147],[-16.505070403101705,15.932049451530052],[-16.50479221951866,15.932322526746464],[-16.504703532501,15.932955791749785],[-16.504893704156085,15.933406354920495],[-16.504432081481436,15.934132599981385]],[[-16.505203995295574,15.924908653506758],[-16.50538809759991,15.924545856796499],[-16.50520130180868,15.924547159992182],[-16.505203995295574,15.924908653506758]],[[-16.504419960160902,15.932505879876151],[-16.504326558545394,15.932506531391804],[-16.504235850097146,15.932868676276787],[-16.5045160554449,15.932866721683212],[-16.504419960160902,15.932505879876151]],[[-16.50469747104374,15.932142431742145],[-16.504604069608266,15.932143083363492],[-16.504604743044453,15.932233456704697],[-16.50469747104374,15.932142431742145]]]}},{"type":"Feature","properties":{"fid":6341.0,"DN":7,"Nature":"Empreinte urbaine"},"geometry":{"type":"Polygon","coordinates":[[[-16.508012062871337,15.900667722681403],[-16.50801004222531,15.900396602290703],[-16.508103428848592,15.900395950460496],[-16.508012062871337,15.900667722681403]]]}},{"type":"Feature","properties":{"fid":6400.0,"DN":7,"Nature":"Empreinte urbaine"},"geometry":{"type":"Polygon","coordinates":[[[-16.50491349460096,15.898429870824343],[-16.504912822531207,15.898339497213607],[-16.505006208338877,15.898338846803677],[-16.50491349460096,15.898429870824343]]]}},{"type":"Feature","properties":{"fid":6430.0,"DN":7,"Nature":"Empreinte urbaine"},"geometry":{"type":"Polygon","coordinates":[[[-16.487732418276767,15.898819983595777],[-16.487167448525607,15.898191220367865],[-16.486046810204282,15.898198930062275],[-16.486044819309324,15.897927806877751],[-16.486603146190305,15.897652829703027],[-16.48660181847396,15.897472080950815],[-16.487535680194956,15.897465654496463],[-16.488098655138863,15.897823293943807],[-16.488197358199656,15.898545645261933],[-16.488012578559147,15.898818054458312],[-16.487732418276767,15.898819983595777]],[[-16.486603810054877,15.897743204077967],[-16.48669653246495,15.897652187231369],[-16.486603146190305,15.897652829703027],[-16.486603810054877,15.897743204077967]]]}},{"type":"Feature","properties":{"fid":6520.0,"DN":7,"Nature":"Empreinte urbaine"},"geometry":{"type":"Polygon","coordinates":[[[-16.495255337460243,15.893164579552677],[-16.49572025340713,15.892890226874922],[-16.495733608711227,15.894697707489756],[-16.49564556645456,15.895421345938448],[-16.495369417983284,15.895965528746128],[-16.495255337460243,15.893164579552677]]]}},{"type":"Feature","properties":{"fid":6522.0,"DN":7,"Nature":"Empreinte urbaine"},"geometry":{"type":"Polygon","coordinates":[[[-16.495814304861938,15.892979954686762],[-16.495813637095885,15.892889580652453],[-16.495907020780347,15.892888934389681],[-16.495814304861938,15.892979954686762]]]}},{"type":"Feature","properties":{"fid":6531.0,"DN":7,"Nature":"Empreinte urbaine"},"geometry":{"type":"Polygon","coordinates":[[[-16.495624199026025,15.892529376881129],[-16.49562353136475,15.892439002835193],[-16.49581029833006,15.892437710469203],[-16.495624199026025,15.892529376881129]]]}},{"type":"Feature","properties":{"fid":6697.0,"DN":7,"Nature":"Empreinte urbaine"},"geometry":{"type":"Polygon","coordinates":[[[-16.510546332160388,15.877332452727044],[-16.510545658517977,15.877242079175534],[-16.51063903435637,15.877241427174537],[-16.510546332160388,15.877332452727044]]]}},{"type":"Feature","properties":{"fid":6699.0,"DN":7,"Nature":"Empreinte urbaine"},"geometry":{"type":"Polygon","coordinates":[[[-16.510452282675253,15.877242731136265],[-16.51044958831538,15.876881236906808],[-16.510542963991696,15.87688058496168],[-16.510452282675253,15.877242731136265]]]}},{"type":"Feature","properties":{"fid":6714.0,"DN":7,"Nature":"Empreinte urbaine"},"geometry":{"type":"Polygon","coordinates":[[[-16.508003307020076,15.899492867604184],[-16.507721801635306,15.899314075765943],[-16.50753166299466,15.898863511492156],[-16.50715811920518,15.898866117338375],[-16.50697269331355,15.899048167059705],[-16.506225604790924,15.899053376233566],[-16.50603816001698,15.898964304565165],[-16.506035469660137,15.89860281032293],[-16.505754639538438,15.89851438922327],[-16.50574993248573,15.897881774182087],[-16.50556450603581,15.898063822742017],[-16.50565923647277,15.898243919224665],[-16.50537975152633,15.898336244760713],[-16.505189619032333,15.897885677855731],[-16.504910134295415,15.897978002762837],[-16.50472201907513,15.89779855618501],[-16.504441862350234,15.897800506860964],[-16.50434713319192,15.897620409725794],[-16.504161033880273,15.897712083526715],[-16.504062946794672,15.89708011796635],[-16.50387550470856,15.896991044165437],[-16.503868117980552,15.895996933796509],[-16.503681348423665,15.895998233406308],[-16.503677320019456,15.895455991300398],[-16.50348920834497,15.8952765433119],[-16.50348316685766,15.89446318001627],[-16.50366993501548,15.894461880699778],[-16.503759962232383,15.894009362514357],[-16.503573194499733,15.89401066187265],[-16.50348115310627,15.894192058903652],[-16.503477125720067,15.893649816657296],[-16.503006181143135,15.893110821677357],[-16.502539263689084,15.893114067964172],[-16.50245057542916,15.893747333383669],[-16.502750184402956,15.896366223913134],[-16.503127080297503,15.896815494583805],[-16.50331385065609,15.896814195387945],[-16.503221807976015,15.896995592393166],[-16.503411263871836,15.897355787834943],[-16.50304644794774,15.89853324432018],[-16.502673575073405,15.89862621606415],[-16.502578846963633,15.8984461180643],[-16.50229868906583,15.898448066039458],[-16.502022555888367,15.898992256021923],[-16.501742397162896,15.898994203341053],[-16.50146559123314,15.899448019033953],[-16.501185431805013,15.899449965685372],[-16.501186772718988,15.899630713197842],[-16.500999999578664,15.899632010779333],[-16.50090527233808,15.899451911973852],[-16.500902591061894,15.899090416893008],[-16.501089363710808,15.899089119438694],[-16.501184090908282,15.899269218169778],[-16.501181409166556,15.898907723129195],[-16.50052703530049,15.898821889952348],[-16.500525024927413,15.89855076857995],[-16.500245536615076,15.898643087708503],[-16.500433649077333,15.898822538446082],[-16.500436329468428,15.899184033613828],[-16.49987601103897,15.899187923822366],[-16.499779945394604,15.898827076773085],[-16.499032185751076,15.898741887160972],[-16.498746003147833,15.897930465766288],[-16.498465845469973,15.897932408711817],[-16.498463837976058,15.897661287060355],[-16.49808761891363,15.89730238143529],[-16.498178997507537,15.897030612312776],[-16.497990888677357,15.89685115926766],[-16.49798888196329,15.896580037530011],[-16.497802780180475,15.896671706027188],[-16.497804117827506,15.89685245386698],[-16.497617346960453,15.896853748305015],[-16.497335184788444,15.896584567840787],[-16.497515937396138,15.89576990823862],[-16.497593943537396,15.893690660386296],[-16.496926222170828,15.891797334922538],[-16.496552021552013,15.891709547306329],[-16.496090448745807,15.892435771617901],[-16.495715579456586,15.892257608585853],[-16.495526142248078,15.891897404642492],[-16.495434761674094,15.892169172874258],[-16.49524799492432,15.892170464894601],[-16.49523865063,15.890905227920264],[-16.495336038268373,15.891446826397477],[-16.495710238056525,15.891534616208585],[-16.49551946654568,15.890993664054582],[-16.495608843903252,15.890450773626755],[-16.495236648390705,15.890634105691548],[-16.4952299745388,15.889730364878352],[-16.49551012128378,15.889728427100193],[-16.495600165925758,15.889275910734874],[-16.495878976735714,15.889093224405269],[-16.495877641494015,15.888912476276387],[-16.49606440518532,15.888911183969897],[-16.495962344148268,15.887736967279551],[-16.49614843906494,15.887645300928734],[-16.496331195054385,15.887101764133492],[-16.496705386910488,15.8871895529082],[-16.497076238686518,15.88682547085146],[-16.497637191938868,15.886911964848034],[-16.497635855321295,15.886731216828524],[-16.49810342762752,15.886818356386595],[-16.498287514830814,15.88645556638675],[-16.498568325363607,15.886543999010453],[-16.498566987947807,15.886363251062065],[-16.498845791958566,15.88618056143265],[-16.499034559605406,15.886450388647281],[-16.499221320756018,15.886449093809485],[-16.499132622992125,15.88708235888616],[-16.49931938471698,15.887081063913572],[-16.499508153907037,15.887350890566312],[-16.50016048171363,15.88716560844485],[-16.500251184640046,15.88680346493238],[-16.50099354147621,15.886165663188008],[-16.501084912400685,15.88589389333535],[-16.501078214555367,15.884990154553254],[-16.500983495300325,15.88481005496258],[-16.500517266053983,15.88490366914043],[-16.500421877866334,15.88463319534409],[-16.50088542796613,15.88417808583824],[-16.501723832839303,15.883901129829034],[-16.50228410849637,15.883897238472848],[-16.502282097758666,15.88362611694609],[-16.502376817465613,15.883806215934893],[-16.502843713498205,15.883802971848183],[-16.503031813051756,15.883982421551567],[-16.503405330098623,15.883979825203713],[-16.50359007609734,15.883707405426673],[-16.503869542487482,15.883615083758968],[-16.503964934535674,15.883885555702529],[-16.504337780077435,15.883792584002714],[-16.504339122413608,15.883973331514056],[-16.504618588728775,15.883881008877953],[-16.504900069019598,15.884059807097717],[-16.50517953512781,15.883967483748911],[-16.505178192042422,15.883786736307519],[-16.505458329286306,15.883784786350647],[-16.50545631431603,15.883513665217686],[-16.505826471051453,15.883059196265055],[-16.506018603657363,15.8837808853492],[-16.505933287373907,15.884866019845006],[-16.506123406557162,15.88531658753243],[-16.506403545794228,15.885314636168609],[-16.50667629019742,15.884318574289294],[-16.507029637279516,15.88160476207294],[-16.50693020942181,15.880792049661604],[-16.507393735610382,15.880336928067845],[-16.507483750992442,15.879884409024186],[-16.507762537516662,15.879701709254297],[-16.50784851681344,15.878706948226858],[-16.508126628825618,15.878433874493693],[-16.508030562071067,15.878073030863934],[-16.507749760626695,15.877984609806605],[-16.507837084887807,15.877170596022786],[-16.50764697135299,15.87672002918344],[-16.507926426062028,15.876627703208507],[-16.508201845171612,15.875993134946114],[-16.50802383672835,15.877169294323835],[-16.50858745601142,15.877617256423525],[-16.50859014718166,15.877978750939825],[-16.508874313589565,15.87851903894026],[-16.509434572517847,15.878515130351781],[-16.509525929280397,15.878243358024342],[-16.509990790660282,15.877968978913321],[-16.510551047778687,15.87796506756573],[-16.510552395137225,15.878145814655461],[-16.51027293990886,15.87823814408927],[-16.51009090174336,15.878872062735146],[-16.510015036780242,15.8812224268926],[-16.509830975404043,15.8815852248223],[-16.509944561937818,15.884295778854971],[-16.510231437605565,15.885197557690471],[-16.51024087200576,15.886462786595805],[-16.509324583219783,15.888819018188533],[-16.509145229836932,15.889814430549077],[-16.509335361573765,15.890264994191202],[-16.509340077452514,15.890897608629416],[-16.508697177326194,15.892348147833047],[-16.50860783520872,15.89289104062729],[-16.508524554046176,15.894247294882614],[-16.50880807349288,15.89469720674456],[-16.508529268635623,15.894879909325432],[-16.508533983437335,15.89551252372991],[-16.508349908663995,15.895875321291914],[-16.50845070232204,15.896868777776058],[-16.508176608651006,15.897684094529367],[-16.5084594592487,15.898043632895055],[-16.508464174820144,15.898676247135135],[-16.508096693226648,15.899492215812927],[-16.50810140811653,15.900124830074441],[-16.508003307020076,15.899492867604184]],[[-16.49817632152967,15.896669116698215],[-16.498082936198823,15.896669764090936],[-16.498083605145176,15.896760137999621],[-16.49817632152967,15.896669116698215]],[[-16.49808026045644,15.896308268448392],[-16.49798687528794,15.896308915785319],[-16.497894827811074,15.896490310920232],[-16.498082267256773,15.896579390181474],[-16.49808026045644,15.896308268448392]],[[-16.49810877590075,15.887541348284905],[-16.49773458299473,15.887453562050906],[-16.49764320693079,15.887725330897151],[-16.49801673180442,15.887722743261357],[-16.49810877590075,15.887541348284905]],[[-16.503519506155335,15.88678076312559],[-16.503512126168747,15.885786651656566],[-16.503323353614338,15.885516828797497],[-16.502952516239798,15.885880920441315],[-16.502961905604078,15.8871461535188],[-16.503242047779626,15.887144206031614],[-16.503519506155335,15.88678076312559]],[[-16.498665718604666,15.887085595612467],[-16.49857233771427,15.88708624283685],[-16.498573006454436,15.887176616805181],[-16.498665718604666,15.887085595612467]],[[-16.50830598238848,15.877438462408582],[-16.50821260635855,15.877439113410679],[-16.50821327896954,15.87752948705807],[-16.50830598238848,15.877438462408582]]]}},{"type":"Feature","properties":{"fid":6729.0,"DN":7,"Nature":"Empreinte urbaine"},"geometry":{"type":"Polygon","coordinates":[[[-16.50567466612767,15.875197331180276],[-16.50567399475238,15.8751069574075],[-16.5057673698175,15.875106307593747],[-16.50567466612767,15.875197331180276]]]}},{"type":"Feature","properties":{"fid":6731.0,"DN":7,"Nature":"Empreinte urbaine"},"geometry":{"type":"Polygon","coordinates":[[[-16.508106452328626,15.875722664849564],[-16.50829118512697,15.875450242053914],[-16.50819444749854,15.874999024635681],[-16.508661321988843,15.87499576974839],[-16.50857063776732,15.875357915413328],[-16.508383887642754,15.875359217439666],[-16.508295220535913,15.875992484006334],[-16.508106452328626,15.875722664849564]]]}},{"type":"Feature","properties":{"fid":6787.0,"DN":7,"Nature":"Empreinte urbaine"},"geometry":{"type":"Polygon","coordinates":[[[-16.51008079957717,15.877516459287211],[-16.50988125449832,15.875800664687798],[-16.509503715040843,15.875261029254256],[-16.509493619219228,15.873905424986532],[-16.509304178790646,15.873545233161126],[-16.509394188217286,15.873092713679982],[-16.50920542169438,15.872822895305358],[-16.509202730347003,15.872461400719995],[-16.508826544913116,15.872102510579973],[-16.50835967712089,15.872105765246557],[-16.508357659830697,15.871834644184757],[-16.508544406711053,15.87183334246226],[-16.508541716718717,15.871471847733421],[-16.508915882420013,15.871559617535517],[-16.509101283520994,15.871377568032567],[-16.508897049635063,15.8690291545419],[-16.509737398624665,15.86902329443642],[-16.510028284035705,15.870467318523598],[-16.51031042195958,15.870736484732683],[-16.510872006005965,15.870913321474655],[-16.51096874669285,15.871364537511411],[-16.511155492914654,15.87136323357375],[-16.51115751388266,15.871634354296381],[-16.510878067709093,15.871726683761963],[-16.510601314972643,15.872180507261191],[-16.51070074997832,15.87299321769748],[-16.510518042912675,15.873536762890758],[-16.510534207260456,15.875705728680293],[-16.51034813047059,15.875797406001467],[-16.510448914736255,15.876790863347495],[-16.510356886176588,15.876972262374112],[-16.510170134719072,15.87697356607084],[-16.510267551542597,15.87751515562422],[-16.51008079957717,15.877516459287211]]]}},{"type":"Feature","properties":{"fid":6814.0,"DN":7,"Nature":"Empreinte urbaine"},"geometry":{"type":"Polygon","coordinates":[[[-16.50898302363992,15.868034392993575],[-16.50869752949143,15.867313355959494],[-16.509068997249855,15.867039631396228],[-16.509066307177736,15.8666781365953],[-16.509344402394966,15.866405062577703],[-16.509619133254077,15.865680119835853],[-16.510178683557044,15.865585838730873],[-16.510366770613725,15.865765283248068],[-16.510372828221502,15.86657864611166],[-16.51019214354826,15.867393311862418],[-16.50991472127492,15.867756760621846],[-16.509634606756276,15.86775871443028],[-16.50954325356855,15.868030486634563],[-16.50898302363992,15.868034392993575]]]}},{"type":"Feature","properties":{"fid":6822.0,"DN":7,"Nature":"Empreinte urbaine"},"geometry":{"type":"Polygon","coordinates":[[[-16.51132135549092,15.868560348504777],[-16.511315966844247,15.867837359745408],[-16.51140799111689,15.867655960598057],[-16.51159473388574,15.867654656577942],[-16.511686084119866,15.867382883752022],[-16.51131192554143,15.867295118143067],[-16.51148991128512,15.866118957434605],[-16.511390479077228,15.865306246845693],[-16.511669242773532,15.86512354384944],[-16.511943963733597,15.864398598946426],[-16.512410813010444,15.864395338089949],[-16.512691596548756,15.864483754662038],[-16.512693618647692,15.864754875363664],[-16.512326203656766,15.865570846877912],[-16.512336312829465,15.8669264504095],[-16.51215091859241,15.867108502150884],[-16.512152940320753,15.867379622854859],[-16.511966871688397,15.867471300908683],[-16.51187889091012,15.868194941689023],[-16.511508099099967,15.868559044487087],[-16.51132135549092,15.868560348504777]]]}},{"type":"Feature","properties":{"fid":6861.0,"DN":7,"Nature":"Empreinte urbaine"},"geometry":{"type":"Polygon","coordinates":[[[-16.50538715726377,15.874205168719765],[-16.50462406011827,15.872041392508383],[-16.504155179898124,15.871773516509087],[-16.50387170702493,15.871323593955761],[-16.503677586971154,15.870330778795685],[-16.503862321827402,15.870058359561845],[-16.504141769805326,15.869966039067778],[-16.504417864643735,15.869421848879215],[-16.504225755949438,15.868700155779216],[-16.50431778716691,15.868518759077562],[-16.50365882108013,15.867800309396792],[-16.503284663906168,15.86771252967522],[-16.503373345628408,15.86707926365399],[-16.502999189892293,15.866991483307398],[-16.502997850260694,15.866810735401364],[-16.502812446992632,15.866992779860823],[-16.50281110752733,15.866812031939265],[-16.50262369513367,15.866722954346486],[-16.50262771305659,15.867265198153053],[-16.50234692873483,15.867176768497405],[-16.5023429115861,15.866634524616313],[-16.5020601201244,15.866274972511585],[-16.502340903069953,15.866363402665224],[-16.502431596125042,15.866001258706802],[-16.502993161685986,15.866178117705628],[-16.50317856409986,15.865996073156545],[-16.503645418943904,15.865992830879886],[-16.50374013011885,15.866172930161818],[-16.50373878989977,15.865992182303842],[-16.503925531798547,15.865990885031039],[-16.503922851079626,15.865629389336776],[-16.50345666709711,15.865723006083494],[-16.502894432832754,15.865455774237374],[-16.502891084360627,15.865003904380648],[-16.503075146389968,15.864641112049126],[-16.503448627797,15.864638518702145],[-16.5034499676372,15.864819266606846],[-16.50363670848109,15.864817969676421],[-16.50363536847462,15.864637221787248],[-16.50391547945869,15.864635276113143],[-16.504100209492332,15.864362857014545],[-16.504286949860134,15.864361559559669],[-16.50419156899173,15.864091086530491],[-16.50437763879812,15.863999415099084],[-16.504466316511234,15.863366148856347],[-16.504092837621716,15.863368743756116],[-16.503996117418744,15.862917522666907],[-16.504270194286065,15.86210221130265],[-16.50464165982739,15.861828494521575],[-16.5047276550829,15.860833732481893],[-16.505005078945473,15.86047029016319],[-16.505003067693753,15.860199168390654],[-16.50555992376948,15.859743404682135],[-16.50621215781099,15.859558112009065],[-16.506304183779264,15.859376714828192],[-16.50714583645758,15.859551615933656],[-16.507609989477473,15.859186871093808],[-16.508169523557033,15.859092596602748],[-16.507988833744967,15.859907261246],[-16.50771141626046,15.860270706876937],[-16.507628122274113,15.861626964085007],[-16.50781687501899,15.86189678519095],[-16.507919649269866,15.863161367961869],[-16.508298503320148,15.863881756577738],[-16.508306568142924,15.864966241607572],[-16.5080398975319,15.866775668034926],[-16.508240755666357,15.868672215275506],[-16.508057372461423,15.869125385111413],[-16.508061405553008,15.869667627438691],[-16.508350263433375,15.870840533564675],[-16.507885414967486,15.871114908098292],[-16.50770337348279,15.871748825229437],[-16.507240537861637,15.872294319804517],[-16.50715186759304,15.8729275862687],[-16.506875104678517,15.873381405817776],[-16.50603406506119,15.873296882602334],[-16.505943376521362,15.873659027561365],[-16.50575662773513,15.873660327185217],[-16.505944047952276,15.873749401334976],[-16.50604010831377,15.874110246529867],[-16.505949419555233,15.874472391495773],[-16.50538715726377,15.874205168719765]],[[-16.505862165285382,15.862723795188884],[-16.505858139928698,15.862181551963806],[-16.505573337403163,15.86155088264463],[-16.50519986204573,15.861553479164508],[-16.504829738635344,15.862007944638064],[-16.504831749896866,15.862279066387082],[-16.50511453971187,15.862638615054749],[-16.5051172220222,15.863000110650052],[-16.50567810988578,15.863086589370607],[-16.505862165285382,15.862723795188884]]]}},{"type":"Feature","properties":{"fid":6862.0,"DN":7,"Nature":"Empreinte urbaine"},"geometry":{"type":"Polygon","coordinates":[[[-16.508169523557033,15.859092596602748],[-16.508168851787577,15.859002222799914],[-16.508262219331556,15.8590015725521],[-16.508169523557033,15.859092596602748]]]}},{"type":"Feature","properties":{"fid":6908.0,"DN":7,"Nature":"Empreinte urbaine"},"geometry":{"type":"Polygon","coordinates":[[[-16.511110850485803,15.852835982979443],[-16.51111017768598,15.852745609247487],[-16.511203542225072,15.852744957981903],[-16.511110850485803,15.852835982979443]]]}},{"type":"Feature","properties":{"fid":6916.0,"DN":7,"Nature":"Empreinte urbaine"},"geometry":{"type":"Polygon","coordinates":[[[-16.511200850903027,15.852383463061887],[-16.511010758513038,15.851932896815017],[-16.511385560940788,15.85211103926655],[-16.511388252543032,15.852472534164722],[-16.511200850903027,15.852383463061887]]]}},{"type":"Feature","properties":{"fid":6917.0,"DN":7,"Nature":"Empreinte urbaine"},"geometry":{"type":"Polygon","coordinates":[[[-16.511289505334332,15.851750195658951],[-16.51128815967698,15.851569448191137],[-16.511381523667527,15.851568796895883],[-16.511289505334332,15.851750195658951]]]}},{"type":"Feature","properties":{"fid":6921.0,"DN":7,"Nature":"Empreinte urbaine"},"geometry":{"type":"Polygon","coordinates":[[[-16.51081999443446,15.851391956554439],[-16.510817976629866,15.851120835283652],[-16.51119277735317,15.851298978226895],[-16.51119412290145,15.851479725707199],[-16.51081999443446,15.851391956554439]]]}},{"type":"Feature","properties":{"fid":6929.0,"DN":7,"Nature":"Empreinte urbaine"},"geometry":{"type":"Polygon","coordinates":[[[-16.510997305038146,15.850125421793491],[-16.510996632409928,15.85003504803422],[-16.511089995707557,15.850034396925894],[-16.510997305038146,15.850125421793491]]]}},{"type":"Feature","properties":{"fid":6931.0,"DN":7,"Nature":"Empreinte urbaine"},"geometry":{"type":"Polygon","coordinates":[[[-16.511089995707557,15.850034396925894],[-16.511089323042153,15.849944023169748],[-16.51118268629393,15.84994337202513],[-16.511089995707557,15.850034396925894]]]}},{"type":"Feature","properties":{"fid":6934.0,"DN":7,"Nature":"Empreinte urbaine"},"geometry":{"type":"Polygon","coordinates":[[[-16.509499459303992,15.849593591180836],[-16.50968282555714,15.84914042114866],[-16.509963586501577,15.849228843318238],[-16.510059638195184,15.849589687903652],[-16.51024569218755,15.849498012694552],[-16.51015434579859,15.849769784812551],[-16.509499459303992,15.849593591180836]]]}},{"type":"Feature","properties":{"fid":6939.0,"DN":7,"Nature":"Empreinte urbaine"},"geometry":{"type":"Polygon","coordinates":[[[-16.51136335786985,15.84912870588021],[-16.511454702383556,15.848856933402761],[-16.511733444784085,15.848674232027767],[-16.511646137980122,15.849488247023752],[-16.51136335786985,15.84912870588021]]]}},{"type":"Feature","properties":{"fid":6943.0,"DN":7,"Nature":"Empreinte urbaine"},"geometry":{"type":"Polygon","coordinates":[[[-16.514439611400164,15.848474578686275],[-16.51443826323184,15.848293831427899],[-16.51453162558,15.848293178906667],[-16.514439611400164,15.848474578686275]]]}},{"type":"Feature","properties":{"fid":6951.0,"DN":7,"Nature":"Empreinte urbaine"},"geometry":{"type":"Polygon","coordinates":[[[-16.510232247696763,15.847690536627548],[-16.510230231172642,15.84741941519058],[-16.51032359330091,15.847418764516908],[-16.51041897219806,15.847689235216615],[-16.510232247696763,15.847690536627548]]]}},{"type":"Feature","properties":{"fid":6967.0,"DN":7,"Nature":"Empreinte urbaine"},"geometry":{"type":"Polygon","coordinates":[[[-16.51107049017105,15.847413557680754],[-16.510788386644872,15.847144389171937],[-16.511442593094944,15.847230205771046],[-16.511534609611026,15.847048807060299],[-16.51190805719109,15.847046201936411],[-16.511899982725964,15.845961716923616],[-16.512177375023356,15.8455982678169],[-16.512551492946667,15.845686035548837],[-16.512553512337053,15.845957156737594],[-16.51236813572864,15.846139207319696],[-16.51246755528601,15.84695191932161],[-16.512006129758987,15.84767816673321],[-16.51107049017105,15.847413557680754]]]}},{"type":"Feature","properties":{"fid":6968.0,"DN":7,"Nature":"Empreinte urbaine"},"geometry":{"type":"Polygon","coordinates":[[[-16.512644854177793,15.845685383944671],[-16.512643507856215,15.845504636489414],[-16.51273686899998,15.845503984852874],[-16.512644854177793,15.845685383944671]]]}},{"type":"Feature","properties":{"fid":6970.0,"DN":7,"Nature":"Empreinte urbaine"},"geometry":{"type":"Polygon","coordinates":[[[-16.512734849425637,15.845232863675847],[-16.512734176242873,15.845142489948612],[-16.512827537216264,15.845141838287518],[-16.512734849425637,15.845232863675847]]]}},{"type":"Feature","properties":{"fid":6976.0,"DN":7,"Nature":"Empreinte urbaine"},"geometry":{"type":"Polygon","coordinates":[[[-16.509365118388324,15.844081436513722],[-16.509364446756145,15.843991062635887],[-16.50945780734603,15.84399041247201],[-16.509365118388324,15.844081436513722]]]}},{"type":"Feature","properties":{"fid":6981.0,"DN":7,"Nature":"Empreinte urbaine"},"geometry":{"type":"Polygon","coordinates":[[[-16.509188470869656,15.845438344919538],[-16.509279145535793,15.84507619928887],[-16.509091080231965,15.844896751746585],[-16.50927578738757,15.844624329915323],[-16.50946385256508,15.844803777309359],[-16.509742591768045,15.84462107875862],[-16.50973990449729,15.844259583323696],[-16.509459150697726,15.844171160219101],[-16.50964049806361,15.843446868810492],[-16.509545794366,15.843266771279566],[-16.509731171345965,15.843084723073975],[-16.51001326745672,15.843353893669315],[-16.5101966281785,15.842900723540712],[-16.510389396766477,15.84371278711386],[-16.51020401990781,15.843894835871017],[-16.510209396040235,15.844617826597407],[-16.5100273781066,15.845251744481656],[-16.509188470869656,15.845438344919538]]]}},{"type":"Feature","properties":{"fid":7061.0,"DN":7,"Nature":"Empreinte urbaine"},"geometry":{"type":"Polygon","coordinates":[[[-16.512822824767863,15.844509222202369],[-16.51245072807052,15.84469257598435],[-16.512542069641274,15.844420803241801],[-16.51226064179716,15.844242010140839],[-16.51207392062409,15.844243312862577],[-16.512076612045437,15.844604807907382],[-16.511889217744137,15.844515736731799],[-16.511981232838373,15.844334337929457],[-16.511701150908706,15.844336291601891],[-16.51161115352837,15.844788811643422],[-16.511331070924065,15.844790764892242],[-16.511423086640896,15.844609366277108],[-16.51123569256942,15.844520294511671],[-16.51123300265963,15.844158799323232],[-16.51160509971762,15.843975447613426],[-16.511507703797754,15.843433855956235],[-16.510944180765822,15.842985892407132],[-16.51084880398208,15.8427154216942],[-16.51037998816124,15.842447553309897],[-16.510465955661722,15.841452790431454],[-16.510746705909742,15.841541212541673],[-16.51074401740219,15.841179717172235],[-16.51093006367558,15.841088042004287],[-16.510922669772167,15.840093929751232],[-16.510735280231557,15.840004857135382],[-16.51073259201872,15.839643361712907],[-16.511010651117136,15.839370288314505],[-16.51100325766325,15.838376175941372],[-16.51044109437877,15.838108957326238],[-16.50988161884343,15.838203232743059],[-16.509506844304465,15.838025085120918],[-16.50968953100204,15.8374815416081],[-16.509876246167543,15.837480241480089],[-16.509872888385882,15.837028371915396],[-16.5095928162534,15.837030321988701],[-16.509496773383614,15.83666947620466],[-16.50930938765306,15.83658040199944],[-16.509302003890546,15.835586288588367],[-16.509390661846094,15.834953021139855],[-16.5097607305979,15.83449855194832],[-16.509664689051387,15.834137706079309],[-16.509942742863167,15.833864634448426],[-16.509937371518657,15.833141642917251],[-16.50965663347571,15.833053218651566],[-16.50946790881016,15.832783396339103],[-16.509451130761786,15.830524046917423],[-16.50926375096609,15.830434972129193],[-16.50943971107161,15.829732170271413],[-16.518579461043007,15.82922197351455],[-16.518407058119806,15.829648133636189],[-16.5184111082534,15.830190375332476],[-16.518225075477478,15.830282055844084],[-16.518043091870137,15.830915977962974],[-16.517765053579794,15.831189058752013],[-16.517676422597354,15.831822327415724],[-16.51739838264375,15.832095407864205],[-16.517406479004766,15.833179891493378],[-16.516943749735614,15.833725398746969],[-16.516853092220988,15.834087546316134],[-16.5164810180259,15.834270905203702],[-16.51584168361953,15.836173321232268],[-16.51585853901166,15.838432662786449],[-16.515206382573957,15.838617978183338],[-16.515305806886538,15.839430688756465],[-16.5158679792184,15.839697893843844],[-16.51559801777107,15.84105545669093],[-16.51532265996831,15.841690030195592],[-16.51467049270689,15.841875344882101],[-16.51457915489698,15.842147118235172],[-16.514392435850088,15.842148422786002],[-16.513935068658594,15.843416915219622],[-16.51310088686117,15.84423614590413],[-16.51291955166677,15.844960439145051],[-16.512822824767863,15.844509222202369]],[[-16.510529077254976,15.83738531588288],[-16.510342362233086,15.837386616565354],[-16.51034303400551,15.837476990457235],[-16.510529077254976,15.83738531588288]],[[-16.51071176072037,15.83684177176568],[-16.51024497442101,15.83684502345527],[-16.51052773355719,15.837204568112373],[-16.51071444839581,15.837203267284853],[-16.51071176072037,15.83684177176568]],[[-16.51348824548462,15.833568784526715],[-16.513301534224563,15.83357008745128],[-16.51321221591001,15.834112981663436],[-16.51339960066158,15.834202052563429],[-16.51348824548462,15.833568784526715]],[[-16.511991865613542,15.83321770800091],[-16.511896493273678,15.832947237236288],[-16.511523743701684,15.833040213964624],[-16.511527104263056,15.833492083349809],[-16.511991865613542,15.83321770800091]]]}}]}