{"type":"FeatureCollection","name":"urbanisation-empreinte-2020.geojson","features":[{"type":"Feature","properties":{"fid":6313.0,"DN":7},"geometry":{"type":"Polygon","coordinates":[[[-16.493556804722736,15.941348087786961],[-16.4936448595155,15.94062445080516],[-16.49373826534485,15.940623803593951],[-16.493744286037447,15.941437167058377],[-16.493556804722736,15.941348087786961]]]}},{"type":"Feature","properties":{"fid":6345.0,"DN":7},"geometry":{"type":"Polygon","coordinates":[[[-16.493452697412085,15.939902755214225],[-16.49345002229919,15.939541260249388],[-16.49326321161341,15.939542554296164],[-16.49326120557454,15.939271433041165],[-16.49279083714424,15.938822798522214],[-16.4927861581498,15.938190182070704],[-16.492972967624876,15.938188888543968],[-16.49297430462612,15.938369636090032],[-16.493159777082784,15.938187594855513],[-16.493728900514228,15.939358571411992],[-16.49373358282436,15.939991187522178],[-16.493452697412085,15.939902755214225]]]}},{"type":"Feature","properties":{"fid":6366.0,"DN":7},"geometry":{"type":"Polygon","coordinates":[[[-16.503795094999543,15.936396493969845],[-16.503792401989156,15.936035000604665],[-16.504165341636657,15.935942021335798],[-16.50416803529821,15.936303514641951],[-16.503983248568858,15.93657593771138],[-16.503795094999543,15.936396493969845]]]}},{"type":"Feature","properties":{"fid":6386.0,"DN":7},"geometry":{"type":"Polygon","coordinates":[[[-16.50396978236445,15.93476847094684],[-16.50378163063908,15.934589027018559],[-16.50434137276398,15.934494744904764],[-16.504344066483075,15.934856238229987],[-16.50396978236445,15.93476847094684]]]}},{"type":"Feature","properties":{"fid":6401.0,"DN":7},"geometry":{"type":"Polygon","coordinates":[[[-16.504617539153553,15.933950550038666],[-16.504616865635214,15.93386017671235],[-16.504710267864297,15.933859525017157],[-16.504617539153553,15.933950550038666]]]}},{"type":"Feature","properties":{"fid":6529.0,"DN":7},"geometry":{"type":"Polygon","coordinates":[[[-16.504133696294094,15.931694474049092],[-16.504224404595544,15.931332329198733],[-16.504036256148396,15.931152885181438],[-16.504114175207686,15.92907364613615],[-16.50420555590433,15.928801874694088],[-16.5043923557152,15.928800572021835],[-16.504763261889373,15.928436472734914],[-16.504761915217475,15.92825572600144],[-16.50513281975604,15.927891626204723],[-16.505130125865254,15.927530132778024],[-16.50596465484455,15.926710906392708],[-16.50596869772769,15.92725314636037],[-16.50559846957524,15.927707620722297],[-16.505882036674965,15.928157531593108],[-16.50588540587083,15.928609398191542],[-16.505517196444796,15.929334992570459],[-16.50533106987285,15.929426669593504],[-16.505333090807472,15.929697789592005],[-16.505146963817936,15.929789466489172],[-16.50497296022253,15.931507863334069],[-16.504506627892727,15.931601494857416],[-16.504414573356954,15.931782893081198],[-16.504133696294094,15.931694474049092]]]}},{"type":"Feature","properties":{"fid":6541.0,"DN":7},"geometry":{"type":"Polygon","coordinates":[[[-16.50596330725146,15.926530159730556],[-16.505962633461404,15.926439786398307],[-16.50605603220125,15.926439134415817],[-16.50596330725146,15.926530159730556]]]}},{"type":"Feature","properties":{"fid":6548.0,"DN":7},"geometry":{"type":"Polygon","coordinates":[[[-16.50605603220125,15.926439134415817],[-16.50614740934207,15.926167362414814],[-16.50633420654963,15.926166058271194],[-16.506242829667958,15.926437830329654],[-16.50605603220125,15.926439134415817]]]}},{"type":"Feature","properties":{"fid":7042.0,"DN":7},"geometry":{"type":"Polygon","coordinates":[[[-16.506585692908303,15.897243301115378],[-16.506584347385637,15.89706255401278],[-16.506677732532168,15.897061902931492],[-16.506585692908303,15.897243301115378]]]}},{"type":"Feature","properties":{"fid":7049.0,"DN":7},"geometry":{"type":"Polygon","coordinates":[[[-16.506210134168047,15.896974784366709],[-16.506209461584177,15.896884410797886],[-16.50639623174088,15.89688310893311],[-16.506210134168047,15.896974784366709]]]}},{"type":"Feature","properties":{"fid":7053.0,"DN":7},"geometry":{"type":"Polygon","coordinates":[[[-16.50536966787385,15.896980640797333],[-16.50536765126008,15.896709519983535],[-16.50546103629619,15.896708869441966],[-16.50536966787385,15.896980640797333]]]}},{"type":"Feature","properties":{"fid":7073.0,"DN":7},"geometry":{"type":"Polygon","coordinates":[[[-16.504429098296647,15.896083407649988],[-16.504427754802787,15.895902660348199],[-16.504521139507176,15.8959020102448],[-16.504429098296647,15.896083407649988]]]}},{"type":"Feature","properties":{"fid":7221.0,"DN":7},"geometry":{"type":"Polygon","coordinates":[[[-16.503414050293557,15.885154684456099],[-16.503413379483433,15.885064310672144],[-16.503600138979976,15.885063012163315],[-16.503414050293557,15.885154684456099]]]}},{"type":"Feature","properties":{"fid":7277.0,"DN":7},"geometry":{"type":"Polygon","coordinates":[[[-16.508401376509653,15.877708932282681],[-16.508400703806796,15.877618558644643],[-16.508494079911273,15.877617907554221],[-16.508401376509653,15.877708932282681]]]}},{"type":"Feature","properties":{"fid":7278.0,"DN":7},"geometry":{"type":"Polygon","coordinates":[[[-16.509803364912877,15.877879908796455],[-16.509802691577285,15.87778953521843],[-16.510174175562053,15.877515807475852],[-16.510270245691046,15.877876649862996],[-16.509803364912877,15.877879908796455]]]}},{"type":"Feature","properties":{"fid":7284.0,"DN":7},"geometry":{"type":"Polygon","coordinates":[[[-16.50089588817316,15.898186679136138],[-16.500799821390775,15.897825832623887],[-16.49996068914405,15.898012415962317],[-16.499959349468575,15.897831668320924],[-16.500146121037,15.897830371781625],[-16.50023816690652,15.897648975830215],[-16.50023615707648,15.897377854392436],[-16.499956000355265,15.897379799203762],[-16.499957339987667,15.897560546852974],[-16.499303640237446,15.897565083389013],[-16.499205568236746,15.896933114301483],[-16.49892541199836,15.896935057724109],[-16.499111513415016,15.896843388284807],[-16.499109505201123,15.89657226668648],[-16.498547855371864,15.896395405051429],[-16.49863856386561,15.896033261909656],[-16.49835640170175,15.895764082778054],[-16.498542502392795,15.89567241388984],[-16.49844711036625,15.895401939691167],[-16.49816695614924,15.895403881948733],[-16.498263016796113,15.89576473021273],[-16.49779809855135,15.89603908856327],[-16.498072233642294,15.895223781445678],[-16.497603304274417,15.894955895668724],[-16.497694682767097,15.894684126729365],[-16.49750457094673,15.894233551143902],[-16.4973030966248,15.89224661778169],[-16.496830834541317,15.891526859574114],[-16.496365255321816,15.891710840255433],[-16.49608243464663,15.891351283237446],[-16.496079095621223,15.8908994130457],[-16.496357908044352,15.890716725969709],[-16.49635456854465,15.890264855808576],[-16.496259182566092,15.889994380043174],[-16.496072417892602,15.889995672603597],[-16.495977700138525,15.889815570717824],[-16.496257179081425,15.889723257918485],[-16.496254507828688,15.889361761741284],[-16.496439936134866,15.889179720995926],[-16.496342547235137,15.888638123066684],[-16.49661935269631,15.888184313783741],[-16.496806115652664,15.8881830208943],[-16.49680077180172,15.887460028606625],[-16.497174964463376,15.887547816491123],[-16.49717362820195,15.887367068443874],[-16.497640533558044,15.88736383488314],[-16.497549157393628,15.887635603699163],[-16.49792268211792,15.887633016240017],[-16.49792000826276,15.887271520269298],[-16.49810610172972,15.887179852341996],[-16.49810476467002,15.886999104365865],[-16.49866371228508,15.886814473714402],[-16.499223996787723,15.886810589591624],[-16.499507484741926,15.887260516638259],[-16.500159812265693,15.887075234542346],[-16.500994211255748,15.886256037063449],[-16.501268993339334,15.885531101298744],[-16.50116824540283,15.88453763692911],[-16.501725172853185,15.884081877556183],[-16.50219273988262,15.88416900866429],[-16.50266365945933,15.884708007828058],[-16.50303717790724,15.884705412000589],[-16.50332134127,15.885245707441017],[-16.504535278827234,15.885237264675732],[-16.50519028043323,15.88541346316747],[-16.505558425623732,15.884687873304635],[-16.505554395212997,15.884145631101905],[-16.505646430928905,15.883964233580484],[-16.505833189219086,15.883962933231116],[-16.505741153678315,15.884144330817552],[-16.50593664704416,15.885317888240193],[-16.50621947462074,15.885677431773512],[-16.50621813045531,15.885496684447375],[-16.506496925531266,15.88531398563342],[-16.506402201496883,15.885133888851776],[-16.506770341737678,15.884408297326328],[-16.506848258874488,15.882329052604199],[-16.507028965014694,15.881514388410103],[-16.507213031578704,15.881151592434307],[-16.507399787141434,15.881150290956564],[-16.507490475137217,15.88078814556345],[-16.507769935377702,15.880695819331905],[-16.507755140179384,15.878707599082123],[-16.5079398758288,15.878435176382224],[-16.50784515435251,15.878255079954984],[-16.50803190719156,15.878253778162577],[-16.508029889517314,15.877982657213435],[-16.507841791999798,15.877803211663583],[-16.507837084887807,15.877170596022786],[-16.50811990289368,15.877530138023795],[-16.50821126114957,15.87725836611355],[-16.508398013038683,15.877257064084667],[-16.508309345694734,15.877890330618257],[-16.508684196288886,15.878068473376507],[-16.508779591274177,15.878338942999099],[-16.509340522882734,15.878425408291832],[-16.50961863235441,15.878152332840715],[-16.510085513800007,15.878149074251466],[-16.51008888123209,15.878600942059629],[-16.509904148512412,15.878873366354046],[-16.51009763706272,15.879775798269398],[-16.509836363666533,15.882308213161945],[-16.51013940571955,15.885378956836986],[-16.50985994057692,15.88547128655957],[-16.509966122146054,15.887187731037981],[-16.509780708733512,15.887369782213684],[-16.50950797724396,15.888365846772977],[-16.509229854856,15.888638923062201],[-16.50914388269191,15.889633683536276],[-16.508865758185475,15.889906759519532],[-16.50887383997249,15.89099124166153],[-16.50859638677182,15.891354690973388],[-16.50842039553668,15.892801970574004],[-16.508235649248995,15.893074394415065],[-16.508248443041417,15.894791491085916],[-16.50816044600443,15.895515130773898],[-16.507975697206437,15.895787554571445],[-16.507987144294486,15.8973239040373],[-16.50770833519728,15.897506605893213],[-16.507145331209067,15.897149020448568],[-16.506865175696408,15.897150974187964],[-16.506582329134083,15.89679143335302],[-16.506578292747797,15.896249192012373],[-16.506298138407086,15.896251144909275],[-16.5061100238141,15.896071699480236],[-16.505457002935408,15.896166627816577],[-16.505366306872514,15.896528772770429],[-16.505179536953968,15.896530073717052],[-16.505177520655007,15.896258952868198],[-16.50536361814926,15.896167278334822],[-16.50526888910642,15.89598718158247],[-16.504802637421548,15.896080806963397],[-16.50461519603533,15.895991733744593],[-16.50461385238348,15.895810986456782],[-16.504334370094075,15.895903310411278],[-16.504144914227723,15.895543115756896],[-16.503865432027204,15.895635439093438],[-16.503766004650075,15.894822725740331],[-16.50338776914585,15.894192708489781],[-16.50338374200956,15.893650466220123],[-16.50300685212922,15.893201195411148],[-16.502632647188523,15.893113418787431],[-16.502355179481242,15.89347686123583],[-16.502366582168275,15.895013215012463],[-16.502466675013043,15.895916303206151],[-16.50284625365184,15.89672706936493],[-16.502848937979362,15.897088564201301],[-16.50210520910889,15.897545627180447],[-16.502107221464644,15.89781674838091],[-16.501454862542115,15.898002039007679],[-16.50127077266364,15.898364831747898],[-16.50089588817316,15.898186679136138]],[[-16.497455776201807,15.887636250463208],[-16.497456444468174,15.887726624473277],[-16.497549157393628,15.887635603699163],[-16.497455776201807,15.887636250463208]],[[-16.502104538332265,15.897455253445397],[-16.50201115280739,15.897455902566483],[-16.50201182354235,15.897546276305413],[-16.502104538332265,15.897455253445397]],[[-16.50361288669241,15.886780113777252],[-16.503508771802068,15.885334782775745],[-16.503135922973115,15.885427753310942],[-16.502863830373823,15.88651418605385],[-16.502869866193798,15.887327550178368],[-16.503244731110094,15.887505701121896],[-16.50361288669241,15.886780113777252]],[[-16.506224851455453,15.8864004210468],[-16.50613147120589,15.886401071507795],[-16.50613214328806,15.886491445167332],[-16.506224851455453,15.8864004210468]],[[-16.50612811085991,15.885949203198404],[-16.505847298778395,15.8858607806054],[-16.50585065847831,15.886312648977032],[-16.50613147120589,15.886401071507795],[-16.50612811085991,15.885949203198404]],[[-16.50659702784278,15.886217071517397],[-16.50650364769378,15.886217722131777],[-16.50650499217819,15.886398469422064],[-16.50659702784278,15.886217071517397]],[[-16.50650230322667,15.886036974838357],[-16.506408923156606,15.886037625404668],[-16.50640959534637,15.886127999055658],[-16.50650230322667,15.886036974838357]],[[-16.510044004786906,15.885108488428994],[-16.509950625297673,15.885109140487367],[-16.509951299026,15.885199513998172],[-16.510044004786906,15.885108488428994]]]}},{"type":"Feature","properties":{"fid":7289.0,"DN":7},"geometry":{"type":"Polygon","coordinates":[[[-16.508210588551574,15.877167992463809],[-16.508209915957906,15.877077618813294],[-16.50830329182142,15.877076967826774],[-16.508210588551574,15.877167992463809]]]}},{"type":"Feature","properties":{"fid":7290.0,"DN":7},"geometry":{"type":"Polygon","coordinates":[[[-16.507930460810243,15.877169945193446],[-16.507929788341386,15.87707957153124],[-16.50802316421789,15.877078920665527],[-16.507930460810243,15.877169945193446]]]}},{"type":"Feature","properties":{"fid":7306.0,"DN":7},"geometry":{"type":"Polygon","coordinates":[[[-16.508108469802984,15.87599378584563],[-16.5081077973072,15.875903412181055],[-16.50820117263423,15.875902761285431],[-16.508108469802984,15.87599378584563]]]}},{"type":"Feature","properties":{"fid":7313.0,"DN":7},"geometry":{"type":"Polygon","coordinates":[[[-16.508199827572458,15.875722013961735],[-16.50819915504806,15.875631640298712],[-16.508292530245967,15.875630989374518],[-16.508199827572458,15.875722013961735]]]}},{"type":"Feature","properties":{"fid":7316.0,"DN":7},"geometry":{"type":"Polygon","coordinates":[[[-16.508384560237353,15.875449591097242],[-16.508383887642754,15.875359217439666],[-16.5084772627072,15.875358566446629],[-16.508384560237353,15.875449591097242]]]}},{"type":"Feature","properties":{"fid":7344.0,"DN":7},"geometry":{"type":"Polygon","coordinates":[[[-16.507788009073234,15.870573316344359],[-16.50797408264669,15.870481641498591],[-16.507976771450487,15.870843136355273],[-16.50788407061413,15.87093416066841],[-16.507788009073234,15.870573316344359]]]}},{"type":"Feature","properties":{"fid":7354.0,"DN":7},"geometry":{"type":"Polygon","coordinates":[[[-16.516841778154514,15.870058159338376],[-16.51683704538445,15.869425545884397],[-16.517024465492323,15.86951461038463],[-16.516841778154514,15.870058159338376]]]}},{"type":"Feature","properties":{"fid":7358.0,"DN":7},"geometry":{"type":"Polygon","coordinates":[[[-16.51006867826527,15.875889734917573],[-16.510064638140086,15.875347493404762],[-16.509689118645984,15.875078979059463],[-16.509872502228873,15.87462580792961],[-16.509868462966953,15.874083566304359],[-16.509492946199117,15.87381505136243],[-16.509397552979884,15.873544581843413],[-16.50929408545167,15.872189628553778],[-16.509013964729533,15.872191582089993],[-16.508825872270783,15.872012136912963],[-16.50910532000662,15.871919809985561],[-16.50919600228181,15.871557664201902],[-16.509086484407888,15.869389347297654],[-16.509552000103504,15.869205344286238],[-16.509832116630857,15.869203390411403],[-16.50983817347592,15.870016753218437],[-16.510217722308372,15.870827509951543],[-16.510498514324667,15.870915928627921],[-16.510499861006775,15.871096675839556],[-16.510967399568877,15.871183790343476],[-16.510970767411344,15.871635658257457],[-16.510414567950235,15.872181810786042],[-16.51042534219848,15.873627788279018],[-16.510239940520545,15.873809838955815],[-16.510242633957976,15.874171333322757],[-16.510056558357885,15.874263010294738],[-16.51005925154926,15.874624504677247],[-16.510247347640387,15.874803948434812],[-16.510158686511506,15.875437215270512],[-16.510345436554623,15.875435911706388],[-16.51025677564251,15.876069178544068],[-16.51006867826527,15.875889734917573]]]}},{"type":"Feature","properties":{"fid":7369.0,"DN":7},"geometry":{"type":"Polygon","coordinates":[[[-16.503571480438822,15.8686143232759],[-16.503570810293745,15.868523949360616],[-16.503664182418,15.868523300716088],[-16.503571480438822,15.8686143232759]]]}},{"type":"Feature","properties":{"fid":7372.0,"DN":7},"geometry":{"type":"Polygon","coordinates":[[[-16.50357014015298,15.868433575444554],[-16.50347542788057,15.86825347620272],[-16.50366217188393,15.868252178977212],[-16.50357014015298,15.868433575444554]]]}},{"type":"Feature","properties":{"fid":7374.0,"DN":7},"geometry":{"type":"Polygon","coordinates":[[[-16.509824714296933,15.868209280228],[-16.509824041383485,15.868118906570276],[-16.50991741305167,15.868118255244955],[-16.509824714296933,15.868209280228]]]}},{"type":"Feature","properties":{"fid":7376.0,"DN":7},"geometry":{"type":"Polygon","coordinates":[[[-16.509823368474375,15.868028532911765],[-16.509822695569596,15.867938159252482],[-16.509916067154627,15.867937507934966],[-16.509823368474375,15.868028532911765]]]}},{"type":"Feature","properties":{"fid":7399.0,"DN":7},"geometry":{"type":"Polygon","coordinates":[[[-16.50917043958487,15.868123464720666],[-16.509261120670754,15.867761318944794],[-16.508981006061127,15.867763271908137],[-16.508698874246875,15.86749410338176],[-16.50869618475331,15.867132608534106],[-16.50897629852886,15.867130656014771],[-16.509161695887705,15.866948606744463],[-16.509158333122183,15.866496738256929],[-16.509711831057928,15.865589095012789],[-16.510364751489163,15.865494162279472],[-16.510463506677166,15.866216500028568],[-16.510279457281744,15.866579297571894],[-16.510282822563262,15.867031165821611],[-16.510008092772466,15.867756109271884],[-16.509635952386528,15.867939461766788],[-16.509637298034118,15.868120209100175],[-16.50917043958487,15.868123464720666]]]}},{"type":"Feature","properties":{"fid":7407.0,"DN":7},"geometry":{"type":"Polygon","coordinates":[[[-16.50503256994836,15.864175620350379],[-16.505031228755367,15.863994872566819],[-16.505124598731985,15.863994223472709],[-16.50503256994836,15.864175620350379]]]}},{"type":"Feature","properties":{"fid":7409.0,"DN":7},"geometry":{"type":"Polygon","coordinates":[[[-16.5129649648539,15.863578061685866],[-16.512964290748332,15.863487688121003],[-16.513057660148995,15.863487035626681],[-16.5129649648539,15.863578061685866]]]}},{"type":"Feature","properties":{"fid":7413.0,"DN":7},"geometry":{"type":"Polygon","coordinates":[[[-16.51122057481962,15.867566890853302],[-16.51140192892515,15.866842598205071],[-16.511296435327292,15.865216525073606],[-16.512215987853622,15.863312159432727],[-16.512962268457688,15.863216567421734],[-16.512779574014335,15.863760113704647],[-16.512875639882544,15.864120955540082],[-16.512690922524463,15.864393381093263],[-16.512604292713455,15.865297769157351],[-16.51233024720865,15.866113088311636],[-16.5123383347812,15.867197571094724],[-16.512060916846703,15.867561022254655],[-16.512157657838795,15.868012237803443],[-16.5120663080501,15.86828401078294],[-16.511786193082308,15.868285967438364],[-16.511788214481,15.868557088158722],[-16.51141405366002,15.868469322927771],[-16.511415400939544,15.868650070103557],[-16.51122057481962,15.867566890853302]],[[-16.511776760404786,15.86702073731708],[-16.51149597353866,15.866932319848708],[-16.511405970347266,15.867384839807428],[-16.511873500406647,15.867471953092018],[-16.511776760404786,15.86702073731708]]]}},{"type":"Feature","properties":{"fid":7414.0,"DN":7},"geometry":{"type":"Polygon","coordinates":[[[-16.512962942550224,15.86330694098894],[-16.51314968118096,15.863305635975689],[-16.513241702059705,15.863124236296965],[-16.513151029545316,15.863486383092127],[-16.512962942550224,15.86330694098894]]]}},{"type":"Feature","properties":{"fid":7418.0,"DN":7},"geometry":{"type":"Polygon","coordinates":[[[-16.513241702059705,15.863124236296965],[-16.513239679447118,15.862853115623482],[-16.513333048543824,15.862852463035823],[-16.513241702059705,15.863124236296965]]]}},{"type":"Feature","properties":{"fid":7424.0,"DN":7},"geometry":{"type":"Polygon","coordinates":[[[-16.513236982691136,15.862491621381242],[-16.51342237202956,15.862309569086777],[-16.513424394813327,15.862580689750864],[-16.51333170007403,15.862671715924082],[-16.513236982691136,15.862491621381242]]]}},{"type":"Feature","properties":{"fid":7427.0,"DN":7},"geometry":{"type":"Polygon","coordinates":[[[-16.50436892524704,15.862824554076237],[-16.504274215377755,15.862644454928828],[-16.504457602812764,15.86219128781295],[-16.504647022543786,15.862551485911325],[-16.50455566417579,15.862823256512044],[-16.50436892524704,15.862824554076237]]]}},{"type":"Feature","properties":{"fid":7437.0,"DN":7},"geometry":{"type":"Polygon","coordinates":[[[-16.50500843111806,15.86092215976848],[-16.505007760674903,15.86083178584898],[-16.505101129196937,15.860831136890894],[-16.50500843111806,15.86092215976848]]]}},{"type":"Feature","properties":{"fid":7438.0,"DN":7},"geometry":{"type":"Polygon","coordinates":[[[-16.505470463711276,15.872848912146392],[-16.505467779018268,15.872487416938231],[-16.505654526749062,15.872486117657013],[-16.505927934803406,15.871580430552608],[-16.505553098722594,15.871402281664928],[-16.504433959334634,15.87159082160408],[-16.50396440998438,15.871232571193797],[-16.503772970879332,15.8706012517066],[-16.503860981153963,15.869877611778792],[-16.504327844785802,15.869874367258744],[-16.504513248970003,15.869692321437189],[-16.504511237144925,15.869421199833633],[-16.50432248060149,15.86915137625065],[-16.503761575972078,15.869064895464701],[-16.503850256388063,15.868431629401893],[-16.50366217188393,15.868252178977212],[-16.503754203461515,15.868070782482025],[-16.503472747561514,15.867891980508883],[-16.503469397259785,15.86744011087402],[-16.50318392308433,15.866719064756076],[-16.503556738244036,15.866626096959315],[-16.50374482102158,15.866805547640155],[-16.504024934985708,15.86680360156574],[-16.50439506808936,15.866349136748946],[-16.504300356262235,15.866169037813945],[-16.50476519956902,15.865894671424202],[-16.504761846832118,15.865442801975327],[-16.504575775965492,15.865534473824898],[-16.5045744350586,15.865353726025903],[-16.504761176297695,15.865352428083211],[-16.504853205771738,15.865171031272704],[-16.504573094168983,15.865172978223784],[-16.504571082866942,15.864901856514752],[-16.504942552734526,15.864628138876704],[-16.50494054101143,15.864357017200241],[-16.505313350842304,15.864264046802978],[-16.505308655839347,15.863631429633934],[-16.505494724649278,15.863539757318547],[-16.505492041570278,15.863178261804174],[-16.50567878072785,15.86317696324337],[-16.505954863696093,15.862632771922112],[-16.50594681269146,15.86154828548114],[-16.50575940425011,15.861459210260403],[-16.506320287910608,15.86154568767403],[-16.506506354355945,15.861454014677298],[-16.50650434096698,15.861182893117153],[-16.506783775565662,15.861090570301513],[-16.506878486709024,15.861270668245476],[-16.507064552616765,15.86117899481038],[-16.50724793257476,15.860725825926112],[-16.507621406055737,15.860723226006478],[-16.50762946556971,15.861807711691345],[-16.50781821850678,15.862077532777032],[-16.507918977430318,15.863070994182488],[-16.508298503320148,15.863881756577738],[-16.508306568142924,15.864966241607572],[-16.508125203794716,15.86569053259678],[-16.50824008343806,15.868581841555436],[-16.507965344512648,15.869306783128037],[-16.50797206608929,15.87021052034787],[-16.50759857520148,15.870213122385437],[-16.50769396411308,15.870483593122175],[-16.507509234374965,15.87075601520541],[-16.50751192239901,15.871117510130597],[-16.50723314671569,15.871300208713434],[-16.507145148460857,15.872023848932844],[-16.506958401284315,15.87202514946331],[-16.506590951833,15.872841113857106],[-16.505470463711276,15.872848912146392]],[[-16.504947917519512,15.865351129979569],[-16.504854546910764,15.865351779051508],[-16.504855217486757,15.865442152939739],[-16.504947917519512,15.865351129979569]],[[-16.506226919112304,15.861546337186148],[-16.506133550309677,15.861546986658034],[-16.506134221286075,15.861637360524636],[-16.506226919112304,15.861546337186148]]]}},{"type":"Feature","properties":{"fid":7439.0,"DN":7},"geometry":{"type":"Polygon","coordinates":[[[-16.505101129196937,15.860831136890894],[-16.505100458716544,15.860740762974507],[-16.505193827192702,15.860740113980084],[-16.505101129196937,15.860831136890894]]]}},{"type":"Feature","properties":{"fid":7442.0,"DN":7},"geometry":{"type":"Polygon","coordinates":[[[-16.505193156675077,15.860649740066801],[-16.505192486161768,15.860559366152732],[-16.505285854550497,15.860558717125862],[-16.505193156675077,15.860649740066801]]]}},{"type":"Feature","properties":{"fid":7445.0,"DN":7},"geometry":{"type":"Polygon","coordinates":[[[-16.505848748034804,15.860916317662646],[-16.505847406404826,15.86073556989285],[-16.5056613402384,15.86082724229767],[-16.505842710836024,15.860102952673962],[-16.506216183412953,15.86010035527665],[-16.505938762309192,15.860463798927746],[-16.506125498930082,15.860462500197979],[-16.506033472392065,15.860643897341905],[-16.506220209170525,15.860642598516135],[-16.506222222107674,15.860913720125335],[-16.505848748034804,15.860916317662646]]]}},{"type":"Feature","properties":{"fid":7447.0,"DN":7},"geometry":{"type":"Polygon","coordinates":[[[-16.506495616731137,15.86000803294202],[-16.506494945666336,15.859917659076922],[-16.506588313703684,15.859917009514158],[-16.506495616731137,15.86000803294202]]]}},{"type":"Feature","properties":{"fid":7515.0,"DN":7},"geometry":{"type":"Polygon","coordinates":[[[-16.511969122970235,15.84270761001712],[-16.511873072353467,15.842346766069605],[-16.5116863528888,15.842348068305961],[-16.51168433513963,15.842076946918171],[-16.5118710543553,15.842075644705236],[-16.512055755345504,15.841803220983637],[-16.512524571473513,15.84207108569448],[-16.51252726330839,15.842432580736086],[-16.512155169928636,15.842615933735972],[-16.512156515557464,15.84279668128021],[-16.511969122970235,15.84270761001712]]]}},{"type":"Feature","properties":{"fid":7517.0,"DN":7},"geometry":{"type":"Polygon","coordinates":[[[-16.512241801467127,15.841711544696329],[-16.512241128661106,15.841621170919149],[-16.51233448803759,15.841620519611242],[-16.512241801467127,15.841711544696329]]]}},{"type":"Feature","properties":{"fid":7519.0,"DN":7},"geometry":{"type":"Polygon","coordinates":[[[-16.51242919319211,15.841800615801148],[-16.512423810166762,15.841077625630533],[-16.51279791964501,15.841165393688678],[-16.51289464420539,15.84161661092022],[-16.51270792550015,15.841617913977915],[-16.512709271531506,15.841798661492458],[-16.51242919319211,15.841800615801148]]]}},{"type":"Feature","properties":{"fid":7527.0,"DN":7},"geometry":{"type":"Polygon","coordinates":[[[-16.511298121638298,15.840362448279674],[-16.511296104673278,15.840091326793576],[-16.51148282209782,15.840090025073732],[-16.511298121638298,15.840362448279674]]]}},{"type":"Feature","properties":{"fid":7532.0,"DN":7},"geometry":{"type":"Polygon","coordinates":[[[-16.511293415447284,15.839729831467851],[-16.5112920708603,15.839549083800312],[-16.511385429325788,15.839548432983893],[-16.511293415447284,15.839729831467851]]]}},{"type":"Feature","properties":{"fid":7591.0,"DN":7},"geometry":{"type":"Polygon","coordinates":[[[-16.51337558118812,15.843511200745727],[-16.513370867543514,15.842878584726357],[-16.513462880649378,15.842697185448376],[-16.513649600281138,15.842695881654123],[-16.513639498593324,15.841340275922075],[-16.51382554346865,15.841248598370482],[-16.513915534992485,15.840796077833666],[-16.51419628539248,15.84088449542784],[-16.51419830633366,15.84115561652963],[-16.51485047190786,15.840970303416558],[-16.51484912404584,15.84078955606777],[-16.51438030843545,15.840521696365151],[-16.5147537435241,15.840519087384362],[-16.514939113140805,15.840337035304183],[-16.514937091321077,15.840065914275181],[-16.515123134392812,15.83997423575214],[-16.515026406095153,15.839523019813187],[-16.514558267096735,15.839345533928967],[-16.514375592598793,15.839889080466564],[-16.51409551710804,15.83989103669828],[-16.513910820516884,15.840163461814628],[-16.513724103235,15.840164765631036],[-16.51362939788256,15.839984670014509],[-16.512882529210504,15.839989883289565],[-16.512608509588194,15.840805201557313],[-16.51223440083951,15.840717433104377],[-16.512231709832346,15.840355937956632],[-16.51251245907574,15.840444357852814],[-16.512229691622526,15.840084816587634],[-16.511856929461167,15.840177794958093],[-16.511576180803587,15.84008937415356],[-16.511574835932965,15.83990862651568],[-16.511666849615146,15.839727227929941],[-16.512228346171003,15.839904069004401],[-16.512131624233152,15.83945285120669],[-16.512316322794597,15.839180427437793],[-16.51306386174991,15.83926559013512],[-16.513248558839926,15.838993165691022],[-16.513714676083982,15.83889953336886],[-16.513899371962122,15.838627108466403],[-16.5138019739109,15.838085517892784],[-16.51398599561866,15.837722719234531],[-16.514267415203918,15.837901510853564],[-16.514268762289973,15.838082258299197],[-16.51464151920389,15.837989276194605],[-16.514822844210858,15.83726498214275],[-16.514540077898598,15.836905443761182],[-16.514538057072095,15.836634322596332],[-16.514906768718745,15.835999097997766],[-16.515186164880337,15.835906767484891],[-16.515277499825412,15.835634994041236],[-16.515557569297183,15.835633036794682],[-16.51555622128427,15.835452289416454],[-16.51527615206138,15.83545424663953],[-16.515086744080303,15.835094056410057],[-16.514806001639236,15.835005639259156],[-16.514708603844362,15.834464048978147],[-16.514239803768874,15.834196187530539],[-16.514143754643726,15.833835344317302],[-16.513770331730132,15.833837951176962],[-16.51367361057331,15.833386733871025],[-16.512928111652364,15.833572692818597],[-16.513108767630413,15.832758025912307],[-16.513294805287117,15.83266634941115],[-16.51329211383368,15.832304854173262],[-16.513570160057718,15.832031778488878],[-16.513750139608796,15.831126737478993],[-16.51337403027803,15.830767847952009],[-16.512533841001975,15.830773708396574],[-16.51253518590898,15.830954456106078],[-16.512255122490064,15.830956408888445],[-16.512157734334625,15.830414816504025],[-16.51233839183174,15.829600149986675],[-16.514884638807118,15.82942822492491],[-16.518310628917284,15.829236980191878],[-16.518312354578736,15.829468039831788],[-16.5181263223812,15.829559720210556],[-16.518313704505502,15.82964878707796],[-16.51812834704218,15.82983084109983],[-16.518316404411298,15.830010281560954],[-16.518319104386773,15.830371776031468],[-16.518132396481704,15.83037308285732],[-16.51813509619514,15.830734577346718],[-16.517765053579794,15.831189058752013],[-16.517678446962893,15.832093448305294],[-16.51739973199373,15.832276155143532],[-16.51731042503461,15.832819050100145],[-16.51684837070478,15.833454930769507],[-16.51675906202685,15.83399782561632],[-16.516112314185076,15.834906131873575],[-16.516026374337343,15.835900894916767],[-16.51575102341163,15.836535468528975],[-16.51585516771581,15.837980794514614],[-16.51520840455848,15.838889099214573],[-16.515211774619612,15.839340967584365],[-16.51577596946591,15.839879293885373],[-16.515688005230757,15.840602935762442],[-16.51541129981573,15.84105676203167],[-16.515413996605215,15.841418256622873],[-16.515227278300518,15.841419561834229],[-16.515228626555356,15.841600309140803],[-16.514763852094976,15.841874692517985],[-16.514672514413906,15.842146465899498],[-16.514299076320125,15.842149075001155],[-16.514021018578813,15.84242215249806],[-16.513841708525902,15.843417567288625],[-16.513562975053773,15.843600270667604],[-16.51337558118812,15.843511200745727]],[[-16.514233743699485,15.833382823698804],[-16.514047032674796,15.833384127250145],[-16.51414173475805,15.833564223025991],[-16.514233743699485,15.833382823698804]]]}}]}