{"type":"FeatureCollection","name":"urbanisation-empreinte-2017.geojson","features":[{"type":"Feature","properties":{"fid":3783.0,"DN":7},"geometry":{"type":"Polygon","coordinates":[[[-16.493381362826867,15.942885735381969],[-16.493378018447217,15.942433866783997],[-16.492909647688332,15.942256354529386],[-16.4929056358798,15.941714112060833],[-16.4921543751557,15.941177043395028],[-16.491593270164163,15.94109054826363],[-16.49159193415927,15.940909800648939],[-16.491218309919944,15.940912385577093],[-16.491216306446276,15.940641264102943],[-16.49093408553895,15.940372080823927],[-16.49083400353952,15.939468988334779],[-16.491578575053488,15.93910232432961],[-16.491573231891305,15.938379333714108],[-16.491852110517073,15.938196647278483],[-16.491752694325744,15.937383929129767],[-16.49212363965086,15.937019848563756],[-16.492497924765,15.937107636483992],[-16.4925899924693,15.936926242309546],[-16.492776800791596,15.936924949052502],[-16.492687406575307,15.937467838465265],[-16.49287287855855,15.937285797511642],[-16.49306637235598,15.93818824171996],[-16.493824312558175,15.93962904539757],[-16.493933774744924,15.941797367267014],[-16.4935601492628,15.941799956393387],[-16.493371998834263,15.941620503258275],[-16.493472094034495,15.94252359333425],[-16.49365890746148,15.942522298871099],[-16.493568176596828,15.942884440968843],[-16.493381362826867,15.942885735381969]],[[-16.493095123462176,15.942074313103731],[-16.49300171693406,15.942074960093583],[-16.49300238561705,15.942165333833312],[-16.493095123462176,15.942074313103731]],[[-16.49328059890164,15.941892271544033],[-16.49300037958096,15.941894212611778],[-16.493001048255366,15.941984586353078],[-16.49328059890164,15.941892271544033]]]}},{"type":"Feature","properties":{"fid":3786.0,"DN":7},"geometry":{"type":"Polygon","coordinates":[[[-16.49277546409478,15.936744201465936],[-16.492773459081732,15.936473080080209],[-16.492866863027544,15.936472433410323],[-16.49277546409478,15.936744201465936]]]}},{"type":"Feature","properties":{"fid":3847.0,"DN":7},"geometry":{"type":"Polygon","coordinates":[[[-16.504129657150397,15.93115223384531],[-16.504126964474377,15.930790740360456],[-16.504407840241097,15.930879159516971],[-16.504317132404765,15.931241304413312],[-16.504129657150397,15.93115223384531]]]}},{"type":"Feature","properties":{"fid":3857.0,"DN":7},"geometry":{"type":"Polygon","coordinates":[[[-16.504028851915134,15.930158778025168],[-16.50402817882895,15.930068404642626],[-16.504121579329805,15.930067753353125],[-16.504028851915134,15.930158778025168]]]}},{"type":"Feature","properties":{"fid":3858.0,"DN":7},"geometry":{"type":"Polygon","coordinates":[[[-16.504870130109417,15.930243288276731],[-16.504868109723336,15.92997216823402],[-16.50514898455391,15.930060586501599],[-16.505151005328806,15.930331706506971],[-16.504870130109417,15.930243288276731]]]}},{"type":"Feature","properties":{"fid":3877.0,"DN":7},"geometry":{"type":"Polygon","coordinates":[[[-16.50495881618892,15.929610023199025],[-16.504957469237564,15.92942927650147],[-16.5047699955083,15.929340206355285],[-16.504768648749923,15.929159459637475],[-16.504955448842967,15.929158156449263],[-16.505140228312488,15.928885733063483],[-16.505134840219533,15.928162746266517],[-16.505415038922763,15.928160791067016],[-16.50541705980098,15.928431911086761],[-16.50578931092194,15.92824855689384],[-16.505791332314196,15.928519676864564],[-16.505604532883602,15.928520980725647],[-16.505609922785226,15.929243967342009],[-16.50533241715827,15.929607416259957],[-16.50495881618892,15.929610023199025]],[[-16.505327028120394,15.92888442957535],[-16.5052336282186,15.92888508133962],[-16.50523430179144,15.928975454681824],[-16.505327028120394,15.92888442957535]]]}},{"type":"Feature","properties":{"fid":3886.0,"DN":7},"geometry":{"type":"Polygon","coordinates":[[[-16.50402750574709,15.929978031259296],[-16.504026159596332,15.929797284490293],[-16.504297609522997,15.928620476612098],[-16.504290205242956,15.927626369342686],[-16.50438225834337,15.927444971258202],[-16.50456905688431,15.927443668540914],[-16.504477003959554,15.927625066690656],[-16.504663802658865,15.927623763877012],[-16.504665822457138,15.927894884004171],[-16.504947367653774,15.928073676169904],[-16.504948714475393,15.928254422890967],[-16.504575789192536,15.928347402325205],[-16.50458454183957,15.929522256127633],[-16.50439908783677,15.92970430576631],[-16.504493834713006,15.929884401062438],[-16.504307033908592,15.929885703908768],[-16.50421497982634,15.930067102023212],[-16.50402750574709,15.929978031259296]]]}},{"type":"Feature","properties":{"fid":4137.0,"DN":7},"geometry":{"type":"Polygon","coordinates":[[[-16.500067473549578,15.899819243869434],[-16.500066803581863,15.899728870068648],[-16.500160190238944,15.899728221697476],[-16.500067473549578,15.899819243869434]]]}},{"type":"Feature","properties":{"fid":4189.0,"DN":7},"geometry":{"type":"Polygon","coordinates":[[[-16.5036759772526,15.895275243925504],[-16.503767347457064,15.89500347311528],[-16.503860731775113,15.895002823332945],[-16.503862746142953,15.895273944377845],[-16.5036759772526,15.895275243925504]]]}},{"type":"Feature","properties":{"fid":4297.0,"DN":7},"geometry":{"type":"Polygon","coordinates":[[[-16.50518222135045,15.884328978622303],[-16.50536629346121,15.883966183802396],[-16.505646430928905,15.883964233580484],[-16.505557082136196,15.884507125906849],[-16.50518222135045,15.884328978622303]]]}},{"type":"Feature","properties":{"fid":4367.0,"DN":7},"geometry":{"type":"Polygon","coordinates":[[[-16.509808751753635,15.878602897392478],[-16.50980807838337,15.878512523820708],[-16.509901454838914,15.878511872087262],[-16.509808751753635,15.878602897392478]]]}},{"type":"Feature","properties":{"fid":4372.0,"DN":7},"geometry":{"type":"Polygon","coordinates":[[[-16.509901454838914,15.878511872087262],[-16.50990078143138,15.878421498518613],[-16.509994157840982,15.87842084674879],[-16.509901454838914,15.878511872087262]]]}},{"type":"Feature","properties":{"fid":4386.0,"DN":7},"geometry":{"type":"Polygon","coordinates":[[[-16.500906613002037,15.89963265950958],[-16.500996647742756,15.899180141953524],[-16.500619751349,15.898730867632144],[-16.501084671060084,15.89845650307137],[-16.501083330341537,15.898275755530811],[-16.500896558442637,15.898277052915347],[-16.500707775980995,15.898007228775352],[-16.499679861794213,15.897923986660157],[-16.49930297071074,15.897474709537688],[-16.498931436161318,15.897748422539502],[-16.498836042396874,15.89747794869153],[-16.498086280973602,15.89712163362653],[-16.49798888196329,15.896580037530011],[-16.49770805728592,15.896491605407967],[-16.49770538224452,15.896130109697271],[-16.497517943369168,15.89604103005541],[-16.49760263562239,15.894865521725059],[-16.4973030966248,15.89224661778169],[-16.49683350720605,15.891888355583514],[-16.496553357643094,15.89189029533266],[-16.496090448745807,15.892435771617901],[-16.49590101070433,15.892075568080521],[-16.495896336441316,15.891442949796296],[-16.495707567459576,15.8911731200012],[-16.495704229310025,15.890721249724372],[-16.49607776004113,15.890718664963535],[-16.4960750889325,15.890357168789821],[-16.495792938478754,15.890087985201275],[-16.495790935605832,15.88981686302098],[-16.49634655418363,15.889180367342115],[-16.496435261085193,15.888547102698901],[-16.496900165166736,15.888272748417705],[-16.496988870178203,15.887639483678992],[-16.497363731459448,15.887817645214048],[-16.498017400324894,15.887813117247429],[-16.498296206773393,15.887630428136132],[-16.49829420087596,15.887359306205692],[-16.498760437141943,15.8872656962682],[-16.49866504982717,15.886995221647235],[-16.49875709304628,15.886813826461337],[-16.49894385455577,15.886812531834336],[-16.4991312850251,15.886901610993602],[-16.49904058002422,15.887263754209187],[-16.499320722867758,15.88726181178752],[-16.49932339922097,15.88762330752602],[-16.499790974014022,15.887710443186528],[-16.500623368092803,15.886620125165095],[-16.501088931314754,15.886436136567081],[-16.501268323469393,15.88544072742868],[-16.501548463504918,15.885438782338417],[-16.501543103701497,15.884715791442819],[-16.501728522963347,15.884533746860372],[-16.501916622356443,15.884713197549177],[-16.502476900209487,15.884709305500065],[-16.50257162067733,15.884889404327453],[-16.503131898848704,15.884885510539675],[-16.50313458158105,15.885247005723645],[-16.502857124317117,15.885610448063455],[-16.502954528175227,15.886152041827957],[-16.50268444572095,15.887509595826772],[-16.502873890267963,15.887869792892868],[-16.503341466461553,15.887956920689222],[-16.50361892562648,15.887593477601143],[-16.503523531822733,15.88732300570518],[-16.503708280289228,15.887050585658633],[-16.503604835324285,15.885695628580224],[-16.50369553153974,15.885333484163038],[-16.50388229126014,15.88533218538917],[-16.503786898459246,15.885061713493327],[-16.503972315814433,15.884879667138533],[-16.504345834353607,15.884877069023853],[-16.504437871471797,15.884695671906528],[-16.504811389591577,15.884693073017166],[-16.504621945247546,15.88433287758825],[-16.50508817049025,15.884239254829623],[-16.505370323320587,15.88450842606116],[-16.505468404721196,15.885140391909921],[-16.505282316961164,15.885232065743557],[-16.50575123124572,15.885499936154954],[-16.505568502331407,15.886043478688332],[-16.505759965924312,15.886674793971764],[-16.505672632666744,15.887488807304507],[-16.50595479113144,15.887757977236477],[-16.50632831463629,15.887755375239708],[-16.506511714859766,15.887302205826597],[-16.50650499217819,15.886398469422064],[-16.506691752638382,15.886397168137448],[-16.506690407987453,15.886216420862722],[-16.50640959534637,15.886127999055658],[-16.506310838166392,15.885405660324642],[-16.506680323657047,15.8848608162026],[-16.50686708268458,15.884859514889117],[-16.50676765266731,15.884046802720523],[-16.506939620455864,15.882057281012218],[-16.507123015279777,15.881604111415303],[-16.507679247918574,15.881057964798364],[-16.507583180265737,15.88069712109294],[-16.507022914825978,15.880701025409397],[-16.506926176381086,15.880249807607301],[-16.507579145503232,15.880154879197432],[-16.507855914608417,15.879701058356193],[-16.50795332732718,15.88024264924333],[-16.508139409289114,15.880150973571178],[-16.508516282765015,15.880600237068329],[-16.508418195488385,15.879968272979683],[-16.508138063903562,15.879970226313157],[-16.508136045857707,15.879699105420249],[-16.507760520009096,15.879430588307631],[-16.508033924904773,15.878524899104676],[-16.508219332663252,15.878342849849448],[-16.508594184066943,15.87852099269084],[-16.50849878921343,15.878250522976815],[-16.50868486913821,15.878158846998952],[-16.5087802641781,15.878429316615302],[-16.509248492679706,15.878606806970856],[-16.509619978898172,15.878333080005318],[-16.50952458282851,15.878062610850384],[-16.509710662042558,15.877970934043477],[-16.509716721922466,15.878784296238539],[-16.509904821941625,15.87896373991879],[-16.51008955473151,15.878691315618912],[-16.509993484396173,15.878330473183265],[-16.510085513800007,15.878149074251466],[-16.510272266347904,15.878147770533873],[-16.510101004884973,15.880227666007213],[-16.510136036661645,15.884927089321975],[-16.509948604138703,15.884838019950275],[-16.510052090312502,15.88619297046021],[-16.50933064590738,15.889632379714667],[-16.508961160446486,15.89017722827246],[-16.508967222220022,15.890990589833322],[-16.5087818046625,15.89117264046995],[-16.508604467891438,15.892439173105487],[-16.50842174231866,15.892982717594395],[-16.508235649248995,15.893074394415065],[-16.508161119398228,15.895605504272712],[-16.507805087155642,15.897957821786656],[-16.50790385986976,15.898680158035296],[-16.507811820791314,15.898861556684077],[-16.507436930625346,15.898683416009824],[-16.507157446113798,15.898775743824899],[-16.5069673093011,15.89832517888024],[-16.50640834041226,15.898509832912065],[-16.50631159113402,15.898058616168683],[-16.505844662980078,15.898061870579442],[-16.50592997877557,15.896976736873128],[-16.50555711048828,15.897069713245807],[-16.50556047203594,15.897521581210361],[-16.50528031580272,15.897523532940045],[-16.505277627055904,15.897162038523298],[-16.50453188860851,15.897347988509363],[-16.504527185740578,15.896715373043255],[-16.504900054027047,15.896622398460977],[-16.505176848563995,15.896168579250345],[-16.505174832316904,15.895897458392108],[-16.504801293594415,15.895900059692698],[-16.504985375028628,15.895537264603329],[-16.504705893319674,15.895629588993465],[-16.504610493329455,15.895359118223563],[-16.504236955503053,15.895361718463267],[-16.50442305271037,15.89527004476728],[-16.504327653300574,15.894999573816534],[-16.50451442188052,15.894998273727762],[-16.504606462607214,15.894816876317881],[-16.504509719798932,15.894365658119302],[-16.504880568265452,15.89400156297834],[-16.504879224553793,15.893820815679435],[-16.504598401629377,15.893732392422056],[-16.50432295180216,15.894366958153675],[-16.504042799774602,15.89436890790289],[-16.503671949055658,15.894733001782056],[-16.50366792101417,15.894190759610453],[-16.50347981062693,15.894011311491328],[-16.503287673790165,15.893289620865042],[-16.502912126720844,15.893021097276893],[-16.502445209453466,15.893024343342747],[-16.502365240610967,15.89483246752106],[-16.502756223706665,15.897179587340444],[-16.502570123934984,15.897271259801508],[-16.502572807866127,15.89763275466568],[-16.50229399283477,15.897815449986739],[-16.502483448055674,15.898175646292199],[-16.502299359973243,15.898538439758145],[-16.50211191711239,15.898449364487938],[-16.5020158480427,15.898088518722563],[-16.50164297533195,15.898181488661244],[-16.501554283470725,15.89881475385978],[-16.50202121428472,15.898811508568308],[-16.501090704506954,15.899269866965176],[-16.501094056572764,15.89972173576769],[-16.500906613002037,15.89963265950958]],[[-16.50117872749381,15.898546228076098],[-16.501085341425828,15.898546876840477],[-16.501086682170243,15.898727624376349],[-16.50117872749381,15.898546228076098]],[[-16.498737302662366,15.896755605376747],[-16.498550531964685,15.896756900613456],[-16.498459153974206,15.897028669846247],[-16.498646594144002,15.897117748549295],[-16.498737302662366,15.896755605376747]],[[-16.50535353605309,15.894811674089842],[-16.505070695648456,15.894452130686018],[-16.504885271392386,15.894634178499897],[-16.504887287083037,15.89490529942597],[-16.50507405552782,15.894903998861192],[-16.505263512269853,15.895264192630098],[-16.50535353605309,15.894811674089842]],[[-16.50525679161318,15.89436045636924],[-16.505163407651523,15.894361106729097],[-16.505164079656087,15.894451480362589],[-16.50525679161318,15.89436045636924]],[[-16.505254103471543,15.893998961843002],[-16.505067335877143,15.894000262491298],[-16.50506800782276,15.894090636131807],[-16.505254103471543,15.893998961843002]],[[-16.508912678892322,15.88367033350525],[-16.508537817309087,15.883492192147914],[-16.508352405575874,15.883674241976378],[-16.508447803464783,15.883944711419906],[-16.50891604494123,15.884122201328383],[-16.508912678892322,15.88367033350525]],[[-16.510027161947104,15.882849150502341],[-16.510118519307877,15.88257737792883],[-16.50984107862379,15.882940827918079],[-16.51003053029829,15.883301018126762],[-16.510027161947104,15.882849150502341]],[[-16.508236150319323,15.880602190604426],[-16.508142772828762,15.880602841702576],[-16.50814344554968,15.88069321532651],[-16.508236150319323,15.880602190604426]],[[-16.508967690088443,15.878518387609526],[-16.508874313589565,15.87851903894026],[-16.508874986543763,15.878609412551008],[-16.508967690088443,15.878518387609526]]]}},{"type":"Feature","properties":{"fid":4389.0,"DN":7},"geometry":{"type":"Polygon","coordinates":[[[-16.509710662042558,15.877970934043477],[-16.50970931545025,15.877790186880418],[-16.509896067699987,15.877788883516178],[-16.509710662042558,15.877970934043477]]]}},{"type":"Feature","properties":{"fid":4397.0,"DN":7},"geometry":{"type":"Polygon","coordinates":[[[-16.509991464087754,15.878059352481975],[-16.51017686954408,15.877877301730228],[-16.510175522544397,15.877696554604602],[-16.509988770403883,15.877697858202655],[-16.510173502077386,15.8774254339103],[-16.510271592791284,15.878057396977697],[-16.509991464087754,15.878059352481975]]]}},{"type":"Feature","properties":{"fid":4417.0,"DN":7},"geometry":{"type":"Polygon","coordinates":[[[-16.509969916558767,15.875167397897277],[-16.510061271488308,15.874895625455931],[-16.510154646266788,15.87489497375766],[-16.51015666636964,15.875166094517603],[-16.509969916558767,15.875167397897277]]]}},{"type":"Feature","properties":{"fid":4441.0,"DN":7},"geometry":{"type":"Polygon","coordinates":[[[-16.506773669285636,15.872297571088415],[-16.506772997549586,15.872207197337312],[-16.50686637123185,15.872206547164934],[-16.506773669285636,15.872297571088415]]]}},{"type":"Feature","properties":{"fid":4442.0,"DN":7},"geometry":{"type":"Polygon","coordinates":[[[-16.50686637123185,15.872206547164934],[-16.50686569945854,15.87211617341694],[-16.50695907309489,15.872115523208194],[-16.50686637123185,15.872206547164934]]]}},{"type":"Feature","properties":{"fid":4447.0,"DN":7},"geometry":{"type":"Polygon","coordinates":[[[-16.507237178184948,15.871842451138475],[-16.507236506262586,15.871752077402919],[-16.507329879715282,15.871751427048725],[-16.507237178184948,15.871842451138475]]]}},{"type":"Feature","properties":{"fid":4448.0,"DN":7},"geometry":{"type":"Polygon","coordinates":[[[-16.50602265098395,15.87176052834434],[-16.50602197960655,15.871670154557435],[-16.50611535307388,15.87166950473043],[-16.50602265098395,15.87176052834434]]]}},{"type":"Feature","properties":{"fid":4449.0,"DN":7},"geometry":{"type":"Polygon","coordinates":[[[-16.505934648312838,15.872484168433276],[-16.505838589173276,15.87212332305633],[-16.506117367343816,15.871940626077153],[-16.50611602449287,15.871759878513446],[-16.506398831211918,15.872119423856835],[-16.506678952172866,15.872117473713663],[-16.50723449052147,15.871480956191578],[-16.507144476571437,15.871933475194966],[-16.506679623863,15.872207847469438],[-16.506588265143673,15.872479618835621],[-16.505934648312838,15.872484168433276]]]}},{"type":"Feature","properties":{"fid":4451.0,"DN":7},"geometry":{"type":"Polygon","coordinates":[[[-16.50723449052147,15.871480956191578],[-16.50723314671569,15.871300208713434],[-16.507326519960454,15.871299558378706],[-16.50723449052147,15.871480956191578]]]}},{"type":"Feature","properties":{"fid":4453.0,"DN":7},"geometry":{"type":"Polygon","coordinates":[[[-16.505645129703566,15.87122088443889],[-16.50564378733765,15.871040136823794],[-16.50573716053117,15.871039487185021],[-16.505645129703566,15.87122088443889]]]}},{"type":"Feature","properties":{"fid":4460.0,"DN":7},"geometry":{"type":"Polygon","coordinates":[[[-16.505638418046843,15.870317146332203],[-16.50563774690494,15.870226772517242],[-16.505731119724203,15.87022612291346],[-16.505638418046843,15.870317146332203]]]}},{"type":"Feature","properties":{"fid":4462.0,"DN":7},"geometry":{"type":"Polygon","coordinates":[[[-16.505544374081357,15.870227422080776],[-16.50554303189368,15.870046674440726],[-16.5056364046341,15.870046024884967],[-16.505544374081357,15.870227422080776]]]}},{"type":"Feature","properties":{"fid":4466.0,"DN":7},"geometry":{"type":"Polygon","coordinates":[[[-16.516932445779155,15.869696011526743],[-16.516931093489035,15.869515264831092],[-16.517117837491256,15.869513955897924],[-16.516932445779155,15.869696011526743]]]}},{"type":"Feature","properties":{"fid":4468.0,"DN":7},"geometry":{"type":"Polygon","coordinates":[[[-16.509087829695176,15.869570094652811],[-16.509087157049365,15.869479720975628],[-16.509180529375882,15.869479069913805],[-16.509087829695176,15.869570094652811]]]}},{"type":"Feature","properties":{"fid":4470.0,"DN":7},"geometry":{"type":"Polygon","coordinates":[[[-16.517117837491256,15.869513955897924],[-16.517116485052238,15.86933320921482],[-16.51739660077343,15.869331245536726],[-16.517397953461927,15.86951199219632],[-16.517117837491256,15.869513955897924]]]}},{"type":"Feature","properties":{"fid":4472.0,"DN":7},"geometry":{"type":"Polygon","coordinates":[[[-16.5094916001719,15.873634304111885],[-16.509669598776078,15.872458144164021],[-16.509390150645157,15.872550471858087],[-16.50919734786019,15.871738411511767],[-16.50928802991619,15.871376265704995],[-16.509091865660988,15.870112336699552],[-16.50918120206327,15.86956944358709],[-16.509556037212768,15.869747586234798],[-16.509459300718188,15.8692963691613],[-16.509739417383276,15.869294415395514],[-16.509839519489162,15.870197500500295],[-16.510028957144993,15.870557692153211],[-16.51049784099012,15.870825555020927],[-16.510407834608714,15.87127807475135],[-16.51078267393902,15.87145621487866],[-16.510779980023756,15.871094720511579],[-16.51059323401677,15.871096024103812],[-16.51068526017399,15.870914625131789],[-16.510965378915447,15.87091266958571],[-16.51115347198569,15.87109211284409],[-16.510786714942014,15.871998456405846],[-16.51059929467514,15.871909386482399],[-16.510600641535806,15.872090133669044],[-16.51032186774894,15.872272836091156],[-16.51023388053994,15.872996476584486],[-16.51042466877545,15.873537414691564],[-16.51014521963602,15.873629743451584],[-16.510147239556797,15.873900864244357],[-16.5094916001719,15.873634304111885]],[[-16.510236573821302,15.873357970979555],[-16.510049825682874,15.873359274283766],[-16.510144546337763,15.873539369852434],[-16.510236573821302,15.873357970979555]]]}},{"type":"Feature","properties":{"fid":4494.0,"DN":7},"geometry":{"type":"Polygon","coordinates":[[[-16.510186759343714,15.866670322647295],[-16.510186086337654,15.86657994899188],[-16.510279457281744,15.866579297571894],[-16.510186759343714,15.866670322647295]]]}},{"type":"Feature","properties":{"fid":4497.0,"DN":7},"geometry":{"type":"Polygon","coordinates":[[[-16.502809768079274,15.866631284014568],[-16.502809098361716,15.866540910051063],[-16.50290246960584,15.866540261813876],[-16.502809768079274,15.866631284014568]]]}},{"type":"Feature","properties":{"fid":4502.0,"DN":7},"geometry":{"type":"Polygon","coordinates":[[[-16.509817312487375,15.867215169950072],[-16.509815966760154,15.867034422616658],[-16.509723941230604,15.867215821196158],[-16.509350456160195,15.867218425778088],[-16.509255739653423,15.86703832944278],[-16.509068997249855,15.867039631396228],[-16.50925439444241,15.866857582059462],[-16.509251031490685,15.86640571358751],[-16.509529798790744,15.866223013066527],[-16.509435082678948,15.866042916767226],[-16.509621824133283,15.866041614577608],[-16.509620478685015,15.86586086720829],[-16.50980654715497,15.865769191195284],[-16.510180029478143,15.86576658605809],[-16.510368116718443,15.865946030556552],[-16.51037215513663,15.86648827246328],[-16.509999344436466,15.86658125171115],[-16.51009742623168,15.867213215970375],[-16.509817312487375,15.867215169950072]]]}},{"type":"Feature","properties":{"fid":4513.0,"DN":7},"geometry":{"type":"Polygon","coordinates":[[[-16.511598776041023,15.868196898091275],[-16.511784171722674,15.86801484671098],[-16.51159540756744,15.867745030165453],[-16.511874848006478,15.867652700245959],[-16.511962154934672,15.866838685872619],[-16.511585976418456,15.86647979986925],[-16.511389805595805,15.865215873229287],[-16.51147913481313,15.86467297965332],[-16.511939248012677,15.863765983724464],[-16.51240407425318,15.863491602242103],[-16.512782270182253,15.864121607981287],[-16.512785640489845,15.864573475809523],[-16.512329573272485,15.866022714741304],[-16.5123383347812,15.867197571094724],[-16.512062938515427,15.867832142958623],[-16.512157657838795,15.868012237803443],[-16.511695516458328,15.868648113884213],[-16.511598776041023,15.868196898091275]]]}},{"type":"Feature","properties":{"fid":4519.0,"DN":7},"geometry":{"type":"Polygon","coordinates":[[[-16.505113198582624,15.862457867252418],[-16.50511252802448,15.862367493350083],[-16.505205897248665,15.862366844285695],[-16.505113198582624,15.862457867252418]]]}},{"type":"Feature","properties":{"fid":4520.0,"DN":7},"geometry":{"type":"Polygon","coordinates":[[[-16.505205897248665,15.862366844285695],[-16.50520522665328,15.86227647038646],[-16.505298595831583,15.862275821285744],[-16.505205897248665,15.862366844285695]]]}},{"type":"Feature","properties":{"fid":4521.0,"DN":7},"geometry":{"type":"Polygon","coordinates":[[[-16.505298595831583,15.862275821285744],[-16.50529792519896,15.862185447389614],[-16.505391294331385,15.862184798252544],[-16.505298595831583,15.862275821285744]]]}},{"type":"Feature","properties":{"fid":4525.0,"DN":7},"geometry":{"type":"Polygon","coordinates":[[[-16.505390623661523,15.862094424359531],[-16.505389952995984,15.862004050465732],[-16.50548332204097,15.862003401296207],[-16.505390623661523,15.862094424359531]]]}},{"type":"Feature","properties":{"fid":4529.0,"DN":7},"geometry":{"type":"Polygon","coordinates":[[[-16.507324504159477,15.871028437167325],[-16.50704438478648,15.871030388015726],[-16.506761578698516,15.870670843449014],[-16.506756205554048,15.869947853305817],[-16.50647273014918,15.869497934366397],[-16.505818451708034,15.869412108969584],[-16.50563372014428,15.869684529611051],[-16.50572373699112,15.869232010940067],[-16.50553565017045,15.869052562364624],[-16.505348905591426,15.869053861269869],[-16.505254191469586,15.868873762978442],[-16.504787330340594,15.868877009297158],[-16.504789342462153,15.869148130879799],[-16.504509225358714,15.869150078223049],[-16.50413104297452,15.868520056889794],[-16.503662842057636,15.868342552890951],[-16.50356142871581,15.867258714464679],[-16.503374015621286,15.867169637589523],[-16.503466047065942,15.866988241219628],[-16.502997180451366,15.866720361447175],[-16.502806419534622,15.866179414189192],[-16.502992491906852,15.866087743745974],[-16.502989812833466,15.865726247899538],[-16.503269255522326,15.86563392897871],[-16.503453317313216,15.865271136354929],[-16.503733429196092,15.865269190840692],[-16.503917489848966,15.864906397910778],[-16.504290971599428,15.864903803068744],[-16.504382331012476,15.864632032518278],[-16.504754471190996,15.864448689119095],[-16.504749777873275,15.863816071797759],[-16.504935847142036,15.863724399927841],[-16.504934506075372,15.863543652128701],[-16.504839124855014,15.863273179406692],[-16.504558345523204,15.863184752194353],[-16.504931823993868,15.863182156521049],[-16.50492847148917,15.862730286993916],[-16.50511453971187,15.862638615054749],[-16.505304631719596,15.863089186315738],[-16.505772150300157,15.863176313902624],[-16.505856798177707,15.862000804215862],[-16.50548332204097,15.862003401296207],[-16.50575940425011,15.861459210260403],[-16.50613153740643,15.861275865053562],[-16.506599051924187,15.86136299119969],[-16.506691078200873,15.861181593842462],[-16.507159264046695,15.861359092604866],[-16.507622749264797,15.86090397362843],[-16.507723506123657,15.86189743536226],[-16.5079115874809,15.862076882557716],[-16.507918977430318,15.863070994182488],[-16.508298503320148,15.863881756577738],[-16.508306568142924,15.864966241607572],[-16.508123187676095,15.865419411345236],[-16.50816284515998,15.870751461335265],[-16.50741989320089,15.871298908003727],[-16.507324504159477,15.871028437167325]]]}},{"type":"Feature","properties":{"fid":4576.0,"DN":7},"geometry":{"type":"Polygon","coordinates":[[[-16.51224651123075,15.842344161114795],[-16.51224583839436,15.842253787343068],[-16.512339198061337,15.842253136007837],[-16.51224651123075,15.842344161114795]]]}},{"type":"Feature","properties":{"fid":4578.0,"DN":7},"geometry":{"type":"Polygon","coordinates":[[[-16.512805996331128,15.842249878729055],[-16.51280532325008,15.842159504979978],[-16.51289868284952,15.842158853407605],[-16.512805996331128,15.842249878729055]]]}},{"type":"Feature","properties":{"fid":4593.0,"DN":7},"geometry":{"type":"Polygon","coordinates":[[[-16.512220273826284,15.838819583439488],[-16.51221892849623,15.838638835834415],[-16.512312286503448,15.838638184655368],[-16.512220273826284,15.838819583439488]]]}},{"type":"Feature","properties":{"fid":4594.0,"DN":7},"geometry":{"type":"Polygon","coordinates":[[[-16.51445951947147,15.838623196451891],[-16.514458845817227,15.838532822741968],[-16.514552203678758,15.83853217060288],[-16.51445951947147,15.838623196451891]]]}},{"type":"Feature","properties":{"fid":4597.0,"DN":7},"geometry":{"type":"Polygon","coordinates":[[[-16.512871761506688,15.838543902961268],[-16.512870415621833,15.83836315540619],[-16.51296377347421,15.83836250395771],[-16.512871761506688,15.838543902961268]]]}},{"type":"Feature","properties":{"fid":4599.0,"DN":7},"geometry":{"type":"Polygon","coordinates":[[[-16.5132398084592,15.837818306781104],[-16.513238462311897,15.8376375592448],[-16.51333181981502,15.837636907666928],[-16.5132398084592,15.837818306781104]]]}},{"type":"Feature","properties":{"fid":4602.0,"DN":7},"geometry":{"type":"Polygon","coordinates":[[[-16.51309415404605,15.843332408667104],[-16.512996754684092,15.842790817967511],[-16.513275487690002,15.84260811535628],[-16.513271447919674,15.842065872986058],[-16.512800611804277,15.841526888714617],[-16.51251986092954,15.841438469341636],[-16.51251784219007,15.841167348035869],[-16.512329778226444,15.840987903176433],[-16.512507076239118,15.839721367619841],[-16.51241237215991,15.839541271352221],[-16.51222565532002,15.839542573828574],[-16.5122222918539,15.839090704841244],[-16.512689082883824,15.839087448446739],[-16.51296781142979,15.838904746590142],[-16.512965792432468,15.838633625277435],[-16.513339224296427,15.838631019035],[-16.51324182771271,15.838089428079705],[-16.513611892298332,15.837634952692328],[-16.513424504163684,15.83754588228738],[-16.513423157876485,15.837365134762035],[-16.513887251331,15.83700038114613],[-16.51398464881627,15.837541971759197],[-16.51445143590732,15.837538711881272],[-16.514546140612715,15.83771880721362],[-16.51454748793031,15.837899554638915],[-16.51436144636607,15.837991232541471],[-16.514456824880575,15.838261701607498],[-16.5141767516433,15.83826365774858],[-16.514084740843714,15.838445057170306],[-16.51408743480555,15.838806552071018],[-16.51474094073794,15.83880198729647],[-16.514742962126203,15.839073108381701],[-16.514556919640103,15.839164786528622],[-16.514560962062134,15.839707028720275],[-16.51409484355894,15.839800662983622],[-16.514096190661476,15.83998141041214],[-16.514470298530185,15.840069175704667],[-16.514566352201495,15.840430018265454],[-16.514846428373946,15.840428061360834],[-16.514844406665663,15.840156940322439],[-16.515124482425566,15.840154983091496],[-16.514938439196552,15.840246661628631],[-16.515034493793753,15.840607503896292],[-16.51531457014998,15.840605546365662],[-16.51531254779321,15.84033442539062],[-16.5155912752718,15.840151720236566],[-16.51558992682412,15.839970972936326],[-16.515776643766213,15.839969667528832],[-16.515780015332947,15.84042153573443],[-16.515504658795574,15.841056109381388],[-16.515315918409563,15.840786293678448],[-16.515224581843004,15.841058067211728],[-16.514943830872287,15.840969651011214],[-16.514669144923946,15.84169459753327],[-16.514482426300727,15.841695902125343],[-16.514392435850088,15.842148422786002],[-16.514206390489353,15.84224010086659],[-16.514116399284532,15.842692621465435],[-16.513929679696208,15.842693925661438],[-16.513931700524527,15.842965046751607],[-16.51374565420494,15.843056724513339],[-16.513748348388866,15.843418219317462],[-16.51309415404605,15.843332408667104]],[[-16.513891291385026,15.8375426236143],[-16.51379793394944,15.837543275429237],[-16.513798607265496,15.837633649175118],[-16.513891291385026,15.8375426236143]]]}},{"type":"Feature","properties":{"fid":4630.0,"DN":7},"geometry":{"type":"Polygon","coordinates":[[[-16.515391750172217,15.838435925872144],[-16.514921592002604,15.837987319486281],[-16.514917549080227,15.837445077299574],[-16.514730160661042,15.83735600805669],[-16.514540077898598,15.836905443761182],[-16.514353363664675,15.83690674785842],[-16.514352016608598,15.83672600040032],[-16.514538057072095,15.836634322596332],[-16.514443352968776,15.836454227198344],[-16.514722750003447,15.836361897213516],[-16.51518549102459,15.835816393782858],[-16.514994061559225,15.835185082357583],[-16.51545949513219,15.835001073385506],[-16.514898684177698,15.834914613390387],[-16.514896663140213,15.834643492220993],[-16.51442584208135,15.83410451000007],[-16.51442180152437,15.833562267494841],[-16.514607165696738,15.833380216114316],[-16.514605145254123,15.833109094869956],[-16.514138368368783,15.833112354191538],[-16.514049725663746,15.833745622325544],[-16.51367293750282,15.833296360084587],[-16.512926766161936,15.83339194518556],[-16.513480842764917,15.832574672764244],[-16.51385426340816,15.832572066605264],[-16.514220951375034,15.83166572206885],[-16.514216912019386,15.831123479390385],[-16.513935502417716,15.830944686774803],[-16.51393348319777,15.83067356538519],[-16.513653420347346,15.83067551993886],[-16.513651401539665,15.830404398507048],[-16.513275293823185,15.83004550865387],[-16.513273275604234,15.8297743871588],[-16.51364467246293,15.82950066035035],[-16.51369939299175,15.829494387409987],[-16.518570392592693,15.829222479731236],[-16.51812834704218,15.82983084109983],[-16.51813172156423,15.830282709233021],[-16.517484990517737,15.831191018313811],[-16.517217069916743,15.832819703197343],[-16.516938353541946,15.833002409554073],[-16.516940377081937,15.833273530507263],[-16.516660311040997,15.833275489255374],[-16.51675771309211,15.833817078311794],[-16.516110291529987,15.834635010856786],[-16.51602367744715,15.835539400244812],[-16.515747652779776,15.836083600155671],[-16.515664407694256,15.837439857831336],[-16.515854493469686,15.837890420857905],[-16.51557644330387,15.838163499762379],[-16.515671823488926,15.838433968141219],[-16.515391750172217,15.838435925872144]],[[-16.51555622128427,15.835452289416454],[-16.51527547818588,15.835363872937501],[-16.515277499825412,15.835634994041236],[-16.51546421281094,15.835633689250356],[-16.51555622128427,15.835452289416454]]]}}]}