{"type":"FeatureCollection","name":"urbain-zone-habitation-empreinte.geojson","features":[{"type":"Feature","properties":{"categorie":"Empreinte urbaine"},"geometry":{"type":"Polygon","coordinates":[[[-16.508059,15.900667],[-16.508034,15.900464],[-16.508057,15.900396],[-16.508059,15.900667]]]}},{"type":"Feature","properties":{"categorie":"Empreinte urbaine"},"geometry":{"type":"Polygon","coordinates":[[[-16.50496,15.89843],[-16.50496,15.898339],[-16.505007,15.898384],[-16.50496,15.89843]]]}},{"type":"Feature","properties":{"categorie":"Empreinte urbaine"},"geometry":{"type":"Polygon","coordinates":[[[-16.495323,15.895966],[-16.495349,15.893164],[-16.495674,15.892891],[-16.495821,15.893839],[-16.495599,15.895422],[-16.495323,15.895966]]]}},{"type":"Feature","properties":{"categorie":"Empreinte urbaine"},"geometry":{"type":"Polygon","coordinates":[[[-16.495861,15.89298],[-16.49586,15.892889],[-16.495907,15.892934],[-16.495861,15.89298]]]}},{"type":"Feature","properties":{"categorie":"Empreinte urbaine"},"geometry":{"type":"Polygon","coordinates":[[[-16.495718,15.892529],[-16.495717,15.892438],[-16.495811,15.892483],[-16.495718,15.892529]]]}},{"type":"Feature","properties":{"categorie":"Empreinte urbaine"},"geometry":{"type":"Polygon","coordinates":[[[-16.510593,15.877332],[-16.510592,15.877242],[-16.510639,15.877287],[-16.510593,15.877332]]]}},{"type":"Feature","properties":{"categorie":"Empreinte urbaine"},"geometry":{"type":"Polygon","coordinates":[[[-16.510499,15.877242],[-16.510474,15.876971],[-16.510496,15.876881],[-16.510499,15.877242]]]}},{"type":"Feature","properties":{"categorie":"Empreinte urbaine"},"geometry":{"type":"Polygon","coordinates":[[[-16.505721,15.875197],[-16.505721,15.875107],[-16.505768,15.875151],[-16.505721,15.875197]]]}},{"type":"Feature","properties":{"categorie":"Empreinte urbaine"},"geometry":{"type":"Polygon","coordinates":[[[-16.508249,15.875993],[-16.508195,15.875044],[-16.508662,15.875041],[-16.508249,15.875993]]]}},{"type":"Feature","properties":{"categorie":"Empreinte urbaine"},"geometry":{"type":"Polygon","coordinates":[[[-16.508216,15.859092],[-16.508216,15.859002],[-16.508263,15.859047],[-16.508216,15.859092]]]}},{"type":"Feature","properties":{"categorie":"Empreinte urbaine"},"geometry":{"type":"Polygon","coordinates":[[[-16.509412,15.844081],[-16.509411,15.843991],[-16.509458,15.844036],[-16.509412,15.844081]]]}},{"type":"Feature","properties":{"categorie":"Empreinte urbaine"},"geometry":{"type":"Polygon","coordinates":[[[-16.435692,15.867475],[-16.43558,15.867345],[-16.435324,15.867047],[-16.435324,15.867047],[-16.435692,15.867475]]]}},{"type":"Feature","properties":{"categorie":"Empreinte urbaine"},"geometry":{"type":"Polygon","coordinates":[[[-16.431697,15.822355],[-16.431882,15.821843],[-16.431698,15.822355],[-16.431697,15.822355]]]}},{"type":"Feature","properties":{"categorie":"Empreinte urbaine"},"geometry":{"type":"Polygon","coordinates":[[[-16.513696,15.942631],[-16.51337,15.942656],[-16.512898,15.942027],[-16.513312,15.94121],[-16.51392,15.941251],[-16.514296,15.94161],[-16.514205,15.941972],[-16.513696,15.942631]]]}},{"type":"Feature","properties":{"categorie":"Empreinte urbaine"},"geometry":{"type":"Polygon","coordinates":[[[-16.482207,15.941336],[-16.482207,15.941246],[-16.482254,15.941291],[-16.482207,15.941336]]]}},{"type":"Feature","properties":{"categorie":"Empreinte urbaine"},"geometry":{"type":"Polygon","coordinates":[[[-16.480117,15.939769],[-16.479999,15.939544],[-16.480092,15.939453],[-16.480186,15.939633],[-16.480117,15.939769]]]}},{"type":"Feature","properties":{"categorie":"Empreinte urbaine"},"geometry":{"type":"MultiPolygon","coordinates":[[[[-16.474021,15.93963],[-16.474303,15.939899],[-16.474307,15.940351],[-16.474064,15.940607],[-16.474021,15.93963]]],[[[-16.474076,15.940669],[-16.474498,15.940937],[-16.475152,15.940978],[-16.475427,15.940208],[-16.475332,15.940028],[-16.475655,15.939483],[-16.476029,15.93948],[-16.476261,15.939298],[-16.476401,15.939388],[-16.476223,15.940564],[-16.475491,15.942557],[-16.474979,15.942922],[-16.474931,15.942651],[-16.474257,15.943342],[-16.474076,15.940669]],[[-16.475155,15.941339],[-16.475061,15.94134],[-16.475108,15.941385],[-16.475155,15.941339]],[[-16.474364,15.941751],[-16.474363,15.941661],[-16.474317,15.941706],[-16.474364,15.941751]],[[-16.474458,15.941841],[-16.474457,15.941751],[-16.474411,15.941796],[-16.474458,15.941841]]]]}},{"type":"Feature","properties":{"categorie":"Empreinte urbaine"},"geometry":{"type":"Polygon","coordinates":[[[-16.480277,15.93918],[-16.48009,15.939227],[-16.480229,15.93909],[-16.480277,15.93918]]]}},{"type":"Feature","properties":{"categorie":"Empreinte urbaine"},"geometry":{"type":"Polygon","coordinates":[[[-16.482311,15.933179],[-16.482006,15.933068],[-16.482238,15.93284],[-16.482379,15.932884],[-16.482193,15.932976],[-16.482311,15.933179]]]}},{"type":"Feature","properties":{"categorie":"Empreinte urbaine"},"geometry":{"type":"Polygon","coordinates":[[[-16.482327,15.932207],[-16.482326,15.932117],[-16.482373,15.932161],[-16.482327,15.932207]]]}},{"type":"Feature","properties":{"categorie":"Empreinte urbaine"},"geometry":{"type":"Polygon","coordinates":[[[-16.482232,15.931936],[-16.482231,15.931846],[-16.482278,15.931891],[-16.482232,15.931936]]]}},{"type":"Feature","properties":{"categorie":"Empreinte urbaine"},"geometry":{"type":"Polygon","coordinates":[[[-16.482549,15.930579],[-16.482455,15.930579],[-16.482501,15.930489],[-16.482549,15.930579]]]}},{"type":"Feature","properties":{"categorie":"Empreinte urbaine"},"geometry":{"type":"Polygon","coordinates":[[[-16.501723,15.930966],[-16.501605,15.930808],[-16.501882,15.930354],[-16.500892,15.929096],[-16.500747,15.928419],[-16.500926,15.927379],[-16.500828,15.926747],[-16.501059,15.926474],[-16.502047,15.927461],[-16.502376,15.92764],[-16.502654,15.927457],[-16.5028,15.928224],[-16.502673,15.929897],[-16.501723,15.930966]]]}},{"type":"Feature","properties":{"categorie":"Empreinte urbaine"},"geometry":{"type":"Polygon","coordinates":[[[-16.508059,15.900667],[-16.508011,15.900532],[-16.508057,15.900396],[-16.508059,15.900667]]]}},{"type":"Feature","properties":{"categorie":"Empreinte urbaine"},"geometry":{"type":"Polygon","coordinates":[[[-16.50496,15.89843],[-16.50496,15.898339],[-16.505007,15.898384],[-16.50496,15.89843]]]}},{"type":"Feature","properties":{"categorie":"Empreinte urbaine"},"geometry":{"type":"Polygon","coordinates":[[[-16.495323,15.895966],[-16.495349,15.893164],[-16.495674,15.892891],[-16.495821,15.893839],[-16.495599,15.895422],[-16.495323,15.895966]]]}},{"type":"Feature","properties":{"categorie":"Empreinte urbaine"},"geometry":{"type":"Polygon","coordinates":[[[-16.495861,15.89298],[-16.49586,15.892889],[-16.495907,15.892934],[-16.495861,15.89298]]]}},{"type":"Feature","properties":{"categorie":"Empreinte urbaine"},"geometry":{"type":"Polygon","coordinates":[[[-16.495718,15.892529],[-16.495717,15.892438],[-16.495811,15.892483],[-16.495718,15.892529]]]}},{"type":"Feature","properties":{"categorie":"Empreinte urbaine"},"geometry":{"type":"Polygon","coordinates":[[[-16.510593,15.877332],[-16.510592,15.877242],[-16.510639,15.877287],[-16.510593,15.877332]]]}},{"type":"Feature","properties":{"categorie":"Empreinte urbaine"},"geometry":{"type":"Polygon","coordinates":[[[-16.510499,15.877242],[-16.510451,15.877062],[-16.510496,15.876881],[-16.510499,15.877242]]]}},{"type":"Feature","properties":{"categorie":"Empreinte urbaine"},"geometry":{"type":"Polygon","coordinates":[[[-16.505721,15.875197],[-16.505721,15.875107],[-16.505768,15.875151],[-16.505721,15.875197]]]}},{"type":"Feature","properties":{"categorie":"Empreinte urbaine"},"geometry":{"type":"Polygon","coordinates":[[[-16.508225,15.875925],[-16.508106,15.875677],[-16.50829,15.875269],[-16.508195,15.875044],[-16.508662,15.875041],[-16.508225,15.875925]]]}},{"type":"Feature","properties":{"categorie":"Empreinte urbaine"},"geometry":{"type":"Polygon","coordinates":[[[-16.510174,15.877516],[-16.509404,15.874448],[-16.509395,15.873183],[-16.509061,15.872282],[-16.508359,15.87197],[-16.508682,15.871471],[-16.508869,15.87156],[-16.509055,15.871378],[-16.508898,15.86921],[-16.509037,15.869028],[-16.509691,15.869024],[-16.510075,15.870467],[-16.510896,15.870981],[-16.511157,15.871499],[-16.510648,15.87218],[-16.510488,15.875706],[-16.510348,15.875843],[-16.510447,15.876565],[-16.51017,15.877019],[-16.510174,15.877516]]]}},{"type":"Feature","properties":{"categorie":"Empreinte urbaine"},"geometry":{"type":"Polygon","coordinates":[[[-16.509123,15.867988],[-16.508841,15.867764],[-16.508744,15.867313],[-16.509022,15.86704],[-16.509666,15.86568],[-16.510179,15.865631],[-16.51037,15.866172],[-16.510145,15.867394],[-16.509543,15.867985],[-16.509123,15.867988]]]}},{"type":"Feature","properties":{"categorie":"Empreinte urbaine"},"geometry":{"type":"Polygon","coordinates":[[[-16.511415,15.86856],[-16.511363,15.867837],[-16.511686,15.867428],[-16.51131,15.867024],[-16.511488,15.865848],[-16.511391,15.865442],[-16.511898,15.864489],[-16.512411,15.864441],[-16.512693,15.864619],[-16.512373,15.865571],[-16.51229,15.866927],[-16.51174,15.868377],[-16.511415,15.86856]]]}},{"type":"Feature","properties":{"categorie":"Empreinte urbaine"},"geometry":{"type":"Polygon","coordinates":[[[-16.508216,15.859092],[-16.508216,15.859002],[-16.508263,15.859047],[-16.508216,15.859092]]]}},{"type":"Feature","properties":{"categorie":"Empreinte urbaine"},"geometry":{"type":"Polygon","coordinates":[[[-16.511158,15.852836],[-16.511157,15.852745],[-16.511204,15.85279],[-16.511158,15.852836]]]}},{"type":"Feature","properties":{"categorie":"Empreinte urbaine"},"geometry":{"type":"Polygon","coordinates":[[[-16.511318,15.85245],[-16.511011,15.852023],[-16.511104,15.851932],[-16.511387,15.852292],[-16.511318,15.85245]]]}},{"type":"Feature","properties":{"categorie":"Empreinte urbaine"},"geometry":{"type":"Polygon","coordinates":[[[-16.511382,15.851659],[-16.511289,15.85166],[-16.511335,15.851569],[-16.511382,15.851659]]]}},{"type":"Feature","properties":{"categorie":"Empreinte urbaine"},"geometry":{"type":"Polygon","coordinates":[[[-16.511054,15.851458],[-16.510819,15.851256],[-16.510911,15.85112],[-16.511193,15.851389],[-16.511054,15.851458]]]}},{"type":"Feature","properties":{"categorie":"Empreinte urbaine"},"geometry":{"type":"Polygon","coordinates":[[[-16.511044,15.850125],[-16.511043,15.850035],[-16.51109,15.85008],[-16.511044,15.850125]]]}},{"type":"Feature","properties":{"categorie":"Empreinte urbaine"},"geometry":{"type":"Polygon","coordinates":[[[-16.511137,15.850034],[-16.511136,15.849944],[-16.511183,15.849989],[-16.511137,15.850034]]]}},{"type":"Feature","properties":{"categorie":"Empreinte urbaine"},"geometry":{"type":"Polygon","coordinates":[[[-16.509944,15.849749],[-16.509499,15.849548],[-16.509776,15.84914],[-16.510246,15.849588],[-16.509944,15.849749]]]}},{"type":"Feature","properties":{"categorie":"Empreinte urbaine"},"geometry":{"type":"Polygon","coordinates":[[[-16.511576,15.849466],[-16.511364,15.849174],[-16.511687,15.848675],[-16.511735,15.848945],[-16.511576,15.849466]]]}},{"type":"Feature","properties":{"categorie":"Empreinte urbaine"},"geometry":{"type":"Polygon","coordinates":[[[-16.514532,15.848384],[-16.514439,15.848384],[-16.514485,15.848294],[-16.514532,15.848384]]]}},{"type":"Feature","properties":{"categorie":"Empreinte urbaine"},"geometry":{"type":"Polygon","coordinates":[[[-16.510419,15.847644],[-16.510231,15.847555],[-16.510277,15.847419],[-16.510419,15.847644]]]}},{"type":"Feature","properties":{"categorie":"Empreinte urbaine"},"geometry":{"type":"Polygon","coordinates":[[[-16.511796,15.847657],[-16.510789,15.84719],[-16.511442,15.847185],[-16.511907,15.846911],[-16.5119,15.846007],[-16.512131,15.845599],[-16.512553,15.845822],[-16.51237,15.84641],[-16.512467,15.846816],[-16.512238,15.847405],[-16.511796,15.847657]]]}},{"type":"Feature","properties":{"categorie":"Empreinte urbaine"},"geometry":{"type":"Polygon","coordinates":[[[-16.512738,15.845594],[-16.512644,15.845595],[-16.51269,15.845504],[-16.512738,15.845594]]]}},{"type":"Feature","properties":{"categorie":"Empreinte urbaine"},"geometry":{"type":"Polygon","coordinates":[[[-16.512782,15.845233],[-16.512781,15.845142],[-16.512828,15.845187],[-16.512782,15.845233]]]}},{"type":"Feature","properties":{"categorie":"Empreinte urbaine"},"geometry":{"type":"Polygon","coordinates":[[[-16.509412,15.844081],[-16.509411,15.843991],[-16.509458,15.844036],[-16.509412,15.844081]]]}},{"type":"Feature","properties":{"categorie":"Empreinte urbaine"},"geometry":{"type":"Polygon","coordinates":[[[-16.509305,15.845392],[-16.509091,15.844942],[-16.509322,15.844624],[-16.509511,15.844803],[-16.509741,15.84444],[-16.509459,15.844126],[-16.50964,15.843402],[-16.509546,15.843312],[-16.509684,15.843085],[-16.509967,15.843354],[-16.51015,15.842901],[-16.510388,15.843577],[-16.509981,15.845252],[-16.509305,15.845392]]]}},{"type":"Feature","properties":{"categorie":"Empreinte urbaine"},"geometry":{"type":"Polygon","coordinates":[[[-16.491933,15.947989],[-16.491774,15.946602],[-16.491117,15.946155],[-16.490637,15.944351],[-16.490622,15.942363],[-16.489993,15.939384],[-16.490222,15.93875],[-16.490523,15.938454],[-16.490967,15.938564],[-16.491735,15.938107],[-16.491838,15.937661],[-16.492499,15.937243],[-16.492729,15.936745],[-16.492974,15.937804],[-16.493586,15.938998],[-16.493779,15.93981],[-16.494028,15.941842],[-16.493665,15.94329],[-16.493912,15.945232],[-16.494245,15.946043],[-16.493898,15.947864],[-16.491933,15.947989]]]}},{"type":"Feature","properties":{"categorie":"Empreinte urbaine"},"geometry":{"type":"Polygon","coordinates":[[[-16.509969,15.882325],[-16.510194,15.886463],[-16.509234,15.889796],[-16.509293,15.890898],[-16.508744,15.892348],[-16.508566,15.893524],[-16.508571,15.894247],[-16.508807,15.894607],[-16.508576,15.89488],[-16.508416,15.89601],[-16.508462,15.89836],[-16.508326,15.899084],[-16.508558,15.899825],[-16.507953,15.900398],[-16.507245,15.900749],[-16.50696,15.900739],[-16.506612,15.900182],[-16.506963,15.899055],[-16.506132,15.898964],[-16.505703,15.897882],[-16.505565,15.898109],[-16.505659,15.898199],[-16.505473,15.898336],[-16.505143,15.897886],[-16.505004,15.897977],[-16.5043,15.897621],[-16.504208,15.897712],[-16.503922,15.896991],[-16.503776,15.896224],[-16.503868,15.896042],[-16.503489,15.895186],[-16.503484,15.894554],[-16.50376,15.894055],[-16.503528,15.894192],[-16.503242,15.89338],[-16.502773,15.893112],[-16.50254,15.89325],[-16.502449,15.893567],[-16.502699,15.895824],[-16.502892,15.896546],[-16.503314,15.896859],[-16.503221,15.89695],[-16.503412,15.897401],[-16.503046,15.898443],[-16.502767,15.898626],[-16.502439,15.898447],[-16.501093,15.899631],[-16.500904,15.899271],[-16.500996,15.89909],[-16.501137,15.89927],[-16.501088,15.898908],[-16.500761,15.898911],[-16.500432,15.898551],[-16.500246,15.898688],[-16.500435,15.899003],[-16.500156,15.899186],[-16.49978,15.898872],[-16.499032,15.898697],[-16.498699,15.897931],[-16.498513,15.897932],[-16.498087,15.897212],[-16.498179,15.897076],[-16.497942,15.89658],[-16.497711,15.896853],[-16.497335,15.896539],[-16.497594,15.893736],[-16.49688,15.891798],[-16.496553,15.8918],[-16.496044,15.892436],[-16.495479,15.891898],[-16.495341,15.89217],[-16.495285,15.890905],[-16.495476,15.891446],[-16.495664,15.891535],[-16.495709,15.891399],[-16.495518,15.890813],[-16.49561,15.890541],[-16.495515,15.890451],[-16.49533,15.890633],[-16.495233,15.890182],[-16.49537,15.889729],[-16.496063,15.88873],[-16.496009,15.887737],[-16.496285,15.887192],[-16.496612,15.88719],[-16.497263,15.886824],[-16.497544,15.886913],[-16.497729,15.886731],[-16.498103,15.886773],[-16.498799,15.886181],[-16.499223,15.886675],[-16.499132,15.886992],[-16.499508,15.887306],[-16.500067,15.887166],[-16.501038,15.885894],[-16.501032,15.88499],[-16.500797,15.884811],[-16.500564,15.884903],[-16.500469,15.884633],[-16.5007,15.884315],[-16.502004,15.883899],[-16.502329,15.883626],[-16.503079,15.883982],[-16.503405,15.883935],[-16.503823,15.883615],[-16.504058,15.883885],[-16.504244,15.883793],[-16.504386,15.883973],[-16.504525,15.883882],[-16.504853,15.88406],[-16.505457,15.883649],[-16.50578,15.88306],[-16.50602,15.883962],[-16.50598,15.884866],[-16.506123,15.885226],[-16.506403,15.885224],[-16.507027,15.881288],[-16.506931,15.880882],[-16.507716,15.879702],[-16.507895,15.878707],[-16.508126,15.878389],[-16.507843,15.877984],[-16.507837,15.877216],[-16.507647,15.876765],[-16.50788,15.876628],[-16.508155,15.875993],[-16.508071,15.877169],[-16.508683,15.877843],[-16.50859,15.877934],[-16.508874,15.878474],[-16.509388,15.878515],[-16.510037,15.877969],[-16.510552,15.878055],[-16.510274,15.878374],[-16.510138,15.878872],[-16.509834,15.881963],[-16.509842,15.882342],[-16.509969,15.882325]],[[-16.508259,15.877439],[-16.50826,15.877529],[-16.508306,15.877484],[-16.508259,15.877439]],[[-16.503311,15.887031],[-16.503516,15.886284],[-16.503277,15.885517],[-16.502999,15.885881],[-16.502957,15.886514],[-16.503102,15.887145],[-16.503311,15.887031]],[[-16.498081,15.896444],[-16.497894,15.896445],[-16.498036,15.89658],[-16.498081,15.896444]],[[-16.49813,15.896669],[-16.49813,15.89676],[-16.498177,15.896714],[-16.49813,15.896669]]]}},{"type":"Feature","properties":{"categorie":"Empreinte urbaine"},"geometry":{"type":"Polygon","coordinates":[[[-16.504476,15.933771],[-16.504243,15.933772],[-16.504245,15.934134],[-16.503964,15.934],[-16.504148,15.933638],[-16.503866,15.933368],[-16.504142,15.932869],[-16.503909,15.932871],[-16.503861,15.932645],[-16.504227,15.931649],[-16.504031,15.930385],[-16.504294,15.928078],[-16.504196,15.927491],[-16.504378,15.926903],[-16.504565,15.926901],[-16.504473,15.927128],[-16.504614,15.927263],[-16.50503,15.926672],[-16.504839,15.926086],[-16.50521,15.925677],[-16.504553,15.92532],[-16.504828,15.92464],[-16.505201,15.924502],[-16.505198,15.924095],[-16.505009,15.92378],[-16.505147,15.923553],[-16.50567,15.92477],[-16.505578,15.924951],[-16.506049,15.925535],[-16.505958,15.925807],[-16.506148,15.926303],[-16.505843,15.929152],[-16.505291,15.930331],[-16.504975,15.931824],[-16.50507,15.931959],[-16.504704,15.933001],[-16.504893,15.933361],[-16.504479,15.934132],[-16.504476,15.933771]]]}},{"type":"Feature","properties":{"categorie":"Empreinte urbaine"},"geometry":{"type":"Polygon","coordinates":[[[-16.444178,15.84083],[-16.443268,15.840551],[-16.442928,15.839318],[-16.444491,15.839185],[-16.444761,15.840469],[-16.444178,15.84083]]]}},{"type":"Feature","properties":{"categorie":"Empreinte urbaine"},"geometry":{"type":"Polygon","coordinates":[[[-16.439457,15.845996],[-16.439168,15.845966],[-16.439194,15.845054],[-16.437901,15.844703],[-16.437942,15.844273],[-16.437408,15.844063],[-16.437556,15.843368],[-16.437847,15.843453],[-16.437902,15.843917],[-16.438273,15.843995],[-16.438309,15.843526],[-16.438779,15.843449],[-16.438846,15.843786],[-16.439286,15.843815],[-16.439296,15.844449],[-16.439876,15.844625],[-16.439457,15.845996]]]}},{"type":"Feature","properties":{"categorie":"Empreinte urbaine"},"geometry":{"type":"Polygon","coordinates":[[[-16.438282,15.857068],[-16.437681,15.856891],[-16.437826,15.856431],[-16.437622,15.856453],[-16.437568,15.855792],[-16.438083,15.855375],[-16.438384,15.855413],[-16.438282,15.857068]]]}},{"type":"Feature","properties":{"categorie":"Empreinte urbaine"},"geometry":{"type":"Polygon","coordinates":[[[-16.436002,15.867672],[-16.435324,15.867047],[-16.435403,15.866857],[-16.435111,15.866696],[-16.4353,15.866334],[-16.435874,15.866366],[-16.436002,15.865891],[-16.436238,15.865964],[-16.436223,15.866313],[-16.436653,15.866293],[-16.436631,15.866514],[-16.437765,15.866338],[-16.437602,15.866767],[-16.437296,15.866974],[-16.437704,15.867264],[-16.437477,15.867516],[-16.436498,15.867104],[-16.436002,15.867672]]]}},{"type":"Feature","properties":{"categorie":"Empreinte urbaine"},"geometry":{"type":"Polygon","coordinates":[[[-16.50341,15.865978],[-16.503491,15.865734],[-16.502988,15.865455],[-16.502938,15.865004],[-16.503076,15.864731],[-16.503262,15.86464],[-16.503543,15.864819],[-16.504287,15.864316],[-16.504192,15.864181],[-16.504468,15.863547],[-16.503997,15.863098],[-16.504133,15.862465],[-16.504595,15.861829],[-16.50505,15.860199],[-16.506305,15.859422],[-16.507052,15.859552],[-16.508123,15.859093],[-16.507625,15.861187],[-16.507834,15.861766],[-16.507959,15.863157],[-16.508375,15.864107],[-16.508295,15.865956],[-16.50804,15.866821],[-16.508238,15.868311],[-16.508059,15.869397],[-16.50835,15.87075],[-16.507932,15.871115],[-16.506874,15.873291],[-16.506127,15.873296],[-16.505757,15.873706],[-16.50604,15.874155],[-16.505856,15.874473],[-16.505386,15.874115],[-16.505173,15.87371],[-16.504625,15.872132],[-16.504014,15.871594],[-16.503678,15.870421],[-16.504417,15.869331],[-16.504225,15.868655],[-16.504318,15.868564],[-16.503659,15.867845],[-16.503331,15.867712],[-16.503374,15.867124],[-16.502951,15.866811],[-16.502859,15.866992],[-16.50267,15.866723],[-16.502581,15.867266],[-16.50206,15.86632],[-16.502294,15.866364],[-16.502525,15.866001],[-16.5029,15.866179],[-16.50341,15.865978]]]}},{"type":"Feature","properties":{"categorie":"Empreinte urbaine"},"geometry":{"type":"Polygon","coordinates":[[[-16.512344,15.844347],[-16.512078,15.84425],[-16.51203,15.844605],[-16.511841,15.844335],[-16.511471,15.84479],[-16.511331,15.844746],[-16.511423,15.844655],[-16.511234,15.84434],[-16.511605,15.84393],[-16.511461,15.843434],[-16.510427,15.842447],[-16.510513,15.841452],[-16.510653,15.841542],[-16.510883,15.841088],[-16.510876,15.840094],[-16.510734,15.839824],[-16.510964,15.839371],[-16.510957,15.838377],[-16.509507,15.83798],[-16.509876,15.83739],[-16.509873,15.837074],[-16.509732,15.836939],[-16.509639,15.83703],[-16.509356,15.83658],[-16.509302,15.835631],[-16.509437,15.834953],[-16.50976,15.834453],[-16.509711,15.834137],[-16.509942,15.833819],[-16.509938,15.833187],[-16.509515,15.832783],[-16.509404,15.830524],[-16.509263,15.83039],[-16.509446,15.829891],[-16.510145,15.829706],[-16.514255,15.829482],[-16.514239,15.828918],[-16.514545,15.828764],[-16.515151,15.828793],[-16.516094,15.829393],[-16.518591,15.82924],[-16.518364,15.830191],[-16.517445,15.832095],[-16.51736,15.83318],[-16.516344,15.834633],[-16.515888,15.836173],[-16.515812,15.838433],[-16.515467,15.838531],[-16.515305,15.839341],[-16.515821,15.839698],[-16.51587,15.839924],[-16.515368,15.841509],[-16.514393,15.842176],[-16.514179,15.84306],[-16.513239,15.844527],[-16.51311,15.844411],[-16.512873,15.844961],[-16.512776,15.84451],[-16.512544,15.844692],[-16.512344,15.844347]]]}},{"type":"Feature","properties":{"categorie":"Empreinte urbaine"},"geometry":{"type":"Polygon","coordinates":[[[-16.488038,15.868521],[-16.487115,15.868525],[-16.487284,15.867642],[-16.486173,15.867035],[-16.486589,15.865231],[-16.486883,15.864621],[-16.488708,15.8643],[-16.489052,15.865366],[-16.48816,15.865768],[-16.488038,15.868521]]]}},{"type":"Feature","properties":{"categorie":"Empreinte urbaine"},"geometry":{"type":"Polygon","coordinates":[[[-16.500035,15.880265],[-16.499975,15.880036],[-16.499554,15.88001],[-16.49969,15.879326],[-16.499475,15.878829],[-16.49963,15.878797],[-16.499319,15.87837],[-16.49975,15.877897],[-16.500369,15.877677],[-16.500677,15.877727],[-16.500853,15.878066],[-16.501117,15.87806],[-16.501729,15.877554],[-16.502286,15.877685],[-16.502399,15.87803],[-16.502846,15.878075],[-16.503719,15.878646],[-16.503795,15.878922],[-16.503359,15.879491],[-16.502147,15.879323],[-16.501246,15.880155],[-16.500035,15.880265]]]}},{"type":"Feature","properties":{"categorie":"Empreinte urbaine"},"geometry":{"type":"Polygon","coordinates":[[[-16.486862,15.898168],[-16.485413,15.898544],[-16.485145,15.898177],[-16.48512,15.89778],[-16.485347,15.896669],[-16.486173,15.896846],[-16.486848,15.897487],[-16.487396,15.897467],[-16.487911,15.897689],[-16.488196,15.898365],[-16.487872,15.898819],[-16.487168,15.898236],[-16.486862,15.898168]]]}},{"type":"Feature","properties":{"categorie":"Empreinte urbaine"},"geometry":{"type":"Polygon","coordinates":[[[-16.521075,15.811571],[-16.519204,15.811306],[-16.520139,15.808719],[-16.520861,15.808533],[-16.521142,15.810232],[-16.521075,15.811571]]]}},{"type":"Feature","properties":{"categorie":"Empreinte urbaine"},"geometry":{"type":"Polygon","coordinates":[[[-16.477474,15.812887],[-16.477087,15.812934],[-16.475969,15.812249],[-16.475918,15.81179],[-16.476175,15.811506],[-16.47664,15.810319],[-16.477015,15.810231],[-16.4778,15.810732],[-16.47842,15.810428],[-16.477659,15.810997],[-16.47731,15.811818],[-16.477474,15.812887]]]}},{"type":"Feature","properties":{"categorie":"Empreinte urbaine"},"geometry":{"type":"Polygon","coordinates":[[[-16.432021,15.822366],[-16.431697,15.822355],[-16.432159,15.821074],[-16.432285,15.822103],[-16.432021,15.822366]]]}},{"type":"Feature","properties":{"categorie":"Empreinte urbaine"},"geometry":{"type":"Polygon","coordinates":[[[-16.468898,15.811269],[-16.468275,15.811197],[-16.467969,15.81091],[-16.467841,15.81041],[-16.467965,15.810149],[-16.468648,15.809979],[-16.468962,15.810133],[-16.469123,15.810917],[-16.468898,15.811269]]]}},{"type":"Feature","properties":{"categorie":"Empreinte urbaine"},"geometry":{"type":"Polygon","coordinates":[[[-16.467041,15.807488],[-16.46613,15.807222],[-16.466284,15.806257],[-16.466906,15.806349],[-16.466869,15.806796],[-16.467165,15.806846],[-16.467041,15.807488]]]}},{"type":"Feature","properties":{"categorie":"Empreinte urbaine"},"geometry":{"type":"Polygon","coordinates":[[[-16.48504,15.791998],[-16.484161,15.791743],[-16.484094,15.790621],[-16.484812,15.79087],[-16.485059,15.790194],[-16.485412,15.790318],[-16.485249,15.790641],[-16.485702,15.790766],[-16.48504,15.791998]]]}}]}